{"type": "FeatureCollection", "features": [{"type": "Feature", "id": 29607647, "geometry": {"type": "Polygon", "coordinates": [[[-71.060733, 42.351958], [-71.060769, 42.35207], [-71.061104, 42.352011], [-71.061134, 42.352238], [-71.061077, 42.352452], [-71.060713, 42.352491], [-71.060539, 42.351992], [-71.060733, 42.351958]]]}, "properties": {"addr:housenumber": "2;8", "addr:street": "Harrison Avenue", "building": "yes", "building:height": "40", "height": "40"}}, {"type": "Feature", "id": 29650703, "geometry": {"type": "Polygon", "coordinates": [[[-71.062399, 42.352476], [-71.062437, 42.352496], [-71.062426, 42.353001], [-71.062426, 42.353005], [-71.062426, 42.353009], [-71.062425, 42.353013], [-71.062423, 42.353018], [-71.062421, 42.353021], [-71.062418, 42.353025], [-71.062414, 42.353029], [-71.06241, 42.353032], [-71.062405, 42.353034], [-71.0624, 42.353037], [-71.062395, 42.353038], [-71.062389, 42.353039], [-71.062383, 42.35304], [-71.062378, 42.35304], [-71.062369, 42.35304], [-71.061528, 42.353084], [-71.061502, 42.352557], [-71.062399, 42.352476]]]}, "properties": {"addr:city": "Boston", "addr:housenumber": "600", "addr:state": "MA", "addr:street": "Washington Street", "building": "commercial", "building:levels": "7"}}, {"type": "Feature", "id": 240478021, "geometry": {"type": "Polygon", "coordinates": [[[-71.058899, 42.352593], [-71.058882, 42.352592], [-71.05878, 42.352586], [-71.058728, 42.352582], [-71.058668, 42.352579], [-71.058311, 42.352556], [-71.058249, 42.352552], [-71.058189, 42.352548], [-71.058166, 42.352547], [-71.058057, 42.352615], [-71.058055, 42.352634], [-71.058049, 42.352686], [-71.058038, 42.352779], [-71.058034, 42.352817], [-71.058022, 42.352914], [-71.058145, 42.352922], [-71.058206, 42.352926], [-71.058266, 42.35293], [-71.058525, 42.352946], [-71.05859, 42.35295], [-71.058622, 42.352953], [-71.058656, 42.352955], [-71.058681, 42.352956], [-71.058727, 42.352959], [-71.058737, 42.352953], [-71.05874, 42.352926], [-71.058764, 42.352928], [-71.058765, 42.352919], [-71.058789, 42.35292], [-71.058797, 42.352915], [-71.058801, 42.352878], [-71.058808, 42.352874], [-71.058856, 42.352877], [-71.058867, 42.35287], [-71.058871, 42.352831], [-71.058879, 42.352769], [-71.058882, 42.352741], [-71.058885, 42.352715], [-71.058888, 42.352687], [-71.058899, 42.352593]]]}, "properties": {"addr:city": "Boston", "addr:housename": "One Lincoln Street", "addr:housenumber": "1", "addr:state": "MA", "addr:street": "Lincoln Street", "alt_name": "State Street Financial Center", "building": "commercial", "building:height": "155m", "building:levels": "36", "fixme": "heights estimated", "name": "State Street Financial Center", "roof:material": "concrete", "roof:shape": "flat", "wikidata": "Q6351283", "wikipedia": "en:One Lincoln Street", "height": "155"}}, {"type": "Feature", "id": 240540694, "geometry": {"type": "Polygon", "coordinates": [[[-71.059334, 42.352573], [-71.058907, 42.352527], [-71.058889, 42.352526], [-71.058882, 42.352592], [-71.058899, 42.352593], [-71.058888, 42.352687], [-71.058885, 42.352715], [-71.058882, 42.352741], [-71.058879, 42.352769], [-71.058871, 42.352831], [-71.058867, 42.35287], [-71.058856, 42.352877], [-71.058808, 42.352874], [-71.058801, 42.352878], [-71.058797, 42.352915], [-71.058789, 42.35292], [-71.058765, 42.352919], [-71.058764, 42.352928], [-71.05874, 42.352926], [-71.058737, 42.352953], [-71.058727, 42.352959], [-71.058681, 42.352956], [-71.058656, 42.352955], [-71.058617, 42.353241], [-71.058616, 42.353248], [-71.059188, 42.353276], [-71.059259, 42.353276], [-71.059292, 42.35327], [-71.059327, 42.353258], [-71.059359, 42.353243], [-71.059381, 42.353224], [-71.0594, 42.353203], [-71.059411, 42.353182], [-71.059412, 42.353164], [-71.059353, 42.352801], [-71.059343, 42.352736], [-71.059353, 42.352737], [-71.059334, 42.352573]]]}, "properties": {"building": "yes", "building:colour": "#999966", "roof:material": "concrete", "roof:shape": "flat"}}, {"type": "Feature", "id": 241937979, "geometry": {"type": "Polygon", "coordinates": [[[-71.060523, 42.352625], [-71.060528, 42.35276], [-71.060529, 42.352781], [-71.060548, 42.352766], [-71.060704, 42.352839], [-71.06084, 42.352903], [-71.060727, 42.353037], [-71.060723, 42.35304], [-71.060718, 42.353043], [-71.060714, 42.353045], [-71.060708, 42.353047], [-71.060703, 42.353049], [-71.060697, 42.35305], [-71.060691, 42.35305], [-71.060685, 42.35305], [-71.060679, 42.35305], [-71.060673, 42.353048], [-71.060667, 42.353047], [-71.060662, 42.353045], [-71.060657, 42.353042], [-71.060653, 42.353039], [-71.060649, 42.353036], [-71.060646, 42.353032], [-71.060643, 42.353028], [-71.060641, 42.353024], [-71.06064, 42.35302], [-71.060639, 42.353012], [-71.060275, 42.35284], [-71.060328, 42.352753], [-71.060336, 42.352741], [-71.060357, 42.352748], [-71.06035, 42.352628], [-71.060523, 42.352625]]]}, "properties": {"building": "yes", "building:colour": "white", "building:levels": "6", "roof:material": "concrete", "roof:shape": "flat"}}, {"type": "Feature", "id": 241937980, "geometry": {"type": "Polygon", "coordinates": [[[-71.060523, 42.352625], [-71.060966, 42.352591], [-71.060969, 42.352597], [-71.060972, 42.352602], [-71.060975, 42.352608], [-71.060977, 42.352614], [-71.060979, 42.35262], [-71.060981, 42.352626], [-71.060982, 42.352632], [-71.060984, 42.352638], [-71.060985, 42.352644], [-71.060985, 42.35265], [-71.060986, 42.352656], [-71.060986, 42.352662], [-71.060986, 42.352668], [-71.060985, 42.352674], [-71.060984, 42.35268], [-71.060983, 42.352686], [-71.060982, 42.352692], [-71.06098, 42.352698], [-71.060979, 42.352704], [-71.060976, 42.35271], [-71.060974, 42.352715], [-71.060971, 42.352721], [-71.060968, 42.352727], [-71.060965, 42.352732], [-71.060962, 42.352738], [-71.060959, 42.352741], [-71.060852, 42.352889], [-71.06084, 42.352903], [-71.060704, 42.352839], [-71.060727, 42.352813], [-71.060677, 42.352812], [-71.060672, 42.352753], [-71.060528, 42.35276], [-71.060523, 42.352625]]]}, "properties": {"building": "yes", "building:levels": "8", "building:material": "brick", "roof:material": "concrete", "roof:shape": "flat"}}, {"type": "Feature", "id": 241937982, "geometry": {"type": "Polygon", "coordinates": [[[-71.060328, 42.352753], [-71.060195, 42.352735], [-71.060188, 42.352639], [-71.06035, 42.352628], [-71.060357, 42.352748], [-71.060336, 42.352741], [-71.060328, 42.352753]]]}, "properties": {"amenity": "restaurant", "building": "yes", "building:levels": "3", "building:material": "brick", "cuisine": "chinese", "name": "Chow City Dim Sum", "roof:material": "concrete"}}, {"type": "Feature", "id": 458576309, "geometry": {"type": "Polygon", "coordinates": [[[-71.06134, 42.352576], [-71.061187, 42.352589], [-71.061134, 42.352781], [-71.061108, 42.352807], [-71.061253, 42.352882], [-71.061342, 42.352873], [-71.06134, 42.352576]]]}, "properties": {"addr:city": "Boston", "addr:housenumber": "115", "addr:state": "MA", "addr:street": "Chauncy Street", "building": "apartments", "building:levels": "11", "name": "Chauncy House"}}, {"type": "Feature", "id": 29613450, "geometry": {"type": "Polygon", "coordinates": [[[-71.060315, 42.352162], [-71.060501, 42.352129], [-71.060587, 42.352486], [-71.060157, 42.352487], [-71.060116, 42.352204], [-71.060323, 42.352205], [-71.060315, 42.352162]]]}, "properties": {"addr:housenumber": "80", "addr:street": "Essex Street", "building": "yes", "building:height": "30", "height": "30"}}, {"type": "Feature", "id": 29614632, "geometry": {"type": "Polygon", "coordinates": [[[-71.056205, 42.352055], [-71.056808, 42.352205], [-71.056978, 42.352247], [-71.056859, 42.352476], [-71.056246, 42.352632], [-71.056106, 42.352607], [-71.05609, 42.352585], [-71.056022, 42.35261], [-71.055841, 42.352343], [-71.055874, 42.352331], [-71.055867, 42.352319], [-71.055921, 42.352144], [-71.056205, 42.352055]]]}, "properties": {"addr:city": "Boston", "addr:housenumber": "1", "addr:state": "MA", "addr:street": "Financial Center", "building": "commercial", "building:height": "180m", "building:levels": "46", "name": "One Financial Center", "roof:material": "concrete", "roof:shape": "flat", "wikidata": "Q1351185", "wikipedia": "en:One Financial Center", "height": "180"}}, {"type": "Feature", "id": 29555299, "geometry": {"type": "Polygon", "coordinates": [[[-71.061648, 42.356285], [-71.061619, 42.356313], [-71.061578, 42.356354], [-71.061357, 42.356239], [-71.061424, 42.356163], [-71.061568, 42.356242], [-71.061648, 42.356285]]]}, "properties": {"building": "yes", "building:height": "8.5", "roof:material": "concrete", "roof:shape": "flat", "height": "8.5"}}, {"type": "Feature", "id": 29565607, "geometry": {"type": "Polygon", "coordinates": [[[-71.06173, 42.355624], [-71.061561, 42.355542], [-71.061672, 42.355418], [-71.061616, 42.355391], [-71.061643, 42.35536], [-71.06182, 42.355186], [-71.06207, 42.355306], [-71.06193, 42.355446], [-71.061834, 42.355531], [-71.06173, 42.355624]]]}, "properties": {"addr:city": "Boston", "addr:housenumber": "10", "addr:state": "MA", "addr:street": "Winter Place", "building": "yes", "building:height": "12", "building:levels": "2", "roof:material": "concrete", "roof:shape": "flat", "height": "12"}}, {"type": "Feature", "id": 29605125, "geometry": {"type": "Polygon", "coordinates": [[[-71.062019, 42.355487], [-71.062146, 42.355344], [-71.062685, 42.355618], [-71.062561, 42.355745], [-71.062056, 42.355505], [-71.062019, 42.355487]]]}, "properties": {"addr:city": "Boston", "addr:housenumber": "140", "addr:state": "MA", "addr:street": "Tremont Street", "building": "yes", "building:height": "41", "wikidata": "Q7273680", "height": "41"}}, {"type": "Feature", "id": 29608517, "geometry": {"type": "Polygon", "coordinates": [[[-71.061617, 42.355916], [-71.061353, 42.355793], [-71.061561, 42.355542], [-71.06173, 42.355624], [-71.061824, 42.355669], [-71.061617, 42.355916]]]}, "properties": {"addr:city": "Boston", "addr:housenumber": "30", "addr:state": "MA", "addr:street": "Winter Street", "building": "yes", "building:height": "47.6", "building:levels": "12", "roof:material": "concrete", "roof:shape": "flat", "height": "47.6"}}, {"type": "Feature", "id": 29650692, "geometry": {"type": "Polygon", "coordinates": [[[-71.061317, 42.355212], [-71.061376, 42.355242], [-71.061559, 42.355047], [-71.061672, 42.355103], [-71.061503, 42.355288], [-71.061532, 42.355306], [-71.061446, 42.3554], [-71.061386, 42.35537], [-71.061297, 42.355328], [-71.061268, 42.35531], [-71.06124, 42.355293], [-71.061317, 42.355212]]]}, "properties": {"addr:city": "Boston", "addr:housenumber": "52", "addr:state": "MA", "addr:street": "Temple Place", "building": "yes", "building:height": "18", "building:levels": "4", "height": "18"}}, {"type": "Feature", "id": 29650701, "geometry": {"type": "Polygon", "coordinates": [[[-71.061344, 42.353118], [-71.061345, 42.353127], [-71.061346, 42.353133], [-71.061346, 42.35314], [-71.061346, 42.353146], [-71.061347, 42.353153], [-71.061347, 42.353159], [-71.061346, 42.353166], [-71.061346, 42.353172], [-71.061346, 42.353178], [-71.061345, 42.353185], [-71.061344, 42.353191], [-71.061343, 42.353198], [-71.061342, 42.353204], [-71.061341, 42.353211], [-71.06134, 42.353217], [-71.061338, 42.353223], [-71.061336, 42.35323], [-71.061335, 42.353236], [-71.061333, 42.353243], [-71.06133, 42.353249], [-71.061328, 42.353255], [-71.061326, 42.353261], [-71.061323, 42.353268], [-71.06132, 42.353274], [-71.061318, 42.35328], [-71.061315, 42.353286], [-71.061311, 42.353292], [-71.061308, 42.353298], [-71.061305, 42.353304], [-71.061301, 42.35331], [-71.061297, 42.353316], [-71.061294, 42.353321], [-71.06129, 42.353327], [-71.061285, 42.353333], [-71.061281, 42.353339], [-71.061277, 42.353344], [-71.060819, 42.353119], [-71.060973, 42.352942], [-71.060997, 42.352953], [-71.061344, 42.353118]]]}, "properties": {"addr:city": "Boston", "addr:housenumber": "99", "addr:state": "MA", "addr:street": "Chauncy Street", "building": "commercial", "building:levels": "11", "name": "Textile Building"}}, {"type": "Feature", "id": 29717367, "geometry": {"type": "Polygon", "coordinates": [[[-71.061287, 42.356291], [-71.06125, 42.356271], [-71.061192, 42.356264], [-71.061141, 42.356242], [-71.061103, 42.356208], [-71.061041, 42.356176], [-71.061144, 42.356068], [-71.061164, 42.356079], [-71.061192, 42.356053], [-71.061076, 42.355996], [-71.061217, 42.355834], [-71.061592, 42.356007], [-71.061483, 42.356107], [-71.061418, 42.356075], [-71.061403, 42.356093], [-71.061443, 42.356112], [-71.061287, 42.356291]]]}, "properties": {"addr:city": "Boston", "addr:housenumber": "25", "addr:state": "MA", "addr:street": "Winter Street", "building": "yes", "building:height": "19", "roof:material": "concrete", "roof:shape": "flat", "height": "19"}}, {"type": "Feature", "id": 29739370, "geometry": {"type": "Polygon", "coordinates": [[[-71.061897, 42.356041], [-71.062113, 42.35581], [-71.062374, 42.35594], [-71.062222, 42.356102], [-71.062029, 42.356011], [-71.06197, 42.356073], [-71.061897, 42.356041]]]}, "properties": {"addr:city": "Boston", "addr:housenumber": "131", "addr:state": "MA", "addr:street": "Tremont Street", "building": "yes", "building:height": "30.5", "building:levels": "8", "roof:material": "concrete", "roof:shape": "flat", "height": "30.5"}}, {"type": "Feature", "id": 29946044, "geometry": {"type": "Polygon", "coordinates": [[[-71.062023, 42.35486], [-71.061852, 42.355039], [-71.061652, 42.354938], [-71.06185, 42.354703], [-71.061927, 42.354742], [-71.061996, 42.354778], [-71.06207, 42.354816], [-71.062023, 42.35486]]]}, "properties": {"building": "yes", "building:height": "19.5", "height": "19.5"}}, {"type": "Feature", "id": 29950377, "geometry": {"type": "Polygon", "coordinates": [[[-71.061376, 42.355242], [-71.061317, 42.355212], [-71.061045, 42.355072], [-71.061254, 42.354887], [-71.061559, 42.355047], [-71.061376, 42.355242]]]}, "properties": {"addr:city": "Boston", "addr:housenumber": "60", "addr:postcode": "02111", "addr:street": "Temple Place", "building": "yes", "building:height": "25", "building:levels": "6", "height": "25"}}, {"type": "Feature", "id": 117744697, "geometry": {"type": "Polygon", "coordinates": [[[-71.062226, 42.353926], [-71.062553, 42.353981], [-71.062873, 42.354], [-71.063352, 42.354029], [-71.063344, 42.354102], [-71.06307, 42.354429], [-71.063049, 42.354427], [-71.063009, 42.354469], [-71.062966, 42.354435], [-71.062888, 42.354423], [-71.062864, 42.354445], [-71.062799, 42.35443], [-71.062447, 42.35435], [-71.062421, 42.354344], [-71.062426, 42.354331], [-71.062477, 42.354182], [-71.062485, 42.354156], [-71.062515, 42.354068], [-71.062464, 42.354064], [-71.06247, 42.354035], [-71.062348, 42.354017], [-71.062167, 42.353991], [-71.062226, 42.353926]]]}, "properties": {"amenity": "theatre", "building": "yes", "building:height": "19", "former_name": "B.F. Keith Memorial Theatre", "name": "Boston Opera House", "website": "https://www.bostonoperahouse.com/", "wikidata": "Q4948014", "height": "19"}}, {"type": "Feature", "id": 117744703, "geometry": {"type": "Polygon", "coordinates": [[[-71.062089, 42.354068], [-71.062167, 42.353991], [-71.062348, 42.354017], [-71.062344, 42.354037], [-71.062464, 42.354064], [-71.062515, 42.354068], [-71.062485, 42.354156], [-71.062089, 42.354068]]]}, "properties": {"building": "yes", "building:height": "19", "height": "19"}}, {"type": "Feature", "id": 178198643, "geometry": {"type": "Polygon", "coordinates": [[[-71.061942, 42.355708], [-71.062094, 42.355784], [-71.062357, 42.355924], [-71.062509, 42.355756], [-71.062088, 42.355547], [-71.061942, 42.355708]]]}, "properties": {"amenity": "place_of_worship", "building": "yes", "building:height": "15.9", "denomination": "episcopal", "ele": "13", "gnis:county_id": "025", "gnis:created": "01/15/2003", "gnis:feature_id": "1971727", "gnis:state_id": "25", "name": "Cathedral Church of Saint Pauls", "religion": "christian", "website": "http://www.stpaulboston.org", "wikidata": "Q5052214", "height": "15.9"}}, {"type": "Feature", "id": 240317867, "geometry": {"type": "Polygon", "coordinates": [[[-71.062042, 42.357015], [-71.062155, 42.35695], [-71.062267, 42.356884], [-71.062029, 42.356657], [-71.061948, 42.356671], [-71.061845, 42.356732], [-71.061802, 42.356791], [-71.062042, 42.357015]]]}, "properties": {"addr:housenumber": "119", "addr:street": "Tremont Street", "amenity": "place_of_worship", "building": "church", "building:material": "brick", "denomination": "evangelical", "ele": "17", "gnis:county_id": "025", "gnis:created": "08/27/2002", "gnis:feature_id": "619501", "gnis:state_id": "25", "name": "Park Street Church", "religion": "christian", "wikidata": "Q1139853", "wikipedia": "en:Park Street Church"}}, {"type": "Feature", "id": 240390123, "geometry": {"type": "Polygon", "coordinates": [[[-71.062156, 42.3544], [-71.061869, 42.354299], [-71.061925, 42.354246], [-71.062056, 42.354287], [-71.062072, 42.354282], [-71.062082, 42.354265], [-71.062075, 42.354253], [-71.061954, 42.354215], [-71.061999, 42.354171], [-71.06225, 42.354244], [-71.062156, 42.3544]]]}, "properties": {"building": "yes", "building:levels": "2"}}, {"type": "Feature", "id": 240390136, "geometry": {"type": "Polygon", "coordinates": [[[-71.06225, 42.354244], [-71.062337, 42.354271], [-71.06232, 42.354304], [-71.062426, 42.354331], [-71.062477, 42.354182], [-71.062066, 42.354098], [-71.061999, 42.354171], [-71.06225, 42.354244]]]}, "properties": {"building": "yes", "building:height": "31.7", "height": "31.7"}}, {"type": "Feature", "id": 240390137, "geometry": {"type": "Polygon", "coordinates": [[[-71.062272, 42.354589], [-71.061796, 42.354348], [-71.061851, 42.354293], [-71.061869, 42.354299], [-71.062156, 42.3544], [-71.062227, 42.354425], [-71.062292, 42.354321], [-71.062465, 42.35439], [-71.062272, 42.354589]]]}, "properties": {"addr:city": "Boston", "addr:housenumber": "10", "addr:state": "MA", "addr:street": "West Street", "building": "yes", "building:colour": "#DDDDAA", "building:height": "34.8", "building:levels": "7", "roof:material": "concrete", "roof:shape": "flat", "height": "34.8"}}, {"type": "Feature", "id": 244539277, "geometry": {"type": "Polygon", "coordinates": [[[-71.061755, 42.356181], [-71.061687, 42.356247], [-71.061932, 42.356389], [-71.062, 42.356324], [-71.061755, 42.356181]]]}, "properties": {"building": "yes", "building:colour": "#CCCCBB", "building:height": "19", "building:levels": "5", "roof:material": "concrete", "roof:shape": "flat", "height": "19"}}, {"type": "Feature", "id": 244539278, "geometry": {"type": "Polygon", "coordinates": [[[-71.062222, 42.356102], [-71.062169, 42.356159], [-71.06197, 42.356073], [-71.062029, 42.356011], [-71.062222, 42.356102]]]}, "properties": {"building": "yes", "building:colour": "#CCCC99", "building:levels": "6", "building:material": "stone", "roof:material": "concrete", "roof:shape": "flat"}}, {"type": "Feature", "id": 244539279, "geometry": {"type": "Polygon", "coordinates": [[[-71.061619, 42.356313], [-71.061578, 42.356354], [-71.061484, 42.356447], [-71.061731, 42.356577], [-71.061864, 42.356452], [-71.061619, 42.356313]]]}, "properties": {"building": "yes", "building:height": "19", "roof:material": "concrete", "roof:shape": "flat", "height": "19"}}, {"type": "Feature", "id": 244539281, "geometry": {"type": "Polygon", "coordinates": [[[-71.061687, 42.356247], [-71.061648, 42.356285], [-71.061619, 42.356313], [-71.061864, 42.356452], [-71.061932, 42.356389], [-71.061687, 42.356247]]]}, "properties": {"addr:housenumber": "127", "addr:street": "Tremont Street", "building": "yes", "building:height": "19", "roof:material": "concrete", "roof:shape": "flat", "height": "19"}}, {"type": "Feature", "id": 244539283, "geometry": {"type": "Polygon", "coordinates": [[[-71.061823, 42.356115], [-71.061794, 42.356143], [-71.061766, 42.35617], [-71.061755, 42.356181], [-71.062, 42.356324], [-71.062096, 42.356235], [-71.061823, 42.356115]]]}, "properties": {"addr:city": "Boston", "addr:housenumber": "47", "addr:state": "MA", "addr:street": "Winter Street", "building": "yes", "building:height": "19", "building:levels": "8", "height": "19"}}, {"type": "Feature", "id": 244539284, "geometry": {"type": "Polygon", "coordinates": [[[-71.061568, 42.356242], [-71.061648, 42.356285], [-71.061687, 42.356247], [-71.061755, 42.356181], [-71.061766, 42.35617], [-71.061794, 42.356143], [-71.061823, 42.356115], [-71.061737, 42.356078], [-71.061568, 42.356242]]]}, "properties": {"addr:housenumber": "43;45", "addr:street": "Winter Street", "building": "yes", "building:colour": "#EEEEEE", "building:height": "30", "building:levels": "8", "building:material": "stone", "roof:material": "concrete", "roof:shape": "flat", "height": "30"}}, {"type": "Feature", "id": 244539285, "geometry": {"type": "Polygon", "coordinates": [[[-71.060729, 42.355958], [-71.060809, 42.355857], [-71.060847, 42.355809], [-71.060926, 42.355708], [-71.060928, 42.355706], [-71.061155, 42.355807], [-71.060918, 42.356049], [-71.060778, 42.355979], [-71.060729, 42.355958]]]}, "properties": {"building": "yes", "building:height": "23", "roof:material": "concrete", "roof:shape": "flat", "height": "23"}}, {"type": "Feature", "id": 393320829, "geometry": {"type": "Polygon", "coordinates": [[[-71.061527, 42.353188], [-71.061571, 42.353178], [-71.061874, 42.353336], [-71.062045, 42.353327], [-71.06208, 42.353164], [-71.062385, 42.353154], [-71.062396, 42.353292], [-71.062261, 42.353585], [-71.062141, 42.353762], [-71.06146, 42.353421], [-71.061527, 42.353188]]]}, "properties": {"addr:city": "Boston", "addr:housenumber": "580", "addr:state": "MA", "addr:street": "Washington Street", "building": "apartments", "building:levels": "15", "height": "47", "name": "Millennium Place", "wikidata": "Q6858917"}}, {"type": "Feature", "id": 408746573, "geometry": {"type": "Polygon", "coordinates": [[[-71.061996, 42.354778], [-71.061927, 42.354742], [-71.062065, 42.354585], [-71.062138, 42.354624], [-71.061996, 42.354778]]]}, "properties": {"addr:city": "Boston", "addr:housenumber": "9", "addr:state": "MA", "addr:street": "West Street", "building": "yes", "building:height": "11.5", "height": "11.5"}}, {"type": "Feature", "id": 408746574, "geometry": {"type": "Polygon", "coordinates": [[[-71.06207, 42.355306], [-71.062146, 42.355344], [-71.062019, 42.355487], [-71.062056, 42.355505], [-71.061882, 42.355697], [-71.061824, 42.355669], [-71.06173, 42.355624], [-71.06193, 42.355446], [-71.06207, 42.355306]]]}, "properties": {"building": "yes", "building:height": "19.7", "building:levels": "2", "roof:material": "concrete", "roof:shape": "flat", "height": "19.7"}}, {"type": "Feature", "id": 408746575, "geometry": {"type": "Polygon", "coordinates": [[[-71.061643, 42.35536], [-71.061616, 42.355391], [-71.061434, 42.355593], [-71.061311, 42.355542], [-71.061274, 42.355579], [-71.061174, 42.355515], [-71.061203, 42.355483], [-71.061137, 42.355459], [-71.061268, 42.35531], [-71.061386, 42.35537], [-71.061446, 42.3554], [-71.061532, 42.355306], [-71.061643, 42.35536]]]}, "properties": {"addr:city": "Boston", "addr:housenumber": "2", "addr:state": "MA", "addr:street": "Winter Place", "building": "yes", "building:height": "12.4", "building:levels": "4", "height": "12.4"}}, {"type": "Feature", "id": 408746609, "geometry": {"type": "Polygon", "coordinates": [[[-71.062453, 42.355148], [-71.06233, 42.35528], [-71.062177, 42.355203], [-71.062299, 42.355074], [-71.062453, 42.355148]]]}, "properties": {"addr:housenumber": "21", "addr:street": "Temple Place", "building": "yes", "building:height": "19.5", "height": "19.5"}}, {"type": "Feature", "id": 408746612, "geometry": {"type": "Polygon", "coordinates": [[[-71.062138, 42.354624], [-71.062217, 42.354666], [-71.06207, 42.354816], [-71.061996, 42.354778], [-71.062138, 42.354624]]]}, "properties": {"building": "yes", "building:height": "11.5", "height": "11.5"}}, {"type": "Feature", "id": 408746616, "geometry": {"type": "Polygon", "coordinates": [[[-71.061724, 42.355966], [-71.061617, 42.355916], [-71.061824, 42.355669], [-71.061882, 42.355697], [-71.061934, 42.355719], [-71.061724, 42.355966]]]}, "properties": {"addr:city": "Boston", "addr:housenumber": "40", "addr:state": "MA", "addr:street": "Winter Street", "building": "yes", "building:height": "17.4", "building:levels": "4", "roof:material": "concrete", "roof:shape": "flat", "height": "17.4"}}, {"type": "Feature", "id": 408746618, "geometry": {"type": "Polygon", "coordinates": [[[-71.062177, 42.355203], [-71.061852, 42.355039], [-71.062023, 42.35486], [-71.062344, 42.355025], [-71.062299, 42.355074], [-71.062177, 42.355203]]]}, "properties": {"building": "yes", "building:height": "19.5", "height": "19.5"}}, {"type": "Feature", "id": 408746620, "geometry": {"type": "Polygon", "coordinates": [[[-71.061737, 42.356078], [-71.061592, 42.356007], [-71.061483, 42.356107], [-71.061424, 42.356163], [-71.061568, 42.356242], [-71.061737, 42.356078]]]}, "properties": {"building": "yes", "building:colour": "#EEEEEE", "building:height": "30", "building:levels": "8", "building:material": "stone", "roof:material": "concrete", "roof:shape": "flat", "height": "30"}}, {"type": "Feature", "id": 408746623, "geometry": {"type": "Polygon", "coordinates": [[[-71.061311, 42.355542], [-71.061434, 42.355593], [-71.061287, 42.355761], [-71.060987, 42.355619], [-71.061137, 42.355459], [-71.061203, 42.355483], [-71.061174, 42.355515], [-71.061274, 42.355579], [-71.061311, 42.355542]]]}, "properties": {"addr:city": "Boston", "addr:housenumber": "22", "addr:state": "MA", "addr:street": "Winter Street", "building": "yes", "building:height": "14.8", "height": "14.8"}}, {"type": "Feature", "id": 408746634, "geometry": {"type": "Polygon", "coordinates": [[[-71.061814, 42.356008], [-71.061724, 42.355966], [-71.061934, 42.355719], [-71.062006, 42.355756], [-71.061993, 42.355771], [-71.062029, 42.355787], [-71.061814, 42.356008]]]}, "properties": {"addr:city": "Boston", "addr:housenumber": "44", "addr:state": "MA", "addr:street": "Winter Street", "building": "yes", "building:height": "17.7", "building:levels": "4", "roof:material": "concrete", "roof:shape": "flat", "height": "17.7"}}, {"type": "Feature", "id": 408746643, "geometry": {"type": "Polygon", "coordinates": [[[-71.062006, 42.355756], [-71.062113, 42.35581], [-71.061897, 42.356041], [-71.061814, 42.356008], [-71.062029, 42.355787], [-71.061993, 42.355771], [-71.062006, 42.355756]]]}, "properties": {"addr:city": "Boston", "addr:housenumber": "48", "addr:state": "MA", "addr:street": "Winter Street", "building": "yes", "building:height": "18 m", "building:levels": "5", "roof:material": "concrete", "roof:shape": "flat", "height": "18 "}}, {"type": "Feature", "id": 408746647, "geometry": {"type": "Polygon", "coordinates": [[[-71.06124, 42.355293], [-71.061224, 42.355285], [-71.061118, 42.355232], [-71.06107, 42.355208], [-71.060961, 42.355154], [-71.061045, 42.355072], [-71.061317, 42.355212], [-71.06124, 42.355293]]]}, "properties": {"addr:city": "Boston", "addr:housenumber": "467", "addr:state": "MA", "addr:street": "Washington Street", "building": "yes", "building:height": "9", "building:levels": "2", "height": "9"}}, {"type": "Feature", "id": 458576308, "geometry": {"type": "Polygon", "coordinates": [[[-71.061108, 42.352807], [-71.060973, 42.352942], [-71.061344, 42.353118], [-71.061365, 42.353125], [-71.061368, 42.352879], [-71.061342, 42.352873], [-71.061253, 42.352882], [-71.061108, 42.352807]]]}, "properties": {"addr:city": "Boston", "addr:housenumber": "105", "addr:street": "Chauncy Street", "building": "commercial", "building:levels": "10", "name": "Frost Building"}}, {"type": "Feature", "id": 485136330, "geometry": {"type": "Polygon", "coordinates": [[[-71.061265, 42.356323], [-71.061357, 42.356239], [-71.061578, 42.356354], [-71.061484, 42.356447], [-71.061265, 42.356323]]]}, "properties": {"building": "yes", "building:height": "13.6", "height": "13.6"}}, {"type": "Feature", "id": 485143642, "geometry": {"type": "Polygon", "coordinates": [[[-71.061672, 42.355103], [-71.06182, 42.355186], [-71.061643, 42.35536], [-71.061532, 42.355306], [-71.061503, 42.355288], [-71.061672, 42.355103]]]}, "properties": {"building": "yes", "building:height": "18", "height": "18"}}, {"type": "Feature", "id": 485153550, "geometry": {"type": "Polygon", "coordinates": [[[-71.061371, 42.354786], [-71.061652, 42.354938], [-71.06185, 42.354703], [-71.06158, 42.354577], [-71.061371, 42.354786]]]}, "properties": {"building": "hotel", "building:levels": "10"}}, {"type": "Feature", "id": 485153551, "geometry": {"type": "Polygon", "coordinates": [[[-71.061741, 42.354434], [-71.06198, 42.354555], [-71.06185, 42.354703], [-71.06158, 42.354577], [-71.061741, 42.354434]]]}, "properties": {"building": "yes", "building:height": "21", "height": "21"}}, {"type": "Feature", "id": 485153553, "geometry": {"type": "Polygon", "coordinates": [[[-71.062211, 42.354887], [-71.062412, 42.35498], [-71.062359, 42.35503], [-71.062344, 42.355025], [-71.062023, 42.35486], [-71.06207, 42.354816], [-71.062211, 42.354887]]]}, "properties": {"building": "yes", "building:height": "5", "building:levels": "1", "height": "5"}}, {"type": "Feature", "id": 485153554, "geometry": {"type": "Polygon", "coordinates": [[[-71.062339, 42.354738], [-71.06255, 42.354846], [-71.062412, 42.35498], [-71.062211, 42.354887], [-71.062339, 42.354738]]]}, "properties": {"building": "yes", "building:height": "20", "height": "20"}}, {"type": "Feature", "id": 29554952, "geometry": {"type": "Polygon", "coordinates": [[[-71.056233, 42.356254], [-71.056556, 42.356212], [-71.056592, 42.356453], [-71.056301, 42.356466], [-71.056233, 42.356254]]]}, "properties": {"addr:city": "Boston", "addr:housenumber": "24", "addr:state": "MA", "addr:street": "Federal Street", "building": "commercial", "building:colour": "#EEEEEE", "building:levels": "12", "roof:material": "concrete", "roof:shape": "flat"}}, {"type": "Feature", "id": 29574540, "geometry": {"type": "Polygon", "coordinates": [[[-71.056233, 42.356254], [-71.056161, 42.356057], [-71.056519, 42.356012], [-71.056556, 42.356212], [-71.056233, 42.356254]]]}, "properties": {"addr:city": "Boston", "addr:housenumber": "30", "addr:state": "MA", "addr:street": "Federal Street", "building": "commercial", "building:colour": "#EEEEEE", "building:levels": "7", "roof:material": "concrete", "roof:shape": "flat"}}, {"type": "Feature", "id": 29601034, "geometry": {"type": "Polygon", "coordinates": [[[-71.058363, 42.354028], [-71.058519, 42.354125], [-71.058268, 42.354365], [-71.058142, 42.354281], [-71.058195, 42.354208], [-71.058363, 42.354028]]]}, "properties": {"addr:city": "Boston", "addr:housenumber": "7", "addr:place": "Winthrop Square", "addr:state": "MA", "addr:street": "Winthrop Square", "building": "commercial", "building:height": "18.288", "building:levels": "5", "name": "7 Winthrop Square", "height": "18.288"}}, {"type": "Feature", "id": 29605945, "geometry": {"type": "Polygon", "coordinates": [[[-71.057785, 42.352678], [-71.05779, 42.352678], [-71.057795, 42.352679], [-71.057801, 42.35268], [-71.057806, 42.352681], [-71.05781, 42.352683], [-71.057815, 42.352685], [-71.057819, 42.352687], [-71.057823, 42.352689], [-71.057827, 42.352692], [-71.05783, 42.352695], [-71.057834, 42.352699], [-71.057836, 42.352702], [-71.057838, 42.352705], [-71.05784, 42.352709], [-71.057842, 42.352713], [-71.057842, 42.352717], [-71.057843, 42.352721], [-71.057843, 42.352725], [-71.057843, 42.352729], [-71.057727, 42.353256], [-71.057725, 42.353263], [-71.057723, 42.353266], [-71.057721, 42.35327], [-71.057719, 42.353274], [-71.057716, 42.353277], [-71.057712, 42.35328], [-71.057709, 42.353283], [-71.057705, 42.353285], [-71.057701, 42.353288], [-71.057696, 42.35329], [-71.057691, 42.353291], [-71.057687, 42.353293], [-71.057682, 42.353294], [-71.057676, 42.353295], [-71.057671, 42.353295], [-71.057666, 42.353296], [-71.05766, 42.353295], [-71.057655, 42.353295], [-71.05765, 42.353294], [-71.057251, 42.353215], [-71.057258, 42.35317], [-71.057253, 42.35317], [-71.057247, 42.353169], [-71.057241, 42.353169], [-71.057235, 42.353168], [-71.05723, 42.353167], [-71.057224, 42.353166], [-71.057218, 42.353165], [-71.057213, 42.353164], [-71.057207, 42.353162], [-71.057201, 42.353161], [-71.057196, 42.353159], [-71.057191, 42.353157], [-71.057186, 42.353155], [-71.05718, 42.353153], [-71.057175, 42.35315], [-71.05717, 42.353148], [-71.057166, 42.353145], [-71.057161, 42.353143], [-71.057156, 42.35314], [-71.057152, 42.353137], [-71.057148, 42.353134], [-71.057144, 42.353131], [-71.05714, 42.353128], [-71.057136, 42.353124], [-71.057132, 42.353121], [-71.057129, 42.353118], [-71.057125, 42.353114], [-71.057122, 42.35311], [-71.057119, 42.353106], [-71.057116, 42.353103], [-71.057114, 42.353099], [-71.057111, 42.353095], [-71.057109, 42.353091], [-71.057107, 42.353087], [-71.057105, 42.353082], [-71.057103, 42.353078], [-71.057102, 42.353074], [-71.057101, 42.35307], [-71.0571, 42.353065], [-71.057099, 42.353061], [-71.057098, 42.353057], [-71.057098, 42.353052], [-71.057097, 42.353048], [-71.057097, 42.353043], [-71.057098, 42.353039], [-71.057098, 42.353035], [-71.057098, 42.35303], [-71.057099, 42.353026], [-71.0571, 42.353022], [-71.057101, 42.353018], [-71.057103, 42.353014], [-71.057104, 42.353009], [-71.057106, 42.353005], [-71.057108, 42.353001], [-71.05711, 42.352997], [-71.057113, 42.352993], [-71.057115, 42.352989], [-71.057118, 42.352985], [-71.057121, 42.352981], [-71.057124, 42.352978], [-71.057127, 42.352974], [-71.057131, 42.35297], [-71.057134, 42.352967], [-71.057138, 42.352964], [-71.057142, 42.35296], [-71.057146, 42.352957], [-71.05715, 42.352954], [-71.057154, 42.352951], [-71.057159, 42.352948], [-71.057164, 42.352945], [-71.057168, 42.352943], [-71.057173, 42.35294], [-71.057178, 42.352938], [-71.057183, 42.352936], [-71.057188, 42.352934], [-71.057194, 42.352932], [-71.057199, 42.35293], [-71.057204, 42.352928], [-71.05721, 42.352927], [-71.057216, 42.352925], [-71.057221, 42.352924], [-71.057227, 42.352923], [-71.057233, 42.352922], [-71.057239, 42.352921], [-71.057244, 42.352921], [-71.05725, 42.35292], [-71.057256, 42.35292], [-71.057262, 42.35292], [-71.057268, 42.352919], [-71.057274, 42.35292], [-71.05728, 42.35292], [-71.057286, 42.35292], [-71.057291, 42.352921], [-71.057297, 42.352922], [-71.057303, 42.352886], [-71.057507, 42.352906], [-71.057531, 42.352748], [-71.057759, 42.352681], [-71.057769, 42.352679], [-71.057774, 42.352678], [-71.05778, 42.352678], [-71.057785, 42.352678]]]}, "properties": {"addr:city": "Boston", "addr:housenumber": "125", "addr:state": "MA", "addr:street": "Summer Street", "building": "commercial", "building:levels": "22", "height": "91"}}, {"type": "Feature", "id": 29611456, "geometry": {"type": "Polygon", "coordinates": [[[-71.057215, 42.355504], [-71.057219, 42.355996], [-71.057225, 42.356257], [-71.05723, 42.356501], [-71.057224, 42.356654], [-71.056847, 42.356696], [-71.056822, 42.356538], [-71.056814, 42.356494], [-71.05673, 42.356039], [-71.056645, 42.355559], [-71.057215, 42.355504]]]}, "properties": {"addr:city": "Boston", "addr:housenumber": "1", "addr:state": "MA", "addr:street": "Federal Street", "building": "commercial", "building:colour": "#EEEEEE", "building:levels": "4", "name": "One Federal", "roof:material": "concrete", "roof:shape": "flat", "wikipedia": "en:One Federal Street"}}, {"type": "Feature", "id": 29615469, "geometry": {"type": "Polygon", "coordinates": [[[-71.05672, 42.353848], [-71.056567, 42.353901], [-71.056403, 42.353928], [-71.056397, 42.353928], [-71.056392, 42.353929], [-71.056386, 42.353929], [-71.056381, 42.353928], [-71.056376, 42.353927], [-71.056371, 42.353926], [-71.056366, 42.353925], [-71.056361, 42.353923], [-71.056357, 42.353921], [-71.056352, 42.353919], [-71.056348, 42.353916], [-71.056345, 42.353914], [-71.056341, 42.35391], [-71.056338, 42.353907], [-71.056336, 42.353904], [-71.056334, 42.3539], [-71.056332, 42.353897], [-71.056331, 42.353893], [-71.05633, 42.353889], [-71.056296, 42.35368], [-71.056296, 42.353675], [-71.056296, 42.353671], [-71.056297, 42.353667], [-71.056298, 42.353663], [-71.056299, 42.353659], [-71.056301, 42.353656], [-71.056304, 42.353652], [-71.056306, 42.353649], [-71.05631, 42.353646], [-71.056313, 42.353643], [-71.056317, 42.35364], [-71.056321, 42.353638], [-71.056326, 42.353636], [-71.056331, 42.353634], [-71.056469, 42.353586], [-71.056518, 42.353551], [-71.056569, 42.353624], [-71.056682, 42.353573], [-71.056791, 42.353746], [-71.056675, 42.353784], [-71.05672, 42.353848]]]}, "properties": {"addr:city": "Boston", "addr:housenumber": "155", "addr:state": "MA", "addr:street": "Federal Street", "building": "commercial", "building:levels": "18"}}, {"type": "Feature", "id": 29617232, "geometry": {"type": "Polygon", "coordinates": [[[-71.05676, 42.354111], [-71.056806, 42.354381], [-71.056444, 42.354415], [-71.056397, 42.354146], [-71.05676, 42.354111]]]}, "properties": {"addr:city": "Boston", "addr:housenumber": "133", "addr:state": "MA", "addr:street": "Federal Street", "building": "commercial", "building:levels": "12"}}, {"type": "Feature", "id": 29620770, "geometry": {"type": "Polygon", "coordinates": [[[-71.059747, 42.352756], [-71.059841, 42.352806], [-71.059848, 42.352806], [-71.059854, 42.352806], [-71.059861, 42.352807], [-71.059868, 42.352807], [-71.059875, 42.352808], [-71.059881, 42.352809], [-71.059888, 42.352809], [-71.059894, 42.35281], [-71.059901, 42.352811], [-71.059908, 42.352812], [-71.059914, 42.352813], [-71.059921, 42.352814], [-71.059927, 42.352815], [-71.059934, 42.352817], [-71.05994, 42.352818], [-71.059947, 42.35282], [-71.059956, 42.352822], [-71.060137, 42.352915], [-71.060103, 42.35295], [-71.060236, 42.353014], [-71.060208, 42.353043], [-71.060416, 42.353142], [-71.060294, 42.35327], [-71.060264, 42.353256], [-71.060243, 42.353272], [-71.060107, 42.353208], [-71.060098, 42.353215], [-71.059996, 42.353163], [-71.059887, 42.353285], [-71.0596, 42.353146], [-71.059533, 42.352769], [-71.059635, 42.35276], [-71.059747, 42.352756]]]}, "properties": {"building": "yes", "building:height": "31.7", "frequency": "60", "location": "outdoor", "name": "Kingston Street Substation", "power": "substation", "substation": "distribution", "voltage": "115000", "height": "31.7"}}, {"type": "Feature", "id": 29650689, "geometry": {"type": "Polygon", "coordinates": [[[-71.056519, 42.356012], [-71.056161, 42.356057], [-71.056049, 42.355842], [-71.056473, 42.355771], [-71.056519, 42.356012]]]}, "properties": {"addr:city": "Boston", "addr:housenumber": "50", "addr:state": "MA", "addr:street": "Federal Street", "building": "commercial", "building:colour": "#EEEEEE", "building:levels": "10", "roof:material": "concrete", "roof:shape": "flat"}}, {"type": "Feature", "id": 29650691, "geometry": {"type": "Polygon", "coordinates": [[[-71.056049, 42.355842], [-71.055886, 42.355691], [-71.0559, 42.355654], [-71.056437, 42.355579], [-71.056473, 42.355771], [-71.056049, 42.355842]]]}, "properties": {"addr:city": "Boston", "addr:housenumber": "70", "addr:state": "MA", "addr:street": "Federal Street", "building": "commercial", "building:colour": "#666633", "building:levels": "7", "roof:material": "concrete", "roof:shape": "flat"}}, {"type": "Feature", "id": 29650695, "geometry": {"type": "Polygon", "coordinates": [[[-71.057282, 42.35342], [-71.057574, 42.353511], [-71.057506, 42.353619], [-71.057545, 42.353632], [-71.057863, 42.353731], [-71.05756, 42.354256], [-71.057438, 42.354218], [-71.057261, 42.354162], [-71.057318, 42.354065], [-71.056968, 42.353955], [-71.057282, 42.35342]]]}, "properties": {"addr:city": "Boston", "addr:housenumber": "100", "addr:state": "MA", "addr:street": "Summer Street", "building": "commercial", "building:height": "115", "building:levels": "32", "fixme": "This building doesn't show up on 3D maps", "name": "100 Summer Street", "wikidata": "Q4546179", "wikipedia": "en:100 Summer Street", "height": "115"}}, {"type": "Feature", "id": 29650699, "geometry": {"type": "Polygon", "coordinates": [[[-71.056241, 42.353097], [-71.056637, 42.353257], [-71.056629, 42.353376], [-71.056364, 42.353487], [-71.056042, 42.353356], [-71.055987, 42.353237], [-71.056241, 42.353097]]]}, "properties": {"addr:city": "Boston", "addr:housenumber": "175", "addr:state": "MA", "addr:street": "Federal Street", "building": "commercial", "building:levels": "17", "name": "Fiduciary Trust Building"}}, {"type": "Feature", "id": 29715243, "geometry": {"type": "Polygon", "coordinates": [[[-71.0604, 42.356316], [-71.060415, 42.356324], [-71.060367, 42.356397], [-71.060253, 42.356355], [-71.060222, 42.356384], [-71.060028, 42.356572], [-71.059903, 42.356525], [-71.060002, 42.356438], [-71.060146, 42.356312], [-71.060035, 42.356268], [-71.059964, 42.356356], [-71.059755, 42.356268], [-71.059918, 42.35612], [-71.0604, 42.356316]]]}, "properties": {"building": "yes", "building:height": "30", "height": "30"}}, {"type": "Feature", "id": 29715395, "geometry": {"type": "Polygon", "coordinates": [[[-71.058975, 42.35714], [-71.058786, 42.357081], [-71.059233, 42.35667], [-71.059408, 42.356763], [-71.059466, 42.356809], [-71.059368, 42.35695], [-71.059336, 42.357002], [-71.059553, 42.357094], [-71.059592, 42.357053], [-71.059768, 42.357112], [-71.059582, 42.357327], [-71.059459, 42.357283], [-71.059492, 42.357226], [-71.059206, 42.357118], [-71.059282, 42.357008], [-71.059159, 42.356971], [-71.058975, 42.35714]]]}, "properties": {"building": "yes", "building:colour": "#EEEEDD", "building:levels": "9", "fixme": "levels estimated", "roof:material": "concrete"}}, {"type": "Feature", "id": 29737814, "geometry": {"type": "Polygon", "coordinates": [[[-71.056226, 42.35465], [-71.056361, 42.355409], [-71.05569, 42.355474], [-71.055556, 42.354716], [-71.056226, 42.35465]]]}, "properties": {"addr:city": "Boston", "addr:housenumber": "100", "addr:state": "MA", "addr:street": "Federal Street", "building": "commercial", "building:height": "180m", "building:levels": "37", "height": "180", "name": "Bank of America Building", "wikidata": "Q1419501"}}, {"type": "Feature", "id": 29739835, "geometry": {"type": "Polygon", "coordinates": [[[-71.057985, 42.35629], [-71.057983, 42.356303], [-71.05805, 42.356314], [-71.058213, 42.356361], [-71.058025, 42.356679], [-71.057868, 42.356676], [-71.057839, 42.356295], [-71.057985, 42.35629]]]}, "properties": {"addr:city": "Boston", "addr:housenumber": "31", "addr:state": "MA", "addr:street": "Milk Street", "building": "commercial", "building:colour": "#EEEEDD", "building:levels": "11", "building:material": "stone", "roof:material": "concrete", "roof:shape": "flat"}}, {"type": "Feature", "id": 29742467, "geometry": {"type": "Polygon", "coordinates": [[[-71.058319, 42.356725], [-71.05818, 42.356687], [-71.058334, 42.35644], [-71.058586, 42.356548], [-71.058495, 42.356631], [-71.05842, 42.356598], [-71.058319, 42.356725]]]}, "properties": {"addr:city": "Boston", "addr:housenumber": "21", "addr:state": "MA", "addr:street": "Milk Street", "building": "commercial", "building:height": "16.764", "building:levels": "6", "height": "16.764"}}, {"type": "Feature", "id": 29743533, "geometry": {"type": "Polygon", "coordinates": [[[-71.059348, 42.353883], [-71.05944, 42.353942], [-71.059387, 42.353989], [-71.059234, 42.353895], [-71.059027, 42.353768], [-71.059076, 42.353721], [-71.059348, 42.353883]]]}, "properties": {"addr:housenumber": "19;21", "addr:street": "Kingston Street", "building": "yes", "building:levels": "6"}}, {"type": "Feature", "id": 29802976, "geometry": {"type": "Polygon", "coordinates": [[[-71.05895, 42.355853], [-71.059338, 42.356346], [-71.058981, 42.35663], [-71.058363, 42.35636], [-71.05839, 42.356332], [-71.058469, 42.356342], [-71.058533, 42.356348], [-71.058738, 42.356099], [-71.058657, 42.356057], [-71.058769, 42.35594], [-71.05895, 42.355853]]]}, "properties": {"addr:city": "Boston", "addr:housenumber": "350", "addr:state": "MA", "addr:street": "Washington Street", "amenity": "parking", "building": "yes", "building:height": "37.7952", "building:levels": "7", "height": "37.7952"}}, {"type": "Feature", "id": 29808492, "geometry": {"type": "Polygon", "coordinates": [[[-71.057405, 42.355811], [-71.0574, 42.35551], [-71.057661, 42.355496], [-71.057861, 42.355535], [-71.057818, 42.355654], [-71.057572, 42.355646], [-71.057569, 42.355712], [-71.057795, 42.355715], [-71.05776, 42.355827], [-71.057653, 42.355823], [-71.05753, 42.355817], [-71.057405, 42.355811]]]}, "properties": {"addr:city": "Boston", "addr:housenumber": "100", "addr:state": "MA", "addr:street": "Franklin Street", "building": "commercial", "building:height": "40.8432", "building:levels": "9", "height": "40.8432"}}, {"type": "Feature", "id": 29860058, "geometry": {"type": "Polygon", "coordinates": [[[-71.059736, 42.357027], [-71.059628, 42.356982], [-71.059746, 42.356819], [-71.059672, 42.35679], [-71.059698, 42.356756], [-71.059678, 42.356746], [-71.059711, 42.356709], [-71.059814, 42.356585], [-71.060022, 42.356679], [-71.059863, 42.356888], [-71.05985, 42.356882], [-71.059736, 42.357027]]]}, "properties": {"building": "yes", "building:levels": "2"}}, {"type": "Feature", "id": 29860485, "geometry": {"type": "Polygon", "coordinates": [[[-71.058491, 42.355627], [-71.058508, 42.35563], [-71.058637, 42.355674], [-71.05846, 42.355973], [-71.05835, 42.355935], [-71.058491, 42.355627]]]}, "properties": {"addr:housenumber": "58", "building": "commercial", "building:height": "16.764", "building:levels": "4", "height": "16.764"}}, {"type": "Feature", "id": 29945260, "geometry": {"type": "Polygon", "coordinates": [[[-71.056867, 42.354737], [-71.056905, 42.354949], [-71.057317, 42.354909], [-71.057346, 42.355062], [-71.057065, 42.355083], [-71.057028, 42.355086], [-71.057032, 42.355118], [-71.056809, 42.355134], [-71.056805, 42.355102], [-71.056538, 42.355122], [-71.056506, 42.354772], [-71.056867, 42.354737]]]}, "properties": {"addr:city": "Boston", "addr:housenumber": "101", "addr:state": "MA", "addr:street": "Federal Street", "building": "commercial", "building:height": "114.91", "building:levels": "31", "wikidata": "Q4546306", "height": "114.91"}}, {"type": "Feature", "id": 29952114, "geometry": {"type": "Polygon", "coordinates": [[[-71.058961, 42.354787], [-71.059141, 42.354632], [-71.059282, 42.35473], [-71.058978, 42.355032], [-71.05885, 42.354951], [-71.059, 42.354809], [-71.058961, 42.354787]]]}, "properties": {"addr:city": "Boston", "addr:housenumber": "40", "addr:state": "MA", "addr:street": "Summer Street", "building": "commercial", "building:height": "19.812", "building:levels": "5", "height": "19.812"}}, {"type": "Feature", "id": 95035761, "geometry": {"type": "Polygon", "coordinates": [[[-71.059781, 42.355986], [-71.059974, 42.355806], [-71.059395, 42.355382], [-71.059027, 42.355709], [-71.05946, 42.355958], [-71.059478, 42.355942], [-71.059552, 42.355989], [-71.059565, 42.35598], [-71.059613, 42.356011], [-71.059622, 42.356001], [-71.059645, 42.356013], [-71.059658, 42.356001], [-71.059682, 42.35601], [-71.059735, 42.35596], [-71.059781, 42.355986]]]}, "properties": {"addr:city": "Boston", "addr:housenumber": "1", "addr:state": "MA", "addr:street": "Franklin Street", "building": "apartments", "building:height": "209", "building:levels": "56", "name": "Millenium Tower", "wikipedia": "en:Millennium Tower (Boston", "height": "209"}}, {"type": "Feature", "id": 103680109, "geometry": {"type": "Polygon", "coordinates": [[[-71.058418, 42.355398], [-71.058272, 42.355355], [-71.058256, 42.355338], [-71.058476, 42.355105], [-71.058606, 42.355146], [-71.058418, 42.355398]]]}, "properties": {"addr:city": "Boston", "addr:housenumber": "65", "addr:state": "MA", "addr:street": "Franklin Street", "building": "commercial", "building:height": "16.764", "building:levels": "5", "height": "16.764"}}, {"type": "Feature", "id": 135476024, "geometry": {"type": "Polygon", "coordinates": [[[-71.058721, 42.354672], [-71.058376, 42.354446], [-71.05811, 42.354713], [-71.058427, 42.354908], [-71.058449, 42.354922], [-71.058721, 42.354672]]]}, "properties": {"addr:city": "Boston", "addr:housename": "St. Anthony Shrine", "addr:housenumber": "100", "addr:postcode": "02110", "addr:street": "Arch Street", "amenity": "place_of_worship", "building": "yes", "building:levels": "9", "community": "OFM", "community:en": "Friars Minor", "community:gender": "male", "denomination": "catholic", "name": "St. Anthony Shrine", "religion": "christian", "website": "https://stanthonyshrine.org/", "wikidata": "Q16900125"}}, {"type": "Feature", "id": 182809335, "geometry": {"type": "Polygon", "coordinates": [[[-71.058022, 42.352914], [-71.058002, 42.352912], [-71.057946, 42.353236], [-71.057965, 42.35325], [-71.057982, 42.353262], [-71.0581, 42.353258], [-71.0581, 42.35325], [-71.058415, 42.353237], [-71.058492, 42.353234], [-71.058525, 42.352946], [-71.058266, 42.35293], [-71.058206, 42.352926], [-71.058145, 42.352922], [-71.058022, 42.352914]]]}, "properties": {"building": "yes", "building:colour": "#DDDDAA", "building:material": "stone", "name": "Bedford Building", "source": "Bing;Local Knowledge", "wikipedia": "en:Bedford Block"}}, {"type": "Feature", "id": 185302367, "geometry": {"type": "Polygon", "coordinates": [[[-71.058978, 42.353365], [-71.059197, 42.353373], [-71.05922, 42.353381], [-71.059232, 42.353398], [-71.059225, 42.353417], [-71.059169, 42.353465], [-71.058978, 42.353365]]]}, "properties": {"building": "yes", "building:levels": "4", "name": "Proctor Building", "source": "Bing;Local Knowledge"}}, {"type": "Feature", "id": 212123619, "geometry": {"type": "Polygon", "coordinates": [[[-71.057493, 42.352807], [-71.05728, 42.352866], [-71.057256, 42.352818], [-71.057469, 42.352759], [-71.057493, 42.352807]]]}, "properties": {"building": "yes"}}, {"type": "Feature", "id": 240478028, "geometry": {"type": "Polygon", "coordinates": [[[-71.058533, 42.356348], [-71.058738, 42.356099], [-71.058657, 42.356057], [-71.058585, 42.356031], [-71.058561, 42.356023], [-71.058482, 42.355993], [-71.058364, 42.355961], [-71.058261, 42.355935], [-71.058092, 42.355909], [-71.057903, 42.355891], [-71.057902, 42.355903], [-71.057871, 42.355926], [-71.057836, 42.356009], [-71.057834, 42.356195], [-71.057892, 42.356201], [-71.05789, 42.356211], [-71.057968, 42.356235], [-71.058073, 42.356265], [-71.058177, 42.356292], [-71.058292, 42.356315], [-71.05832, 42.35632], [-71.05839, 42.356332], [-71.058469, 42.356342], [-71.058533, 42.356348]]]}, "properties": {"addr:city": "Boston", "addr:housenumber": "33", "addr:state": "MA", "addr:street": "Arch Street", "building": "commercial", "building:height": "106.68", "building:levels": "33", "name": "33 Arch Street", "roof:material": "concrete", "roof:shape": "flat", "wikidata": "Q4635196", "height": "106.68"}}, {"type": "Feature", "id": 240540695, "geometry": {"type": "Polygon", "coordinates": [[[-71.058617, 42.353241], [-71.058492, 42.353234], [-71.058525, 42.352946], [-71.05859, 42.35295], [-71.058622, 42.352953], [-71.058656, 42.352955], [-71.058617, 42.353241]]]}, "properties": {"building": "roof", "building:levels": "1", "building:material": "glass", "building:min_level": "1", "roof:levels": "1", "roof:material": "glass", "roof:shape": "round"}}, {"type": "Feature", "id": 241975829, "geometry": {"type": "Polygon", "coordinates": [[[-71.057932, 42.355334], [-71.057935, 42.35505], [-71.057836, 42.355041], [-71.057752, 42.355053], [-71.057636, 42.355137], [-71.057572, 42.355197], [-71.057538, 42.355242], [-71.0575, 42.3553], [-71.057495, 42.355317], [-71.057502, 42.355336], [-71.057518, 42.355351], [-71.057536, 42.355356], [-71.05756, 42.355358], [-71.057604, 42.355352], [-71.057702, 42.355342], [-71.057841, 42.355332], [-71.057932, 42.355334]]]}, "properties": {"addr:city": "Boston", "addr:housename": "Wigglesworth Building", "addr:housenumber": "20", "addr:place": "Winthrop Square", "addr:state": "MA", "addr:street": "Winthrop Square", "building": "commercial", "building:levels": "6", "building:material": "brick", "name": "20 Winthrop Square", "roof:material": "concrete", "roof:shape": "flat", "wikidata": "Q7999619", "wikipedia": "en:Wigglesworth Building"}}, {"type": "Feature", "id": 241975830, "geometry": {"type": "Polygon", "coordinates": [[[-71.057259, 42.355372], [-71.057269, 42.355318], [-71.057289, 42.355272], [-71.057312, 42.355217], [-71.057339, 42.355164], [-71.057359, 42.355123], [-71.057352, 42.355084], [-71.057325, 42.355086], [-71.057306, 42.355087], [-71.057051, 42.355103], [-71.057056, 42.355142], [-71.05706, 42.355168], [-71.057063, 42.35519], [-71.056754, 42.355213], [-71.056752, 42.355196], [-71.056748, 42.355165], [-71.056742, 42.355126], [-71.05657, 42.355139], [-71.056546, 42.35514], [-71.056584, 42.355422], [-71.057259, 42.355372]]]}, "properties": {"addr:city": "Boston", "addr:housenumber": "75", "addr:state": "MA", "addr:street": "Federal Street", "building": "commercial", "building:colour": "#CCCCAA", "building:levels": "21", "name": "75-101 Federal Street", "roof:material": "concrete", "roof:shape": "flat", "wikidata": "Q4546306"}}, {"type": "Feature", "id": 241975831, "geometry": {"type": "Polygon", "coordinates": [[[-71.057932, 42.355334], [-71.057935, 42.35505], [-71.057934, 42.355033], [-71.058082, 42.355035], [-71.058275, 42.35506], [-71.058265, 42.35512], [-71.058047, 42.355349], [-71.057932, 42.355334]]]}, "properties": {"addr:city": "Boston", "addr:housenumber": "77", "addr:state": "MA", "addr:street": "Franklin Street", "building": "commercial", "building:levels": "10", "roof:material": "concrete", "roof:shape": "flat"}}, {"type": "Feature", "id": 241980638, "geometry": {"type": "Polygon", "coordinates": [[[-71.056629, 42.356705], [-71.056592, 42.356453], [-71.056301, 42.356466], [-71.056386, 42.356728], [-71.056629, 42.356705]]]}, "properties": {"addr:city": "Boston", "addr:housenumber": "3", "addr:state": "MA", "addr:street": "Post Office Square", "building": "commercial", "building:colour": "#666633", "building:levels": "11", "roof:material": "concrete", "roof:shape": "flat"}}, {"type": "Feature", "id": 244444286, "geometry": {"type": "Polygon", "coordinates": [[[-71.057738, 42.356667], [-71.057722, 42.35642], [-71.057439, 42.356418], [-71.057416, 42.356668], [-71.057738, 42.356667]]]}, "properties": {"addr:city": "Boston", "addr:housenumber": "45", "addr:state": "MA", "addr:street": "Milk Street", "building": "commercial", "building:colour": "#EEEEDD", "building:levels": "9", "building:material": "stone", "roof:material": "concrete", "roof:shape": "flat", "wikipedia": "en:International Trust Company Building"}}, {"type": "Feature", "id": 244539275, "geometry": {"type": "Polygon", "coordinates": [[[-71.06053, 42.355581], [-71.060507, 42.355568], [-71.060504, 42.355564], [-71.060503, 42.35556], [-71.060504, 42.355556], [-71.060507, 42.355552], [-71.060542, 42.355521], [-71.060552, 42.355517], [-71.06056, 42.355516], [-71.060571, 42.355517], [-71.06058, 42.355519], [-71.060643, 42.355547], [-71.060647, 42.355551], [-71.060647, 42.355556], [-71.060645, 42.35556], [-71.060635, 42.355571], [-71.060634, 42.355571], [-71.060573, 42.355543], [-71.060532, 42.35558], [-71.06053, 42.355581]]]}, "properties": {"building": "roof"}}, {"type": "Feature", "id": 244539276, "geometry": {"type": "Polygon", "coordinates": [[[-71.060283, 42.355815], [-71.060425, 42.355687], [-71.060421, 42.355685], [-71.060279, 42.355813], [-71.060283, 42.355815]]]}, "properties": {"building": "yes", "building:material": "brick", "height": "18", "roof:material": "concrete", "roof:shape": "flat"}}, {"type": "Feature", "id": 244539282, "geometry": {"type": "Polygon", "coordinates": [[[-71.060398, 42.355877], [-71.060613, 42.355971], [-71.060656, 42.355917], [-71.060491, 42.355846], [-71.060503, 42.35583], [-71.060453, 42.355808], [-71.060398, 42.355877]]]}, "properties": {"building": "yes", "building:levels": "9", "building:material": "brick", "building:part": "yes", "height": "35", "roof:material": "concrete", "roof:shape": "flat"}}, {"type": "Feature", "id": 405544078, "geometry": {"type": "Polygon", "coordinates": [[[-71.05969, 42.3536], [-71.060001, 42.353767], [-71.059632, 42.354107], [-71.05942, 42.353986], [-71.059476, 42.353936], [-71.059412, 42.35389], [-71.059459, 42.353842], [-71.059518, 42.353876], [-71.059574, 42.353821], [-71.0595, 42.353778], [-71.05969, 42.3536]]]}, "properties": {"addr:city": "Boston", "addr:housenumber": "38", "addr:state": "MA", "addr:street": "Chauncy Street", "building": "commercial", "building:levels": "14"}}, {"type": "Feature", "id": 405544079, "geometry": {"type": "Polygon", "coordinates": [[[-71.059252, 42.353552], [-71.059308, 42.3535], [-71.059564, 42.353648], [-71.059508, 42.3537], [-71.059252, 42.353552]]]}, "properties": {"building": "yes", "building:levels": "6"}}, {"type": "Feature", "id": 405544080, "geometry": {"type": "Polygon", "coordinates": [[[-71.059076, 42.353721], [-71.059198, 42.353609], [-71.05947, 42.353771], [-71.059348, 42.353883], [-71.059076, 42.353721]]]}, "properties": {"building": "yes", "building:levels": "7"}}, {"type": "Feature", "id": 405544081, "geometry": {"type": "Polygon", "coordinates": [[[-71.058862, 42.35416], [-71.058712, 42.354049], [-71.058902, 42.353878], [-71.059058, 42.353973], [-71.058862, 42.35416]]]}, "properties": {"building": "yes", "building:levels": "11", "name": "Merchants Building"}}, {"type": "Feature", "id": 405544082, "geometry": {"type": "Polygon", "coordinates": [[[-71.059058, 42.353973], [-71.059113, 42.354005], [-71.059139, 42.35402], [-71.058938, 42.354211], [-71.058862, 42.35416], [-71.059058, 42.353973]]]}, "properties": {"addr:housenumber": "71", "addr:street": "Summer Street", "building": "yes", "building:levels": "6"}}, {"type": "Feature", "id": 405544083, "geometry": {"type": "Polygon", "coordinates": [[[-71.059812, 42.353449], [-71.060153, 42.353631], [-71.060001, 42.353767], [-71.05969, 42.3536], [-71.059671, 42.353589], [-71.059812, 42.353449]]]}, "properties": {"building": "yes", "building:levels": "11"}}, {"type": "Feature", "id": 405544084, "geometry": {"type": "Polygon", "coordinates": [[[-71.059198, 42.353609], [-71.059252, 42.353552], [-71.059508, 42.3537], [-71.059532, 42.353715], [-71.05947, 42.353771], [-71.059198, 42.353609]]]}, "properties": {"building": "yes", "building:levels": "6"}}, {"type": "Feature", "id": 405544085, "geometry": {"type": "Polygon", "coordinates": [[[-71.059308, 42.3535], [-71.059364, 42.353445], [-71.0595, 42.353524], [-71.059645, 42.353608], [-71.059588, 42.353662], [-71.059564, 42.353648], [-71.059308, 42.3535]]]}, "properties": {"building": "yes", "building:levels": "6"}}, {"type": "Feature", "id": 405544086, "geometry": {"type": "Polygon", "coordinates": [[[-71.059364, 42.353445], [-71.059428, 42.353383], [-71.059663, 42.353406], [-71.059581, 42.353499], [-71.059572, 42.35351], [-71.059541, 42.353485], [-71.0595, 42.353524], [-71.059364, 42.353445]]]}, "properties": {"building": "yes", "building:levels": "5"}}, {"type": "Feature", "id": 405544087, "geometry": {"type": "Polygon", "coordinates": [[[-71.059113, 42.354005], [-71.059234, 42.353895], [-71.059387, 42.353989], [-71.059607, 42.354118], [-71.059397, 42.354303], [-71.059012, 42.354261], [-71.058938, 42.354211], [-71.059139, 42.35402], [-71.059113, 42.354005]]]}, "properties": {"addr:city": "Boston", "addr:housenumber": "55", "addr:state": "MA", "addr:street": "Summer Street", "building": "yes", "building:levels": "10"}}, {"type": "Feature", "id": 405544088, "geometry": {"type": "Polygon", "coordinates": [[[-71.059663, 42.353406], [-71.059745, 42.353413], [-71.059812, 42.353449], [-71.059671, 42.353589], [-71.059644, 42.353578], [-71.059661, 42.35356], [-71.059658, 42.353547], [-71.059641, 42.353534], [-71.059581, 42.353499], [-71.059663, 42.353406]]]}, "properties": {"building": "yes", "building:levels": "2"}}, {"type": "Feature", "id": 408746567, "geometry": {"type": "Polygon", "coordinates": [[[-71.058806, 42.356773], [-71.058717, 42.356881], [-71.05845, 42.356766], [-71.058474, 42.35674], [-71.058554, 42.356655], [-71.058806, 42.356773]]]}, "properties": {"addr:city": "Boston", "addr:housenumber": "1", "addr:state": "MA", "addr:street": "Milk Street", "building": "commercial", "building:height": "21.9456", "building:levels": "6", "name": "One Milk Street", "height": "21.9456"}}, {"type": "Feature", "id": 408746569, "geometry": {"type": "Polygon", "coordinates": [[[-71.059628, 42.356982], [-71.059424, 42.356914], [-71.059479, 42.356819], [-71.059632, 42.35667], [-71.05968, 42.356621], [-71.059714, 42.356639], [-71.059669, 42.356687], [-71.059711, 42.356709], [-71.059678, 42.356746], [-71.059698, 42.356756], [-71.059672, 42.35679], [-71.059746, 42.356819], [-71.059628, 42.356982]]]}, "properties": {"building": "yes", "building:levels": "3"}}, {"type": "Feature", "id": 408746570, "geometry": {"type": "Polygon", "coordinates": [[[-71.056518, 42.353551], [-71.056811, 42.353419], [-71.056872, 42.3534], [-71.056925, 42.353389], [-71.056949, 42.35339], [-71.056982, 42.35353], [-71.056786, 42.353591], [-71.056825, 42.353691], [-71.056972, 42.353642], [-71.056989, 42.353753], [-71.05672, 42.353848], [-71.056675, 42.353784], [-71.056791, 42.353746], [-71.056682, 42.353573], [-71.056569, 42.353624], [-71.056518, 42.353551]]]}, "properties": {"addr:city": "Boston", "addr:housenumber": "10", "addr:state": "MA", "addr:street": "High Street", "building": "commercial", "building:levels": "11"}}, {"type": "Feature", "id": 408746580, "geometry": {"type": "Polygon", "coordinates": [[[-71.05887, 42.354735], [-71.059048, 42.354567], [-71.059141, 42.354632], [-71.058961, 42.354787], [-71.05887, 42.354735]]]}, "properties": {"building": "yes", "building:height": "10.668", "building:levels": "2", "height": "10.668"}}, {"type": "Feature", "id": 408746582, "geometry": {"type": "Polygon", "coordinates": [[[-71.058554, 42.356655], [-71.058624, 42.356564], [-71.058885, 42.356676], [-71.058806, 42.356773], [-71.058554, 42.356655]]]}, "properties": {"building": "yes", "building:levels": "5"}}, {"type": "Feature", "id": 408746583, "geometry": {"type": "Polygon", "coordinates": [[[-71.058704, 42.353678], [-71.058845, 42.353758], [-71.058603, 42.353993], [-71.058469, 42.353895], [-71.058643, 42.353732], [-71.058704, 42.353678]]]}, "properties": {"addr:city": "Boston", "addr:housenumber": "87", "addr:postcode": "02110", "addr:state": "ma", "addr:street": "Summer Street", "building": "commercial", "building:levels": "5", "name": "Tank Utility, LoopUp, Rocket Insights, LogRocket"}}, {"type": "Feature", "id": 408746584, "geometry": {"type": "Polygon", "coordinates": [[[-71.060387, 42.356463], [-71.060218, 42.356659], [-71.060028, 42.356572], [-71.060222, 42.356384], [-71.060387, 42.356463]]]}, "properties": {"addr:city": "Boston", "addr:housenumber": "20", "addr:state": "MA", "addr:street": "Bromfield Street", "building": "yes", "building:height": "16", "height": "16"}}, {"type": "Feature", "id": 408746585, "geometry": {"type": "Polygon", "coordinates": [[[-71.058912, 42.35528], [-71.059006, 42.355324], [-71.058779, 42.355545], [-71.058693, 42.355506], [-71.058912, 42.35528]]]}, "properties": {"addr:city": "Boston", "addr:housenumber": "49", "addr:state": "MA", "addr:street": "Franklin Street", "building": "commercial", "building:height": "16.764", "building:levels": "6", "height": "16.764"}}, {"type": "Feature", "id": 408746586, "geometry": {"type": "Polygon", "coordinates": [[[-71.060095, 42.355968], [-71.060196, 42.355881], [-71.060401, 42.355985], [-71.060325, 42.356073], [-71.060095, 42.355968]]]}, "properties": {"building": "yes", "building:height": "31", "height": "31"}}, {"type": "Feature", "id": 408746590, "geometry": {"type": "Polygon", "coordinates": [[[-71.05807, 42.35416], [-71.057975, 42.35413], [-71.058133, 42.353884], [-71.058217, 42.353936], [-71.05807, 42.35416]]]}, "properties": {"addr:city": "Boston", "addr:housenumber": "80-82", "addr:state": "MA", "addr:street": "Summer Street", "building": "commercial", "building:height": "19.812", "building:levels": "6", "height": "19.812"}}, {"type": "Feature", "id": 408746593, "geometry": {"type": "Polygon", "coordinates": [[[-71.058606, 42.355146], [-71.058804, 42.355229], [-71.058609, 42.355468], [-71.058418, 42.355398], [-71.058606, 42.355146]]]}, "properties": {"addr:city": "Boston", "addr:housenumber": "63", "addr:state": "MA", "addr:street": "Franklin Street", "building": "commercial", "building:height": "16.764", "building:levels": "5", "height": "16.764"}}, {"type": "Feature", "id": 408746596, "geometry": {"type": "Polygon", "coordinates": [[[-71.058804, 42.355229], [-71.058912, 42.35528], [-71.058693, 42.355506], [-71.058609, 42.355468], [-71.058804, 42.355229]]]}, "properties": {"addr:city": "Boston", "addr:housenumber": "51-55", "addr:state": "MA", "addr:street": "Franklin Street", "building": "commercial", "building:levels": "5"}}, {"type": "Feature", "id": 408746597, "geometry": {"type": "Polygon", "coordinates": [[[-71.058867, 42.353362], [-71.058978, 42.353365], [-71.059169, 42.353465], [-71.059119, 42.35351], [-71.058867, 42.353362]]]}, "properties": {"building": "yes", "building:levels": "2"}}, {"type": "Feature", "id": 408746601, "geometry": {"type": "Polygon", "coordinates": [[[-71.057975, 42.35413], [-71.057855, 42.354093], [-71.058031, 42.35382], [-71.058133, 42.353884], [-71.057975, 42.35413]]]}, "properties": {"addr:city": "Boston", "addr:housenumber": "295", "addr:state": "MA", "addr:street": "Devonshire Street", "building": "commercial", "building:height": "21.336", "building:levels": "6", "height": "21.336"}}, {"type": "Feature", "id": 408746602, "geometry": {"type": "Polygon", "coordinates": [[[-71.05835, 42.355935], [-71.058248, 42.35591], [-71.058337, 42.355603], [-71.058491, 42.355627], [-71.05835, 42.355935]]]}, "properties": {"addr:housenumber": "60", "building": "commercial", "building:height": "16.764", "building:levels": "4", "height": "16.764"}}, {"type": "Feature", "id": 408746604, "geometry": {"type": "Polygon", "coordinates": [[[-71.059006, 42.355324], [-71.059173, 42.355407], [-71.058933, 42.35563], [-71.058779, 42.355545], [-71.059006, 42.355324]]]}, "properties": {"addr:city": "Boston", "addr:housenumber": "45", "addr:state": "MA", "addr:street": "Franklin Street", "building": "commercial", "building:height": "19.812", "building:levels": "5", "height": "19.812"}}, {"type": "Feature", "id": 408746608, "geometry": {"type": "Polygon", "coordinates": [[[-71.059282, 42.35473], [-71.059644, 42.35498], [-71.059224, 42.355342], [-71.05914, 42.355302], [-71.059127, 42.355313], [-71.059072, 42.355286], [-71.059029, 42.355284], [-71.059006, 42.355273], [-71.058993, 42.355253], [-71.058938, 42.355225], [-71.058941, 42.355212], [-71.05884, 42.355161], [-71.058809, 42.355187], [-71.058546, 42.355073], [-71.058541, 42.355047], [-71.058726, 42.354871], [-71.05885, 42.354951], [-71.058978, 42.355032], [-71.059282, 42.35473]]]}, "properties": {"addr:city": "Boston", "addr:housenumber": "101", "addr:postcode": "02110", "addr:state": "MA", "addr:street": "Arch Street", "building": "commercial", "building:levels": "21", "name": "101 Arch Street"}}, {"type": "Feature", "id": 408746614, "geometry": {"type": "Polygon", "coordinates": [[[-71.058637, 42.355674], [-71.058791, 42.35573], [-71.058803, 42.355752], [-71.058542, 42.355997], [-71.05846, 42.355973], [-71.058637, 42.355674]]]}, "properties": {"addr:housenumber": "40-50", "building": "commercial", "building:height": "16.764", "building:levels": "4", "height": "16.764"}}, {"type": "Feature", "id": 408746626, "geometry": {"type": "Polygon", "coordinates": [[[-71.058115, 42.354173], [-71.05807, 42.35416], [-71.058217, 42.353936], [-71.058363, 42.354028], [-71.058195, 42.354208], [-71.058115, 42.354173]]]}, "properties": {"addr:city": "Boston", "addr:housenumber": "76", "addr:state": "MA", "addr:street": "Summer Street", "building": "commercial", "building:height": "20.7264", "building:levels": "6", "height": "20.7264"}}, {"type": "Feature", "id": 408746628, "geometry": {"type": "Polygon", "coordinates": [[[-71.058248, 42.35591], [-71.058245, 42.355926], [-71.057894, 42.355867], [-71.057991, 42.35555], [-71.058337, 42.355603], [-71.058248, 42.35591]]]}, "properties": {"addr:city": "Boston", "addr:housenumber": "70", "addr:state": "MA", "addr:street": "Franklin Street", "building": "commercial", "building:levels": "9"}}, {"type": "Feature", "id": 408746629, "geometry": {"type": "Polygon", "coordinates": [[[-71.060401, 42.355985], [-71.060611, 42.356091], [-71.0604, 42.356316], [-71.059918, 42.35612], [-71.060095, 42.355968], [-71.060325, 42.356073], [-71.060401, 42.355985]]]}, "properties": {"building": "yes", "building:height": "23", "height": "23"}}, {"type": "Feature", "id": 408746631, "geometry": {"type": "Polygon", "coordinates": [[[-71.058393, 42.354427], [-71.058633, 42.354211], [-71.058812, 42.35434], [-71.058617, 42.354518], [-71.058511, 42.354461], [-71.058487, 42.354483], [-71.058393, 42.354427]]]}, "properties": {"addr:housenumber": "62", "building": "commercial", "building:height": "16.764", "building:levels": "4", "height": "16.764"}}, {"type": "Feature", "id": 408746633, "geometry": {"type": "Polygon", "coordinates": [[[-71.059711, 42.356709], [-71.059669, 42.356687], [-71.059714, 42.356639], [-71.05968, 42.356621], [-71.059444, 42.356496], [-71.059511, 42.356448], [-71.059814, 42.356585], [-71.059711, 42.356709]]]}, "properties": {"building": "yes", "building:levels": "6"}}, {"type": "Feature", "id": 408746637, "geometry": {"type": "Polygon", "coordinates": [[[-71.05823, 42.353732], [-71.057945, 42.353532], [-71.057935, 42.353509], [-71.057984, 42.353394], [-71.058016, 42.353371], [-71.058381, 42.353354], [-71.05823, 42.353732]]]}, "properties": {"addr:city": "Boston", "addr:housenumber": "101", "addr:state": "MA", "addr:street": "Summer Street", "building": "commercial", "building:levels": "5"}}, {"type": "Feature", "id": 408746638, "geometry": {"type": "Polygon", "coordinates": [[[-71.058726, 42.354871], [-71.05887, 42.354735], [-71.058961, 42.354787], [-71.059, 42.354809], [-71.05885, 42.354951], [-71.058726, 42.354871]]]}, "properties": {"addr:city": "Boston", "addr:housenumber": "103", "addr:state": "MA", "addr:street": "Arch Street", "building": "yes", "building:levels": "4"}}, {"type": "Feature", "id": 408746642, "geometry": {"type": "Polygon", "coordinates": [[[-71.060022, 42.356679], [-71.060114, 42.35672], [-71.059819, 42.357062], [-71.059736, 42.357027], [-71.05985, 42.356882], [-71.059863, 42.356888], [-71.060022, 42.356679]]]}, "properties": {"building": "yes", "building:height": "9.3", "height": "9.3"}}, {"type": "Feature", "id": 408746645, "geometry": {"type": "Polygon", "coordinates": [[[-71.057821, 42.354161], [-71.057855, 42.354093], [-71.057975, 42.35413], [-71.05807, 42.35416], [-71.05802, 42.354231], [-71.057821, 42.354161]]]}, "properties": {"building": "yes", "building:levels": "5"}}, {"type": "Feature", "id": 408746650, "geometry": {"type": "Polygon", "coordinates": [[[-71.058812, 42.35434], [-71.058969, 42.354445], [-71.058721, 42.354672], [-71.058565, 42.354567], [-71.058583, 42.354551], [-71.058617, 42.354518], [-71.058812, 42.35434]]]}, "properties": {"addr:city": "Boston", "addr:housenumber": "52", "addr:state": "MA", "addr:street": "Summer Street", "building": "yes", "building:height": "16.764", "building:levels": "4", "height": "16.764"}}, {"type": "Feature", "id": 408746653, "geometry": {"type": "Polygon", "coordinates": [[[-71.058427, 42.354908], [-71.058343, 42.354984], [-71.058318, 42.354975], [-71.058282, 42.355016], [-71.058159, 42.355002], [-71.057875, 42.354951], [-71.058109, 42.354716], [-71.05811, 42.354713], [-71.058427, 42.354908]]]}, "properties": {"addr:city": "Boston", "addr:housenumber": "10", "addr:place": "Winthrop Square", "addr:state": "MA", "addr:street": "Winthrop Square", "building": "commercial", "building:height": "21.336", "building:levels": "6", "name": "10 Winthrop Square", "height": "21.336"}}, {"type": "Feature", "id": 408746656, "geometry": {"type": "Polygon", "coordinates": [[[-71.0577, 42.356079], [-71.057705, 42.356156], [-71.057654, 42.356158], [-71.057661, 42.356267], [-71.057712, 42.356265], [-71.057722, 42.35642], [-71.057439, 42.356418], [-71.05742, 42.356087], [-71.0577, 42.356079]]]}, "properties": {"addr:city": "Boston", "addr:housenumber": "161", "addr:state": "MA", "addr:street": "Devonshire Street", "building": "yes", "building:levels": "11", "name": "Club Quarters", "tourism": "hotel"}}, {"type": "Feature", "id": 408746660, "geometry": {"type": "Polygon", "coordinates": [[[-71.05742, 42.356087], [-71.057405, 42.355811], [-71.05753, 42.355817], [-71.057537, 42.355908], [-71.057614, 42.355907], [-71.057653, 42.355823], [-71.05776, 42.355827], [-71.057697, 42.356029], [-71.0577, 42.356079], [-71.05742, 42.356087]]]}, "properties": {"addr:city": "Boston", "addr:housenumber": "185", "addr:state": "MA", "addr:street": "Devonshire Street", "building": "commercial", "building:height": "33.528", "building:levels": "12", "height": "33.528"}}, {"type": "Feature", "id": 409161385, "geometry": {"type": "Polygon", "coordinates": [[[-71.060326, 42.355492], [-71.060142, 42.355352], [-71.05975, 42.355054], [-71.059395, 42.355382], [-71.059974, 42.355806], [-71.060326, 42.355492]]]}, "properties": {"building": "yes", "building:height": "28.0416", "building:levels": "8", "name": "Burnham Building", "height": "28.0416"}}, {"type": "Feature", "id": 458561183, "geometry": {"type": "Polygon", "coordinates": [[[-71.058166, 42.354469], [-71.057945, 42.354695], [-71.057541, 42.354579], [-71.057821, 42.354161], [-71.05802, 42.354231], [-71.057991, 42.354267], [-71.058144, 42.354335], [-71.058068, 42.354411], [-71.058166, 42.354469]]]}, "properties": {"addr:city": "Boston", "addr:housenumber": "1", "addr:place": "Winthrop Square", "addr:state": "MA", "addr:street": "Winthrop Square", "building": "commercial", "building:height": "15.24", "building:levels": "5", "name": "One Winthrop Square", "height": "15.24"}}, {"type": "Feature", "id": 458575155, "geometry": {"type": "Polygon", "coordinates": [[[-71.058421, 42.356766], [-71.058319, 42.356725], [-71.05842, 42.356598], [-71.058495, 42.356631], [-71.058554, 42.356655], [-71.058474, 42.35674], [-71.058447, 42.356735], [-71.058421, 42.356766]]]}, "properties": {"addr:city": "Boston", "addr:housenumber": "19", "addr:state": "MA", "addr:street": "Milk Street", "building": "commercial", "building:levels": "6"}}, {"type": "Feature", "id": 485136329, "geometry": {"type": "Polygon", "coordinates": [[[-71.059593, 42.356389], [-71.059903, 42.356525], [-71.060002, 42.356438], [-71.059927, 42.356399], [-71.059964, 42.356356], [-71.059755, 42.356268], [-71.059593, 42.356389]]]}, "properties": {"building": "yes", "building:height": "39", "height": "39"}}, {"type": "Feature", "id": 485205446, "geometry": {"type": "Polygon", "coordinates": [[[-71.056905, 42.354083], [-71.056968, 42.353955], [-71.057318, 42.354065], [-71.057261, 42.354162], [-71.057438, 42.354218], [-71.05741, 42.354261], [-71.057197, 42.354203], [-71.05714, 42.354191], [-71.057063, 42.354195], [-71.057001, 42.354213], [-71.056955, 42.354249], [-71.056926, 42.35429], [-71.056905, 42.354083]]]}, "properties": {"building": "yes"}}, {"type": "Feature", "id": 485880807, "geometry": {"type": "Polygon", "coordinates": [[[-71.059444, 42.356496], [-71.059233, 42.35667], [-71.059408, 42.356763], [-71.059466, 42.356809], [-71.059479, 42.356819], [-71.059632, 42.35667], [-71.05968, 42.356621], [-71.059444, 42.356496]]]}, "properties": {"building": "yes", "building:levels": "2"}}, {"type": "Feature", "id": 697630385, "geometry": {"type": "Polygon", "coordinates": [[[-71.058311, 42.353783], [-71.05823, 42.353732], [-71.058392, 42.353354], [-71.058437, 42.353355], [-71.058378, 42.353556], [-71.058484, 42.35362], [-71.058311, 42.353783]]]}, "properties": {"building": "yes"}}, {"type": "Feature", "id": 697630387, "geometry": {"type": "Polygon", "coordinates": [[[-71.058469, 42.353895], [-71.05831, 42.353794], [-71.058561, 42.353577], [-71.058704, 42.353678], [-71.058469, 42.353895]]]}, "properties": {"addr:city": "Boston", "addr:housenumber": "91-95", "addr:postcode": "02110", "addr:state": "MA", "addr:street": "Summer Street", "building": "commercial"}}, {"type": "Feature", "id": 29553164, "geometry": {"type": "Polygon", "coordinates": [[[-71.061007, 42.356308], [-71.061024, 42.356317], [-71.061618, 42.356634], [-71.061488, 42.356768], [-71.061487, 42.356772], [-71.061487, 42.356777], [-71.061486, 42.356781], [-71.061485, 42.356785], [-71.061483, 42.356789], [-71.061482, 42.356793], [-71.061481, 42.356797], [-71.061479, 42.356801], [-71.061478, 42.356805], [-71.061476, 42.356809], [-71.061474, 42.356814], [-71.061472, 42.356817], [-71.06147, 42.356821], [-71.061469, 42.356825], [-71.061466, 42.356829], [-71.061464, 42.356833], [-71.061462, 42.356837], [-71.061459, 42.356841], [-71.061457, 42.356845], [-71.061454, 42.356848], [-71.061452, 42.356852], [-71.061449, 42.356856], [-71.061446, 42.35686], [-71.061443, 42.356863], [-71.06144, 42.356867], [-71.061437, 42.35687], [-71.061434, 42.356874], [-71.061431, 42.356877], [-71.061427, 42.356881], [-71.061424, 42.356884], [-71.06142, 42.356887], [-71.061417, 42.356891], [-71.061413, 42.356894], [-71.061409, 42.356897], [-71.061406, 42.3569], [-71.061402, 42.356903], [-71.061398, 42.356906], [-71.061394, 42.35691], [-71.06139, 42.356912], [-71.061386, 42.356915], [-71.061381, 42.356918], [-71.061377, 42.356921], [-71.061373, 42.356924], [-71.061368, 42.356926], [-71.061364, 42.356929], [-71.061359, 42.356931], [-71.061355, 42.356934], [-71.06135, 42.356936], [-71.061345, 42.356939], [-71.061341, 42.356941], [-71.061336, 42.356943], [-71.061331, 42.356945], [-71.061326, 42.356948], [-71.061321, 42.35695], [-71.061316, 42.356952], [-71.061307, 42.356955], [-71.061174, 42.357092], [-71.060482, 42.356778], [-71.060695, 42.356573], [-71.060726, 42.356589], [-71.060909, 42.356409], [-71.060878, 42.356392], [-71.061007, 42.356308]]]}, "properties": {"addr:city": "Boston", "addr:housenumber": "120", "addr:postcode": "02108", "addr:street": "Tremont Street", "amenity": "university", "building": "yes", "building:height": "33", "building:levels": "7", "name": "Suffolk University", "website": "https://www.suffolk.edu/", "wikipedia": "en:Suffolk University", "height": "33"}}, {"type": "Feature", "id": 29607119, "geometry": {"type": "Polygon", "coordinates": [[[-71.06037, 42.353976], [-71.060769, 42.353549], [-71.061018, 42.353515], [-71.061044, 42.353529], [-71.061139, 42.353514], [-71.060891, 42.353786], [-71.060946, 42.353814], [-71.060924, 42.353839], [-71.060916, 42.35384], [-71.060908, 42.353841], [-71.0609, 42.353843], [-71.060892, 42.353845], [-71.060885, 42.353847], [-71.060877, 42.353849], [-71.06087, 42.353851], [-71.060863, 42.353854], [-71.060856, 42.353856], [-71.060848, 42.353859], [-71.060842, 42.353862], [-71.060835, 42.353866], [-71.060828, 42.353869], [-71.060822, 42.353873], [-71.060816, 42.353877], [-71.06081, 42.353881], [-71.060804, 42.353885], [-71.060798, 42.353889], [-71.060793, 42.353893], [-71.060788, 42.353898], [-71.060783, 42.353903], [-71.060778, 42.353907], [-71.060773, 42.353912], [-71.060769, 42.353918], [-71.060765, 42.353923], [-71.060761, 42.353928], [-71.060757, 42.353933], [-71.060754, 42.353939], [-71.060751, 42.353944], [-71.060748, 42.35395], [-71.060745, 42.353955], [-71.060743, 42.353961], [-71.060741, 42.353967], [-71.060739, 42.353973], [-71.060738, 42.353979], [-71.060737, 42.353985], [-71.060736, 42.353991], [-71.060735, 42.353997], [-71.060735, 42.354002], [-71.060735, 42.354009], [-71.060735, 42.354014], [-71.060735, 42.35402], [-71.060736, 42.354027], [-71.060737, 42.354031], [-71.060738, 42.354037], [-71.06074, 42.354043], [-71.060742, 42.354049], [-71.060744, 42.354055], [-71.060746, 42.354061], [-71.060749, 42.354066], [-71.060752, 42.354072], [-71.060755, 42.354077], [-71.060758, 42.354083], [-71.060762, 42.354088], [-71.060766, 42.354093], [-71.06077, 42.354098], [-71.060774, 42.354103], [-71.060779, 42.354108], [-71.060784, 42.354113], [-71.060789, 42.354118], [-71.060794, 42.354122], [-71.0608, 42.354126], [-71.060806, 42.354131], [-71.060812, 42.354135], [-71.060818, 42.354139], [-71.060824, 42.354142], [-71.06083, 42.354146], [-71.060837, 42.354149], [-71.060844, 42.354153], [-71.060851, 42.354156], [-71.060858, 42.354159], [-71.060865, 42.354161], [-71.060872, 42.354164], [-71.06088, 42.354166], [-71.060887, 42.354168], [-71.060895, 42.35417], [-71.060903, 42.354172], [-71.060911, 42.354173], [-71.060918, 42.354175], [-71.060926, 42.354176], [-71.060934, 42.354177], [-71.060942, 42.354177], [-71.06095, 42.354178], [-71.060958, 42.354178], [-71.060966, 42.354178], [-71.060974, 42.354178], [-71.060982, 42.354178], [-71.060989, 42.354177], [-71.060997, 42.354177], [-71.061005, 42.354177], [-71.061013, 42.354176], [-71.061021, 42.354175], [-71.061029, 42.354174], [-71.061037, 42.354172], [-71.061045, 42.354171], [-71.061052, 42.354169], [-71.06106, 42.354167], [-71.061068, 42.354165], [-71.061075, 42.354162], [-71.061082, 42.35416], [-71.061089, 42.354157], [-71.061096, 42.354154], [-71.061103, 42.354151], [-71.06111, 42.354147], [-71.061117, 42.354144], [-71.061123, 42.35414], [-71.061129, 42.354136], [-71.061135, 42.354132], [-71.061141, 42.354128], [-71.061147, 42.354124], [-71.061152, 42.354119], [-71.061157, 42.354115], [-71.061162, 42.35411], [-71.061167, 42.354105], [-71.061172, 42.3541], [-71.061176, 42.354095], [-71.06118, 42.35409], [-71.061184, 42.354085], [-71.061188, 42.354079], [-71.061191, 42.354074], [-71.061194, 42.354068], [-71.061197, 42.354063], [-71.061199, 42.354057], [-71.061202, 42.354051], [-71.061204, 42.354045], [-71.061205, 42.35404], [-71.061207, 42.354034], [-71.061208, 42.354028], [-71.061209, 42.354022], [-71.06121, 42.354016], [-71.06121, 42.35401], [-71.06121, 42.354004], [-71.06121, 42.353998], [-71.061209, 42.353992], [-71.061208, 42.353986], [-71.061207, 42.35398], [-71.061206, 42.353974], [-71.061204, 42.353969], [-71.061202, 42.353963], [-71.0612, 42.353957], [-71.061198, 42.353951], [-71.061195, 42.353946], [-71.061192, 42.35394], [-71.061189, 42.353935], [-71.061185, 42.353929], [-71.061182, 42.353924], [-71.061178, 42.353919], [-71.061173, 42.353913], [-71.061169, 42.353909], [-71.061164, 42.353904], [-71.061159, 42.353899], [-71.061154, 42.353894], [-71.061149, 42.35389], [-71.061143, 42.353885], [-71.061138, 42.353881], [-71.061132, 42.353877], [-71.061125, 42.353873], [-71.061119, 42.35387], [-71.061112, 42.353866], [-71.061106, 42.353863], [-71.061099, 42.353859], [-71.061092, 42.353856], [-71.061085, 42.353853], [-71.061078, 42.353851], [-71.06107, 42.353848], [-71.061063, 42.353846], [-71.061313, 42.353562], [-71.062003, 42.353901], [-71.061116, 42.354809], [-71.060178, 42.354186], [-71.06037, 42.353976]]]}, "properties": {"building": "office", "building:levels": "6", "building:material": "brick"}}, {"type": "Feature", "id": 29650688, "geometry": {"type": "Polygon", "coordinates": [[[-71.061007, 42.356308], [-71.060878, 42.356392], [-71.060738, 42.356483], [-71.060465, 42.356341], [-71.060682, 42.356102], [-71.060668, 42.356095], [-71.060778, 42.355979], [-71.060918, 42.356049], [-71.060976, 42.35608], [-71.061046, 42.356006], [-71.061151, 42.356061], [-71.061144, 42.356068], [-71.061041, 42.356176], [-71.061103, 42.356208], [-71.061007, 42.356308]]]}, "properties": {"addr:city": "Boston", "addr:housenumber": "1", "addr:postcode": "02108", "addr:state": "MA", "addr:street": "Hamilton Place", "amenity": "theatre", "building": "yes", "building:height": "24", "name": "Orpheum Theatre", "wikidata": "Q894568", "height": "24"}}, {"type": "Feature", "id": 29869088, "geometry": {"type": "Polygon", "coordinates": [[[-71.060668, 42.356095], [-71.060627, 42.356073], [-71.060611, 42.356091], [-71.060401, 42.355985], [-71.060196, 42.355881], [-71.060275, 42.35581], [-71.060279, 42.355813], [-71.060283, 42.355815], [-71.060398, 42.355877], [-71.060613, 42.355971], [-71.060691, 42.356005], [-71.060729, 42.355958], [-71.060778, 42.355979], [-71.060668, 42.356095]]]}, "properties": {"building": "yes", "building:colour": "#EEEEEE", "building:height": "23", "building:levels": "5", "roof:material": "concrete", "height": "23"}}, {"type": "Feature", "id": 29944593, "geometry": {"type": "Polygon", "coordinates": [[[-71.061116, 42.354809], [-71.060501, 42.355324], [-71.059478, 42.354549], [-71.059473, 42.354543], [-71.059469, 42.354539], [-71.059466, 42.354534], [-71.059463, 42.354529], [-71.059461, 42.354525], [-71.059459, 42.35452], [-71.059458, 42.354515], [-71.059457, 42.35451], [-71.059457, 42.354505], [-71.059457, 42.3545], [-71.059457, 42.354495], [-71.059459, 42.35449], [-71.05946, 42.354486], [-71.059462, 42.354481], [-71.059464, 42.354476], [-71.059467, 42.354472], [-71.05947, 42.354467], [-71.059474, 42.354463], [-71.059587, 42.354362], [-71.059953, 42.354037], [-71.060178, 42.354186], [-71.061116, 42.354809]]]}, "properties": {"addr:city": "Boston", "addr:housenumber": "450", "addr:postcode": "02111", "addr:street": "Washington Street", "building": "yes", "building:levels": "8"}}, {"type": "Feature", "id": 240550058, "geometry": {"type": "Polygon", "coordinates": [[[-71.06037, 42.353976], [-71.060769, 42.353549], [-71.061018, 42.353515], [-71.061044, 42.353529], [-71.061139, 42.353514], [-71.061165, 42.353485], [-71.060974, 42.353386], [-71.060799, 42.353296], [-71.060728, 42.35326], [-71.060512, 42.353498], [-71.060391, 42.35363], [-71.06033, 42.353698], [-71.060393, 42.353729], [-71.060327, 42.353801], [-71.06037, 42.353976]]]}, "properties": {"building": "hotel", "building:colour": "#999966", "fixme": "height and levels estimated", "roof:material": "concrete", "roof:shape": "flat"}}, {"type": "Feature", "id": 244539272, "geometry": {"type": "Polygon", "coordinates": [[[-71.060475, 42.35563], [-71.06053, 42.355581], [-71.060532, 42.35558], [-71.060573, 42.355543], [-71.060634, 42.355571], [-71.060635, 42.355571], [-71.060928, 42.355706], [-71.060926, 42.355708], [-71.060847, 42.355809], [-71.060478, 42.355632], [-71.060475, 42.35563]]]}, "properties": {"building": "yes", "fixme": "heights estimated"}}, {"type": "Feature", "id": 244539274, "geometry": {"type": "Polygon", "coordinates": [[[-71.060275, 42.35581], [-71.060416, 42.355683], [-71.060421, 42.355685], [-71.060425, 42.355687], [-71.060689, 42.355804], [-71.06077, 42.35584], [-71.060809, 42.355857], [-71.060729, 42.355958], [-71.060691, 42.356005], [-71.060613, 42.355971], [-71.060398, 42.355877], [-71.060283, 42.355815], [-71.060279, 42.355813], [-71.060275, 42.35581]]]}, "properties": {"building": "yes", "building:levels": "9", "building:material": "brick", "height": "32", "roof:material": "concrete", "roof:shape": "flat"}}, {"type": "Feature", "id": 244539286, "geometry": {"type": "Polygon", "coordinates": [[[-71.060809, 42.355857], [-71.060847, 42.355809], [-71.060478, 42.355632], [-71.060475, 42.35563], [-71.060416, 42.355683], [-71.060421, 42.355685], [-71.060425, 42.355687], [-71.060689, 42.355804], [-71.06077, 42.35584], [-71.060809, 42.355857]]]}, "properties": {"building": "yes", "building:colour": "#EEEEEE", "building:levels": "4"}}, {"type": "Feature", "id": 408746619, "geometry": {"type": "Polygon", "coordinates": [[[-71.060458, 42.356379], [-71.060702, 42.356502], [-71.060435, 42.35676], [-71.060218, 42.356659], [-71.060387, 42.356463], [-71.060458, 42.356379]]]}, "properties": {"addr:city": "Boston", "addr:housenumber": "32", "addr:state": "MA", "addr:street": "Bromfield Street", "building": "yes", "building:height": "22.8", "height": "22.8"}}, {"type": "Feature", "id": 408746654, "geometry": {"type": "Polygon", "coordinates": [[[-71.061118, 42.355232], [-71.061224, 42.355285], [-71.060944, 42.355601], [-71.060641, 42.355456], [-71.060682, 42.355417], [-71.060961, 42.355154], [-71.06107, 42.355208], [-71.060994, 42.355295], [-71.061039, 42.355315], [-71.061118, 42.355232]]]}, "properties": {"addr:city": "Boston", "addr:housenumber": "449", "addr:state": "MA", "addr:street": "Washington Street", "building": "yes", "building:height": "37.6", "building:levels": "11", "height": "37.6"}}]}