{"type": "FeatureCollection", "features": [{"type": "Feature", "id": 278093199, "geometry": {"type": "Polygon", "coordinates": [[[-74.007423, 40.714019], [-74.007577, 40.71409], [-74.007409, 40.7143], [-74.007256, 40.714229], [-74.007423, 40.714019]]]}, "properties": {"addr:housenumber": "12", "addr:postcode": "10007", "addr:street": "Warren Street", "building": "yes", "height": "22.1", "nycdoitt:bin": "1001460"}}, {"type": "Feature", "id": 278093231, "geometry": {"type": "Polygon", "coordinates": [[[-74.00479, 40.714522], [-74.004326, 40.714305], [-74.004469, 40.714128], [-74.004933, 40.714345], [-74.00479, 40.714522]]]}, "properties": {"building": "yes", "height": "26.1", "nycdoitt:bin": "1078613"}}, {"type": "Feature", "id": 278093235, "geometry": {"type": "Polygon", "coordinates": [[[-74.005412, 40.713878], [-74.005487, 40.713914], [-74.005492, 40.713907], [-74.006117, 40.714203], [-74.005831, 40.714549], [-74.005132, 40.714218], [-74.005406, 40.713886], [-74.005412, 40.713878]]]}, "properties": {"addr:city": "New York", "addr:housenumber": "280", "addr:postcode": "10007", "addr:state": "NY", "addr:street": "Broadway", "building": "yes", "ele": "10", "gnis:county_name": "New York", "gnis:feature_id": "2060506", "gnis:import_uuid": "57871b70-0100-4405-bb30-88b2e001a944", "gnis:reviewed": "yes", "height": "32.1", "name": "Sun Building", "nycdoitt:bin": "1079215", "source": "USGS Geonames", "wikidata": "Q2127737"}}, {"type": "Feature", "id": 278093236, "geometry": {"type": "Polygon", "coordinates": [[[-74.006887, 40.714186], [-74.006899, 40.714172], [-74.006936, 40.714125], [-74.006964, 40.714138], [-74.006972, 40.714141], [-74.006999, 40.714154], [-74.007105, 40.714203], [-74.007139, 40.714219], [-74.007379, 40.714329], [-74.007299, 40.71443], [-74.007287, 40.714445], [-74.007275, 40.71446], [-74.00725, 40.714492], [-74.007238, 40.714507], [-74.007093, 40.71444], [-74.006882, 40.714343], [-74.006801, 40.714306], [-74.006664, 40.714242], [-74.006507, 40.71417], [-74.0066, 40.714054], [-74.006676, 40.714089], [-74.006887, 40.714186]]]}, "properties": {"addr:city": "New York", "addr:housenumber": "270", "addr:postcode": "10007", "addr:state": "NY", "addr:street": "Broadway", "building": "yes", "name": "Tower 270", "nycdoitt:bin": "1079153", "start_date": "1930", "wikidata": "Q7829626", "wikipedia": "en:Tower 270"}}, {"type": "Feature", "id": 157880278, "geometry": {"type": "Polygon", "coordinates": [[[-74.004972, 40.714157], [-74.005123, 40.714229], [-74.005132, 40.714218], [-74.005406, 40.713886], [-74.005248, 40.713811], [-74.005129, 40.713754], [-74.005032, 40.713708], [-74.004749, 40.714051], [-74.004861, 40.714105], [-74.004972, 40.714157]]]}, "properties": {"addr:city": "New York", "addr:housenumber": "51", "addr:state": "NY", "addr:street": "Chambers Street", "building": "yes", "building:levels": "17", "building:part": "yes", "height": "68", "name": "Emigrant Industrial Savings Bank Building", "nycdoitt:bin": "1079216", "start_date": "1912", "wikidata": "Q1335726", "wikipedia": "en:Former Emigrant Industrial Savings Bank"}}, {"type": "Feature", "id": 278093197, "geometry": {"type": "Polygon", "coordinates": [[[-74.007268, 40.713948], [-74.007423, 40.714019], [-74.007256, 40.714229], [-74.007101, 40.714158], [-74.007119, 40.714135], [-74.007268, 40.713948]]]}, "properties": {"addr:housenumber": "10", "addr:postcode": "10007", "addr:street": "Warren Street", "building": "yes", "height": "44.1", "nycdoitt:bin": "1079154"}}, {"type": "Feature", "id": 278093212, "geometry": {"type": "Polygon", "coordinates": [[[-74.006692, 40.713938], [-74.006812, 40.713993], [-74.006992, 40.714076], [-74.007018, 40.714088], [-74.006972, 40.714141], [-74.006964, 40.714138], [-74.006936, 40.714125], [-74.006899, 40.714172], [-74.006887, 40.714186], [-74.006676, 40.714089], [-74.0066, 40.714054], [-74.006692, 40.713938]]]}, "properties": {"addr:city": "New York", "addr:housenumber": "265", "addr:postcode": "10007", "addr:street": "Broadway", "building": "yes", "building:colour": "#9F9890", "building:levels": "5", "height": "21.1", "nycdoitt:bin": "1001472", "roof:colour": "#9A8975", "roof:material": "concrete", "roof:shape": "flat"}}, {"type": "Feature", "id": 278093225, "geometry": {"type": "Polygon", "coordinates": [[[-74.007382, 40.713631], [-74.007423, 40.713578], [-74.007577, 40.713648], [-74.007636, 40.713674], [-74.007586, 40.713738], [-74.00762, 40.713753], [-74.007526, 40.713873], [-74.006973, 40.713622], [-74.007075, 40.713492], [-74.007207, 40.713552], [-74.007267, 40.713579], [-74.007382, 40.713631]]]}, "properties": {"building": "yes", "building:colour": "#BEB5A4", "building:levels": "8", "height": "39.6", "nycdoitt:bin": "1077426", "roof:colour": "#4F5356", "roof:material": "concrete", "roof:shape": "flat"}}, {"type": "Feature", "id": 278093226, "geometry": {"type": "Polygon", "coordinates": [[[-74.007477, 40.713509], [-74.007373, 40.713461], [-74.007411, 40.713413], [-74.007338, 40.71338], [-74.007303, 40.713424], [-74.007173, 40.713365], [-74.007304, 40.7132], [-74.007781, 40.713416], [-74.007728, 40.713482], [-74.007713, 40.713475], [-74.007577, 40.713648], [-74.007423, 40.713578], [-74.007477, 40.713509]]]}, "properties": {"building": "yes", "building:colour": "#D3CBBF", "building:levels": "13", "height": "62.1", "nycdoitt:bin": "1082757", "roof:colour": "#6E615B", "roof:material": "concrete", "roof:shape": "flat"}}, {"type": "Feature", "id": 278093227, "geometry": {"type": "Polygon", "coordinates": [[[-74.007308, 40.713526], [-74.007249, 40.713499], [-74.007207, 40.713552], [-74.007075, 40.713492], [-74.007094, 40.713467], [-74.007154, 40.713391], [-74.007173, 40.713365], [-74.007303, 40.713424], [-74.007283, 40.713449], [-74.00728, 40.713453], [-74.007344, 40.713482], [-74.007364, 40.713457], [-74.007373, 40.713461], [-74.007477, 40.713509], [-74.007423, 40.713578], [-74.007382, 40.713631], [-74.007267, 40.713579], [-74.007308, 40.713526]]]}, "properties": {"building": "yes", "building:colour": "#E4E1C2", "building:levels": "15", "building:part": "yes", "height": "68", "nycdoitt:bin": "1082756", "roof:material": "concrete", "roof:shape": "flat", "start_date": "1894"}}, {"type": "Feature", "id": 278093237, "geometry": {"type": "Polygon", "coordinates": [[[-74.006992, 40.714076], [-74.007051, 40.714002], [-74.006871, 40.713919], [-74.006812, 40.713993], [-74.006692, 40.713938], [-74.006841, 40.713751], [-74.007268, 40.713948], [-74.007119, 40.714135], [-74.007018, 40.714088], [-74.006992, 40.714076]]]}, "properties": {"building": "yes", "building:colour": "#D9CAAD", "building:levels": "12", "height": "46.0", "nycdoitt:bin": "1001473", "roof:colour": "#575D5D", "roof:material": "concrete", "roof:shape": "flat"}}, {"type": "Feature", "id": 575213948, "geometry": {"type": "Polygon", "coordinates": [[[-74.00586, 40.713353], [-74.005896, 40.713309], [-74.00608, 40.713394], [-74.005981, 40.713518], [-74.005985, 40.713519], [-74.005883, 40.713647], [-74.005879, 40.713645], [-74.005787, 40.713759], [-74.005603, 40.713674], [-74.005635, 40.713634], [-74.005515, 40.713578], [-74.005485, 40.713614], [-74.005407, 40.713578], [-74.005318, 40.713538], [-74.005347, 40.713501], [-74.005227, 40.713446], [-74.005192, 40.71349], [-74.005005, 40.713404], [-74.0051, 40.713286], [-74.005093, 40.713282], [-74.005131, 40.713236], [-74.005196, 40.713154], [-74.005202, 40.713157], [-74.005297, 40.713039], [-74.005481, 40.713123], [-74.005448, 40.713163], [-74.005573, 40.713221], [-74.005661, 40.71311], [-74.005828, 40.713187], [-74.00574, 40.713298], [-74.00586, 40.713353]]]}, "properties": {"addr:city": "New York", "addr:housenumber": "52", "addr:postcode": "10007", "addr:state": "NY", "addr:street": "Chambers Street", "alt_name": "Old New York County Courthouse", "building": "yes", "building:part": "yes", "height": "17", "name": "Tweed Courthouse", "nycdoitt:bin": "1079146", "office": "government", "polling_station": "yes", "smoking": "no", "start_date": "1881", "wheelchair": "yes", "wikidata": "Q1105773", "wikipedia": "en:Tweed Courthouse"}}, {"type": "Feature", "id": 250269532, "geometry": {"type": "Polygon", "coordinates": [[[-74.00626, 40.714431], [-74.006458, 40.714523], [-74.006396, 40.7146], [-74.006507, 40.714651], [-74.006514, 40.714638], [-74.006582, 40.714669], [-74.006455, 40.714828], [-74.006449, 40.714835], [-74.006383, 40.714804], [-74.006387, 40.714796], [-74.006431, 40.714742], [-74.006125, 40.7146], [-74.00626, 40.714431]]]}, "properties": {"addr:housenumber": "281", "addr:postcode": "10007", "addr:street": "Broadway", "building": "yes", "nycdoitt:bin": "1087951"}}, {"type": "Feature", "id": 250269548, "geometry": {"type": "Polygon", "coordinates": [[[-74.006566, 40.714573], [-74.006458, 40.714523], [-74.00626, 40.714431], [-74.006364, 40.714302], [-74.00667, 40.714443], [-74.006566, 40.714573]]]}, "properties": {"addr:city": "New York", "addr:housenumber": "277", "addr:postcode": "10007", "addr:state": "NY", "addr:street": "Broadway", "building": "commercial", "building:colour": "red", "building:material": "brick", "building:roof:shape": "flat", "height": "68.5", "name": "Broadway-Chambers Building", "nycdoitt:bin": "1001635", "smoking": "no", "wheelchair": "yes", "wikidata": "Q4972370"}}, {"type": "Feature", "id": 278093214, "geometry": {"type": "Polygon", "coordinates": [[[-74.007379, 40.714329], [-74.007384, 40.714332], [-74.007463, 40.714368], [-74.007321, 40.714545], [-74.007238, 40.714507], [-74.00725, 40.714492], [-74.007275, 40.71446], [-74.007287, 40.714445], [-74.007299, 40.71443], [-74.007379, 40.714329]]]}, "properties": {"addr:housenumber": "88", "addr:postcode": "10007", "addr:street": "Chambers Street", "building": "yes", "height": "24.9", "nycdoitt:bin": "1001471"}}, {"type": "Feature", "id": 278093222, "geometry": {"type": "Polygon", "coordinates": [[[-74.004933, 40.714345], [-74.005691, 40.714699], [-74.005363, 40.715107], [-74.005268, 40.715063], [-74.005274, 40.715056], [-74.005222, 40.715032], [-74.005216, 40.715039], [-74.00474, 40.714817], [-74.004748, 40.714808], [-74.004696, 40.714784], [-74.004689, 40.714793], [-74.004592, 40.714747], [-74.004652, 40.714673], [-74.004664, 40.714678], [-74.00479, 40.714522], [-74.004933, 40.714345]]]}, "properties": {"addr:housenumber": "290", "addr:postcode": "10007", "addr:state": "NY", "addr:street": "Broadway", "amenity": "public_building", "building": "yes", "ele": "9", "gnis:county_name": "New York", "gnis:feature_id": "2060604", "height": "144.5", "name": "Ted Weiss Federal Building", "nycdoitt:bin": "1083094", "source": "USGS Geonames"}}]}