{"type": "FeatureCollection", "features": [{"type": "Feature", "id": 24494029, "geometry": {"type": "Polygon", "coordinates": [[[-71.095029, 42.358394], [-71.094954, 42.358351], [-71.0949, 42.358305], [-71.094854, 42.358255], [-71.094819, 42.3582], [-71.094782, 42.358119], [-71.094771, 42.358047], [-71.094772, 42.357987], [-71.094867, 42.357968], [-71.094961, 42.357962], [-71.095047, 42.357962], [-71.095158, 42.357968], [-71.095244, 42.357987], [-71.095316, 42.35801], [-71.095364, 42.358032], [-71.095353, 42.358089], [-71.095334, 42.358145], [-71.095299, 42.358202], [-71.095246, 42.358265], [-71.095179, 42.358319], [-71.095098, 42.358368], [-71.095029, 42.358394]]]}, "properties": {"addr:housenumber": "48", "addr:state": "MA", "alt_name": "Building W16", "amenity": "auditorium", "architect": "Eero Saarinen", "building": "university", "ele": "4", "gnis:county_name": "Middlesex", "gnis:feature_id": "1971425", "gnis:import_uuid": "57871b70-0100-4405-bb30-88b2e001a944", "gnis:reviewed": "no", "name": "Kresge Auditorium", "ref": "W16", "wikidata": "Q6436787", "wikipedia": "en:Kresge Auditorium"}}, {"type": "Feature", "id": 24562763, "geometry": {"type": "Polygon", "coordinates": [[[-71.094207, 42.35838], [-71.09415, 42.358397], [-71.094098, 42.35839], [-71.094058, 42.358364], [-71.094043, 42.35834], [-71.09404, 42.358325], [-71.094047, 42.358294], [-71.094071, 42.358267], [-71.094108, 42.358251], [-71.09415, 42.358246], [-71.094202, 42.358261], [-71.094233, 42.358288], [-71.094244, 42.358325], [-71.094236, 42.358351], [-71.094207, 42.35838]]]}, "properties": {"addr:housenumber": "48", "addr:street": "Massachusetts Avenue", "amenity": "place_of_worship", "architect": "Eero Saarinen", "building": "university", "campusbuilding": "yes", "denomination": "nondenominational", "gnis:county_id": "017", "gnis:created": "01/15/2003", "gnis:feature_id": "1971508", "gnis:state_id": "25", "name": "Massachusetts Institute of Technology Chapel", "ref": "W15", "religion": "christian", "short_name": "MIT Chapel", "wikidata": "Q6716291", "wikipedia": "en:MIT Chapel"}}, {"type": "Feature", "id": 29127389, "geometry": {"type": "Polygon", "coordinates": [[[-71.096321, 42.358852], [-71.095978, 42.358307], [-71.095669, 42.358415], [-71.095377, 42.358542], [-71.09518, 42.358669], [-71.095317, 42.358821], [-71.095334, 42.358922], [-71.095394, 42.358992], [-71.095437, 42.35903], [-71.095477, 42.359161], [-71.096105, 42.358848], [-71.096167, 42.358916], [-71.096321, 42.358852]]]}, "properties": {"addr:housenumber": "106;120", "addr:state": "MA", "addr:street": "Vassar Street", "building": "university", "campusbuilding": "yes", "ele": "3", "gnis:county_name": "Middlesex", "gnis:feature_id": "1971038", "gnis:import_uuid": "57871b70-0100-4405-bb30-88b2e001a944", "gnis:reviewed": "no", "name": "Zesiger Sports & Fitness Center", "ref": "W35", "source": "USGS Geonames", "wikidata": "Q8069682"}}, {"type": "Feature", "id": 29803070, "geometry": {"type": "Polygon", "coordinates": [[[-71.095084, 42.35676], [-71.095247, 42.357029], [-71.09509, 42.357081], [-71.094927, 42.356812], [-71.095084, 42.35676]]]}, "properties": {"addr:housenumber": "350", "addr:street": "Memorial Drive", "building": "university", "campusbuilding": "yes", "name": "Green Hall", "ref": "W5"}}, {"type": "Feature", "id": 29803811, "geometry": {"type": "Polygon", "coordinates": [[[-71.093885, 42.35716], [-71.093927, 42.357229], [-71.093946, 42.357222], [-71.093958, 42.357242], [-71.093914, 42.357257], [-71.093935, 42.35729], [-71.093797, 42.357336], [-71.093785, 42.357315], [-71.093749, 42.357327], [-71.093687, 42.357226], [-71.093885, 42.35716]]]}, "properties": {"addr:housenumber": "311", "building": "university", "ref": "W2"}}, {"type": "Feature", "id": 132601564, "geometry": {"type": "Polygon", "coordinates": [[[-71.096321, 42.358852], [-71.096459, 42.359068], [-71.09706, 42.358871], [-71.096605, 42.358098], [-71.095978, 42.358307], [-71.096321, 42.358852]]]}, "properties": {"addr:housenumber": "120", "addr:state": "MA", "building": "university", "campusbuilding": "yes", "ele": "3", "gnis:county_name": "Middlesex", "gnis:feature_id": "1971408", "gnis:import_uuid": "57871b70-0100-4405-bb30-88b2e001a944", "gnis:reviewed": "no", "leisure": "sports_centre", "name": "Johnson Athletic Center", "ref": "W34", "source": "USGS Geonames"}}, {"type": "Feature", "id": 212292924, "geometry": {"type": "Polygon", "coordinates": [[[-71.093828, 42.357495], [-71.093784, 42.357509], [-71.093744, 42.357441], [-71.093787, 42.357427], [-71.093828, 42.357495]]]}, "properties": {"building": "yes"}}, {"type": "Feature", "id": 236579282, "geometry": {"type": "Polygon", "coordinates": [[[-71.094058, 42.358364], [-71.094043, 42.35834], [-71.093957, 42.358369], [-71.093898, 42.358388], [-71.093913, 42.358412], [-71.093971, 42.358393], [-71.094058, 42.358364]]]}, "properties": {"building": "yes"}}, {"type": "Feature", "id": 24494019, "geometry": {"type": "Polygon", "coordinates": [[[-71.095329, 42.359086], [-71.094437, 42.359383], [-71.094212, 42.359013], [-71.094467, 42.358928], [-71.094838, 42.358805], [-71.095104, 42.358716], [-71.095329, 42.359086]]]}, "properties": {"addr:city": "Cambridge", "addr:housename": "Stratton Student Center", "addr:housenumber": "84", "addr:postcode": "02139", "addr:state": "MA", "addr:street": "Massachusetts Avenue", "alt_name": "Building W20", "architect": "Catalano, Brannen, Shimamoto", "building": "university", "building:levels": "5", "building:material": "concrete", "campusbuilding": "yes", "name": "Stratton Student Center (W20)", "ref": "W20", "roof:material": "concrete", "roof:shape": "flat"}}, {"type": "Feature", "id": 24494035, "geometry": {"type": "Polygon", "coordinates": [[[-71.093884, 42.357795], [-71.093559, 42.357277], [-71.09339, 42.357339], [-71.09356, 42.35761], [-71.093282, 42.357695], [-71.093124, 42.357422], [-71.092961, 42.357478], [-71.093278, 42.357995], [-71.093434, 42.357944], [-71.093355, 42.357824], [-71.093665, 42.357722], [-71.093733, 42.357842], [-71.093805, 42.357821], [-71.093884, 42.357795]]]}, "properties": {"addr:housenumber": "305", "addr:postcode": "02139", "addr:street": "Memorial Drive", "building": "university", "campusbuilding": "yes", "name": "Maseeh Hall", "ref": "W1"}}, {"type": "Feature", "id": 29611119, "geometry": {"type": "Polygon", "coordinates": [[[-71.093617, 42.358094], [-71.09374, 42.358306], [-71.093401, 42.358413], [-71.093303, 42.358208], [-71.093617, 42.358094]]]}, "properties": {"addr:city": "Cambridge", "addr:housenumber": "32", "addr:postcode": "02139", "addr:state": "MA", "addr:street": "Massachusetts Avenue", "building": "university", "building:levels": "0", "campusbuilding": "yes", "name": "MIT Religious Activities Center (W11)", "ref": "W11"}}, {"type": "Feature", "id": 29625886, "geometry": {"type": "Polygon", "coordinates": [[[-71.093374, 42.364115], [-71.093469, 42.364159], [-71.093345, 42.364305], [-71.093368, 42.364315], [-71.09327, 42.364432], [-71.093002, 42.364326], [-71.093096, 42.364214], [-71.093236, 42.364279], [-71.093374, 42.364115]]]}, "properties": {"building": "yes"}}, {"type": "Feature", "id": 29627050, "geometry": {"type": "Polygon", "coordinates": [[[-71.09351, 42.365603], [-71.093863, 42.365746], [-71.093504, 42.366237], [-71.09319, 42.36611], [-71.09315, 42.366095], [-71.09351, 42.365603]]]}, "properties": {"addr:city": "Cambridge", "addr:housenumber": "210", "addr:postcode": "02139", "addr:state": "MA", "addr:street": "Broadway", "building": "commercial", "building:levels": "4", "name": "210 Broadway Offices", "note": "Owner: BioMed Realty, a San Diego real estate investment trust (REIT). http://www.biomedrealty.com/properties/property-details.aspx?propertyID=614#"}}, {"type": "Feature", "id": 29714586, "geometry": {"type": "Polygon", "coordinates": [[[-71.093351, 42.364611], [-71.093568, 42.364707], [-71.09348, 42.364815], [-71.093461, 42.364805], [-71.093339, 42.364956], [-71.093363, 42.364967], [-71.093304, 42.365039], [-71.09321, 42.364998], [-71.093264, 42.364933], [-71.09324, 42.364922], [-71.093358, 42.364776], [-71.093378, 42.364785], [-71.093412, 42.364742], [-71.093289, 42.364688], [-71.093351, 42.364611]]]}, "properties": {"addr:housenumber": "110", "addr:street": "Harvard Street", "building": "yes"}}, {"type": "Feature", "id": 29740162, "geometry": {"type": "Polygon", "coordinates": [[[-71.09294, 42.363048], [-71.093505, 42.363076], [-71.093064, 42.363804], [-71.092874, 42.363795], [-71.09294, 42.363048]]]}, "properties": {"addr:housenumber": "600", "addr:street": "Technology Square", "alt_name": "Building NE49", "building": "university", "campusbuilding": "yes", "name": "NE49", "note": "Property Type: Office. Year Built: 2001 Rentable Square Feet: 127,150. MIT/ Alexandria Real Estate Equities, Inc.", "ref": "NE49", "source": "Massachusetts Institute of Technology - Facility Information Systems"}}, {"type": "Feature", "id": 29742700, "geometry": {"type": "Polygon", "coordinates": [[[-71.093526, 42.364131], [-71.093758, 42.364239], [-71.093666, 42.364347], [-71.093645, 42.364337], [-71.093533, 42.364471], [-71.093553, 42.36448], [-71.093472, 42.364576], [-71.093391, 42.364538], [-71.093433, 42.364489], [-71.09342, 42.364483], [-71.093615, 42.364252], [-71.093477, 42.364188], [-71.093526, 42.364131]]]}, "properties": {"addr:housenumber": "101", "addr:street": "Washington Street", "building": "yes"}}, {"type": "Feature", "id": 29804803, "geometry": {"type": "Polygon", "coordinates": [[[-71.095019, 42.365326], [-71.095105, 42.365363], [-71.095057, 42.365422], [-71.095071, 42.365428], [-71.094976, 42.365549], [-71.094961, 42.365543], [-71.094892, 42.36563], [-71.095032, 42.365691], [-71.094976, 42.365762], [-71.094747, 42.365663], [-71.094863, 42.365516], [-71.094888, 42.365527], [-71.094963, 42.365431], [-71.094947, 42.365424], [-71.095019, 42.365326]]]}, "properties": {"addr:housenumber": "150", "addr:street": "Harvard Street", "building": "yes"}}, {"type": "Feature", "id": 29860015, "geometry": {"type": "Polygon", "coordinates": [[[-71.093072, 42.362259], [-71.093156, 42.362361], [-71.093598, 42.362394], [-71.093582, 42.362513], [-71.0934, 42.362499], [-71.093397, 42.362527], [-71.093573, 42.36254], [-71.09353, 42.362857], [-71.093399, 42.362848], [-71.093428, 42.362635], [-71.093384, 42.362632], [-71.093356, 42.362844], [-71.092541, 42.362784], [-71.092451, 42.362569], [-71.093072, 42.362259]]]}, "properties": {"building": "yes", "created_by": "Potlatch 0.10f"}}, {"type": "Feature", "id": 29863679, "geometry": {"type": "Polygon", "coordinates": [[[-71.096066, 42.36569], [-71.096192, 42.365716], [-71.096178, 42.365753], [-71.096239, 42.365766], [-71.096219, 42.365817], [-71.096149, 42.365803], [-71.096145, 42.365812], [-71.096029, 42.365788], [-71.096066, 42.36569]]]}, "properties": {"addr:housenumber": "181", "addr:street": "Windsor Street", "building": "yes"}}, {"type": "Feature", "id": 29949829, "geometry": {"type": "Polygon", "coordinates": [[[-71.093312, 42.365249], [-71.093504, 42.365327], [-71.093164, 42.365791], [-71.093192, 42.365802], [-71.093008, 42.366052], [-71.092766, 42.365955], [-71.093034, 42.365589], [-71.093057, 42.365598], [-71.093312, 42.365249]]]}, "properties": {"building": "commercial", "name": "200 Broadway"}}, {"type": "Feature", "id": 32499809, "geometry": {"type": "Polygon", "coordinates": [[[-71.093492, 42.359572], [-71.093398, 42.359603], [-71.093433, 42.359661], [-71.093379, 42.359679], [-71.093374, 42.359671], [-71.093301, 42.359695], [-71.093306, 42.359704], [-71.093293, 42.359708], [-71.09331, 42.359736], [-71.093326, 42.359762], [-71.093339, 42.359758], [-71.09339, 42.359844], [-71.093379, 42.359848], [-71.093412, 42.359904], [-71.093423, 42.3599], [-71.093427, 42.359908], [-71.093504, 42.359883], [-71.093498, 42.359873], [-71.093549, 42.359856], [-71.093607, 42.359955], [-71.093707, 42.359923], [-71.093648, 42.359823], [-71.093701, 42.359806], [-71.093706, 42.359815], [-71.093738, 42.359804], [-71.093742, 42.359812], [-71.093731, 42.359816], [-71.093762, 42.35987], [-71.093774, 42.359866], [-71.093779, 42.359874], [-71.093886, 42.35984], [-71.093881, 42.359831], [-71.093892, 42.359828], [-71.093861, 42.359775], [-71.093848, 42.359779], [-71.093844, 42.359771], [-71.093778, 42.359792], [-71.093772, 42.359782], [-71.093785, 42.359778], [-71.093753, 42.359726], [-71.093739, 42.35973], [-71.093686, 42.359641], [-71.093698, 42.359637], [-71.093667, 42.359584], [-71.093653, 42.359589], [-71.093648, 42.35958], [-71.093581, 42.359603], [-71.093586, 42.359611], [-71.093527, 42.35963], [-71.093492, 42.359572]]]}, "properties": {"addr:city": "Cambridge", "addr:housenumber": "105", "addr:postcode": "02139", "addr:state": "MA", "addr:street": "Massachusetts Avenue", "alt_name": "Building 9", "building": "university", "building:levels": "6", "campusbuilding": "yes", "name": "9 Samuel Tak Lee Building", "ref": "9"}}, {"type": "Feature", "id": 32517230, "geometry": {"type": "Polygon", "coordinates": [[[-71.092727, 42.359242], [-71.092821, 42.359397], [-71.093025, 42.359329], [-71.093056, 42.359378], [-71.093153, 42.359346], [-71.093322, 42.359626], [-71.093398, 42.359603], [-71.093492, 42.359572], [-71.093559, 42.35955], [-71.093387, 42.359263], [-71.093396, 42.35926], [-71.093384, 42.35924], [-71.093409, 42.359232], [-71.093347, 42.359129], [-71.093281, 42.35902], [-71.093254, 42.359029], [-71.093242, 42.359009], [-71.093231, 42.359012], [-71.093013, 42.359084], [-71.092899, 42.359123], [-71.09293, 42.359175], [-71.092727, 42.359242]]]}, "properties": {"addr:city": "Cambridge", "addr:housenumber": "77", "addr:postcode": "02139", "addr:state": "MA", "addr:street": "Massachusetts Avenue", "alt_name": "Rogers Building", "building": "university", "building:colour": "#EEEEEE", "building:levels": "6", "building:material": "stone", "campusbuilding": "yes", "gnis:feature_id": "1971695", "name": "7 Rogers Building", "ref": "7", "source": "Massachusetts Institute of Technology - Facility Information Systems"}}, {"type": "Feature", "id": 32525033, "geometry": {"type": "Polygon", "coordinates": [[[-71.093242, 42.360101], [-71.093471, 42.36048], [-71.092868, 42.36066], [-71.092671, 42.360337], [-71.092696, 42.36033], [-71.092671, 42.360286], [-71.093242, 42.360101]]]}, "properties": {"addr:housename": "Sloan Laboratories", "addr:housenumber": "70R", "addr:state": "MA", "addr:street": "Vassar Street", "alt_name": "Building 31", "building": "university", "building:levels": "4", "campusbuilding": "yes", "ele": "3", "gnis:county_name": "Middlesex", "gnis:feature_id": "1971760", "gnis:import_uuid": "57871b70-0100-4405-bb30-88b2e001a944", "gnis:reviewed": "no", "name": "31 Sloan Labs for Aircraft and Auto Engineering", "ref": "31", "source": "Massachusetts Institute of Technology - Facility Information Systems;USGS Geonames"}}, {"type": "Feature", "id": 32525279, "geometry": {"type": "Polygon", "coordinates": [[[-71.093598, 42.360692], [-71.092957, 42.360888], [-71.092851, 42.360711], [-71.093503, 42.360514], [-71.093548, 42.360599], [-71.093598, 42.360692]]]}, "properties": {"addr:housename": "McNair Building", "addr:housenumber": "70", "addr:state": "MA", "addr:street": "Vassar Street", "alt_name": "Building 37", "building": "university", "building:levels": "7", "campusbuilding": "yes", "ele": "3", "gnis:county_name": "Middlesex", "gnis:feature_id": "1971533", "gnis:import_uuid": "57871b70-0100-4405-bb30-88b2e001a944", "gnis:reviewed": "no", "name": "37 McNair Center for Space Research", "ref": "37", "source": "Massachusetts Institute of Technology - Facility Information Systems;USGS Geonames"}}, {"type": "Feature", "id": 32526802, "geometry": {"type": "Polygon", "coordinates": [[[-71.093388, 42.360036], [-71.093518, 42.360254], [-71.093661, 42.360211], [-71.093545, 42.359986], [-71.093388, 42.360036]]]}, "properties": {"addr:housename": "Wright Brothers Wind Tunnel", "addr:state": "MA", "alt_name": "Building 17", "building": "university", "building:levels": "1", "ele": "3", "gnis:county_name": "Middlesex", "gnis:feature_id": "1971879", "gnis:import_uuid": "57871b70-0100-4405-bb30-88b2e001a944", "gnis:reviewed": "no", "name": "17 Wright Brothers Wind Tunnel", "ref": "17", "source": "USGS Geonames"}}, {"type": "Feature", "id": 132601297, "geometry": {"type": "Polygon", "coordinates": [[[-71.093913, 42.360748], [-71.093408, 42.360989], [-71.093487, 42.361076], [-71.093375, 42.361132], [-71.093117, 42.361261], [-71.093135, 42.361281], [-71.092816, 42.361442], [-71.092902, 42.361536], [-71.093695, 42.361136], [-71.093943, 42.361015], [-71.094087, 42.360942], [-71.093913, 42.360748]]]}, "properties": {"addr:housenumber": "57;59;71;77", "addr:street": "Vassar Street", "building": "university", "campusbuilding": "yes", "name": "William R. Dickson Cogeneration Plant", "ref": "42"}}, {"type": "Feature", "id": 132601562, "geometry": {"type": "Polygon", "coordinates": [[[-71.095499, 42.359332], [-71.094691, 42.359607], [-71.094588, 42.359436], [-71.095386, 42.359157], [-71.095499, 42.359332]]]}, "properties": {"addr:state": "MA", "building": "university", "campusbuilding": "yes", "ele": "3", "gnis:county_name": "Middlesex", "gnis:feature_id": "1971188", "gnis:import_uuid": "57871b70-0100-4405-bb30-88b2e001a944", "gnis:reviewed": "no", "leisure": "sports_centre", "name": "du Pont Athletic Center", "ref": "W32", "source": "USGS Geonames"}}, {"type": "Feature", "id": 132601563, "geometry": {"type": "Polygon", "coordinates": [[[-71.096167, 42.358916], [-71.096105, 42.358848], [-71.095477, 42.359161], [-71.095824, 42.359542], [-71.096452, 42.359229], [-71.096167, 42.358916]]]}, "properties": {"addr:state": "MA", "alt_name": "Building W33", "building": "university", "campusbuilding": "yes", "ele": "3", "gnis:county_name": "Middlesex", "gnis:feature_id": "1971693", "gnis:import_uuid": "57871b70-0100-4405-bb30-88b2e001a944", "gnis:reviewed": "no", "name": "Rockwell Cage", "ref": "W33", "source": "USGS Geonames"}}, {"type": "Feature", "id": 330248229, "geometry": {"type": "Polygon", "coordinates": [[[-71.093504, 42.366237], [-71.09319, 42.36611], [-71.09351, 42.365603], [-71.093863, 42.365746], [-71.093504, 42.366237]]]}, "properties": {"addr:housenumber": "210", "addr:street": "Broadway", "building": "commercial", "name": "One, Two & Three Cambridge Place", "note": "BioMed Realty REIT."}}, {"type": "Feature", "id": 712133781, "geometry": {"type": "Polygon", "coordinates": [[[-71.093587, 42.358763], [-71.093966, 42.35864], [-71.093783, 42.358333], [-71.093555, 42.358407], [-71.093543, 42.358388], [-71.093398, 42.358435], [-71.093472, 42.358559], [-71.093561, 42.35853], [-71.093555, 42.35852], [-71.093698, 42.358473], [-71.093753, 42.358566], [-71.093614, 42.358611], [-71.093608, 42.358601], [-71.093509, 42.358633], [-71.093587, 42.358763]]]}, "properties": {"building": "yes"}}, {"type": "Feature", "id": 29127393, "geometry": {"type": "Polygon", "coordinates": [[[-71.094691, 42.359607], [-71.095499, 42.359332], [-71.095686, 42.35962], [-71.094845, 42.359937], [-71.094742, 42.359817], [-71.094656, 42.359836], [-71.094639, 42.359804], [-71.094716, 42.359772], [-71.094639, 42.359626], [-71.094691, 42.359607]]]}, "properties": {"addr:housenumber": "120", "building": "university", "building:levels": "2", "campusbuilding": "yes", "name": "du Pont Athletic Gymnasium", "ref": "W31", "roof:levels": "2"}}, {"type": "Feature", "id": 29552431, "geometry": {"type": "Polygon", "coordinates": [[[-71.095599, 42.364796], [-71.095691, 42.364814], [-71.095667, 42.364882], [-71.095692, 42.364886], [-71.095651, 42.365002], [-71.095622, 42.364996], [-71.095576, 42.365123], [-71.095737, 42.365155], [-71.095713, 42.365221], [-71.095464, 42.365172], [-71.095599, 42.364796]]]}, "properties": {"addr:housenumber": "161;172;174;176", "addr:street": "Washington Street", "building": "yes"}}, {"type": "Feature", "id": 29556300, "geometry": {"type": "Polygon", "coordinates": [[[-71.096194, 42.363278], [-71.096319, 42.363419], [-71.096406, 42.363377], [-71.096473, 42.363453], [-71.096382, 42.363498], [-71.096522, 42.363658], [-71.096333, 42.363749], [-71.096384, 42.363807], [-71.096296, 42.363849], [-71.096242, 42.363787], [-71.096188, 42.363813], [-71.096132, 42.363749], [-71.096374, 42.363633], [-71.096164, 42.363388], [-71.095879, 42.363524], [-71.095826, 42.363465], [-71.095889, 42.363434], [-71.095837, 42.363375], [-71.095927, 42.363332], [-71.095973, 42.363384], [-71.096194, 42.363278]]]}, "properties": {"addr:housenumber": "1;3;5;7;9", "addr:street": "Newtowne Court", "building": "apartments"}}, {"type": "Feature", "id": 29559726, "geometry": {"type": "Polygon", "coordinates": [[[-71.093943, 42.361015], [-71.094113, 42.361205], [-71.094195, 42.361297], [-71.093947, 42.361418], [-71.093695, 42.361136], [-71.093943, 42.361015]]]}, "properties": {"building": "university", "campusbuilding": "yes", "name": "N16 Cooling Tower", "ref": "N16"}}, {"type": "Feature", "id": 29561198, "geometry": {"type": "Polygon", "coordinates": [[[-71.09503, 42.363861], [-71.095123, 42.363873], [-71.095118, 42.363894], [-71.09515, 42.363899], [-71.095141, 42.363935], [-71.095104, 42.36393], [-71.095101, 42.363943], [-71.095013, 42.363931], [-71.09503, 42.363861]]]}, "properties": {"building": "yes"}}, {"type": "Feature", "id": 29566805, "geometry": {"type": "Polygon", "coordinates": [[[-71.094517, 42.360465], [-71.094636, 42.360601], [-71.094455, 42.360688], [-71.094336, 42.360551], [-71.094517, 42.360465]]]}, "properties": {"building": "yes", "created_by": "Potlatch 0.10f"}}, {"type": "Feature", "id": 29569108, "geometry": {"type": "Polygon", "coordinates": [[[-71.093913, 42.360748], [-71.094219, 42.360602], [-71.09439, 42.36079], [-71.094087, 42.360942], [-71.093913, 42.360748]]]}, "properties": {"building": "university", "ref": "41"}}, {"type": "Feature", "id": 29604713, "geometry": {"type": "Polygon", "coordinates": [[[-71.094178, 42.364401], [-71.09441, 42.364509], [-71.094318, 42.364618], [-71.094297, 42.364608], [-71.094184, 42.364741], [-71.094205, 42.364751], [-71.094124, 42.364847], [-71.094043, 42.364809], [-71.094084, 42.36476], [-71.094072, 42.364754], [-71.094267, 42.364523], [-71.094129, 42.364459], [-71.094178, 42.364401]]]}, "properties": {"addr:housenumber": "121", "addr:street": "Washington Street", "building": "yes"}}, {"type": "Feature", "id": 29604764, "geometry": {"type": "Polygon", "coordinates": [[[-71.095687, 42.365324], [-71.095953, 42.365372], [-71.095912, 42.365497], [-71.095888, 42.365492], [-71.095838, 42.365645], [-71.095861, 42.36565], [-71.095826, 42.365759], [-71.095733, 42.365743], [-71.095751, 42.365686], [-71.095737, 42.365684], [-71.095823, 42.365419], [-71.095665, 42.36539], [-71.095687, 42.365324]]]}, "properties": {"addr:housenumber": "180", "addr:street": "Windsor Street", "building": "yes"}}, {"type": "Feature", "id": 29606402, "geometry": {"type": "Polygon", "coordinates": [[[-71.096289, 42.365616], [-71.096353, 42.365629], [-71.096343, 42.365655], [-71.096279, 42.365642], [-71.096289, 42.365616]]]}, "properties": {"building": "yes"}}, {"type": "Feature", "id": 29606734, "geometry": {"type": "Polygon", "coordinates": [[[-71.096232, 42.365497], [-71.096376, 42.365528], [-71.096348, 42.365601], [-71.096121, 42.365553], [-71.096149, 42.36548], [-71.096183, 42.365487], [-71.096232, 42.365497]]]}, "properties": {"addr:housenumber": "169;171", "addr:street": "Windsor Street", "building": "yes"}}, {"type": "Feature", "id": 29607631, "geometry": {"type": "Polygon", "coordinates": [[[-71.096271, 42.36571], [-71.096342, 42.365725], [-71.096331, 42.365753], [-71.09626, 42.365738], [-71.096271, 42.36571]]]}, "properties": {"building": "yes"}}, {"type": "Feature", "id": 29614177, "geometry": {"type": "Polygon", "coordinates": [[[-71.095795, 42.363891], [-71.095888, 42.363903], [-71.095883, 42.363924], [-71.095914, 42.363928], [-71.095905, 42.363964], [-71.095868, 42.363959], [-71.095865, 42.363973], [-71.095777, 42.363961], [-71.095795, 42.363891]]]}, "properties": {"building": "yes"}}, {"type": "Feature", "id": 29616645, "geometry": {"type": "Polygon", "coordinates": [[[-71.094014, 42.364883], [-71.09423, 42.364979], [-71.094143, 42.365087], [-71.094124, 42.365077], [-71.094002, 42.365228], [-71.094026, 42.365238], [-71.093967, 42.365311], [-71.093873, 42.365269], [-71.093927, 42.365205], [-71.093903, 42.365194], [-71.094021, 42.365048], [-71.094041, 42.365057], [-71.094075, 42.365014], [-71.093952, 42.36496], [-71.094014, 42.364883]]]}, "properties": {"addr:housenumber": "120", "addr:street": "Harvard Street", "building": "yes"}}, {"type": "Feature", "id": 29619525, "geometry": {"type": "Polygon", "coordinates": [[[-71.094455, 42.364642], [-71.094683, 42.364684], [-71.094617, 42.364881], [-71.094525, 42.364864], [-71.094538, 42.364826], [-71.094475, 42.364815], [-71.094463, 42.364852], [-71.09439, 42.364838], [-71.094455, 42.364642]]]}, "properties": {"addr:housenumber": "131", "addr:street": "Washington Street", "building": "yes"}}, {"type": "Feature", "id": 29621173, "geometry": {"type": "Polygon", "coordinates": [[[-71.096249, 42.365204], [-71.096442, 42.365245], [-71.096418, 42.365307], [-71.096225, 42.365266], [-71.096249, 42.365204]]]}, "properties": {"addr:housenumber": "155;157", "addr:street": "Windsor Street", "building": "yes"}}, {"type": "Feature", "id": 29621406, "geometry": {"type": "Polygon", "coordinates": [[[-71.095986, 42.36255], [-71.096127, 42.36256], [-71.096698, 42.362599], [-71.096636, 42.363099], [-71.095783, 42.363041], [-71.095812, 42.362808], [-71.095953, 42.362818], [-71.095986, 42.36255]]]}, "properties": {"addr:city": "Cambridge", "addr:housenumber": "750", "addr:postcode": "02139", "addr:state": "MA- MASSACHUSETTS", "addr:street": "Main Street", "building": "commercial", "building:levels": "5", "name": "750 Main St", "note": "Owner: MIT. Potential: lab/office space. Condition: poor. Former Polaroid offices."}}, {"type": "Feature", "id": 29621528, "geometry": {"type": "Polygon", "coordinates": [[[-71.094689, 42.363176], [-71.094932, 42.363452], [-71.095067, 42.363387], [-71.095019, 42.363332], [-71.095117, 42.363284], [-71.09517, 42.363344], [-71.095393, 42.363236], [-71.095521, 42.363382], [-71.095606, 42.363341], [-71.095664, 42.363406], [-71.095579, 42.363448], [-71.09566, 42.36354], [-71.095709, 42.363517], [-71.095773, 42.363588], [-71.095524, 42.363709], [-71.095541, 42.363728], [-71.095463, 42.363765], [-71.095354, 42.363642], [-71.095439, 42.3636], [-71.095473, 42.363639], [-71.095578, 42.363588], [-71.095363, 42.363342], [-71.094777, 42.363602], [-71.0948, 42.363629], [-71.094706, 42.363674], [-71.094602, 42.363555], [-71.094712, 42.363502], [-71.094749, 42.363545], [-71.094856, 42.363493], [-71.094674, 42.363285], [-71.09418, 42.363501], [-71.094126, 42.363445], [-71.094178, 42.36342], [-71.094129, 42.363363], [-71.094228, 42.363315], [-71.094284, 42.36338], [-71.094396, 42.363325], [-71.09434, 42.363262], [-71.094428, 42.363219], [-71.094479, 42.363277], [-71.094689, 42.363176]]]}, "properties": {"building": "apartments"}}, {"type": "Feature", "id": 29627161, "geometry": {"type": "Polygon", "coordinates": [[[-71.094101, 42.363831], [-71.094427, 42.364191], [-71.0947, 42.364056], [-71.094617, 42.363964], [-71.094579, 42.363983], [-71.094522, 42.363921], [-71.094685, 42.36384], [-71.094741, 42.363903], [-71.094703, 42.363922], [-71.095088, 42.364347], [-71.095419, 42.364183], [-71.09535, 42.364106], [-71.095311, 42.364125], [-71.095253, 42.364061], [-71.095414, 42.363981], [-71.095472, 42.364046], [-71.095435, 42.364064], [-71.095599, 42.364245], [-71.095515, 42.364286], [-71.095477, 42.364245], [-71.095351, 42.364308], [-71.095408, 42.364371], [-71.095318, 42.364415], [-71.09526, 42.364352], [-71.095062, 42.36445], [-71.094919, 42.364292], [-71.094835, 42.364334], [-71.094775, 42.364267], [-71.094857, 42.364227], [-71.094758, 42.364118], [-71.094402, 42.364295], [-71.094258, 42.364136], [-71.094175, 42.364177], [-71.094113, 42.364109], [-71.094196, 42.364068], [-71.094115, 42.363979], [-71.094031, 42.364021], [-71.09397, 42.363954], [-71.094052, 42.363914], [-71.094016, 42.363873], [-71.094101, 42.363831]]]}, "properties": {"building": "apartments"}}, {"type": "Feature", "id": 29627682, "geometry": {"type": "Polygon", "coordinates": [[[-71.095373, 42.362829], [-71.095431, 42.362831], [-71.095431, 42.362855], [-71.09578, 42.362862], [-71.095776, 42.362949], [-71.095747, 42.362949], [-71.095746, 42.362969], [-71.095715, 42.362968], [-71.095713, 42.363026], [-71.095366, 42.36302], [-71.095373, 42.362829]]]}, "properties": {"addr:city": "Cambridge", "addr:housenumber": "730", "addr:postcode": "02139", "addr:state": "MA- MASSACHUSETTS", "addr:street": "Main Street", "building": "commercial", "building:levels": "5", "name": "730 Main St.: vacant.", "note": "Owner: MIT.  Former Polaroid offices. Potential lab/office space."}}, {"type": "Feature", "id": 29650602, "geometry": {"type": "Polygon", "coordinates": [[[-71.0961, 42.365607], [-71.096236, 42.365636], [-71.096226, 42.365664], [-71.096251, 42.365669], [-71.096239, 42.365699], [-71.096078, 42.365665], [-71.0961, 42.365607]]]}, "properties": {"addr:housenumber": "177", "addr:street": "Windsor Street", "building": "yes"}}, {"type": "Feature", "id": 29650605, "geometry": {"type": "Polygon", "coordinates": [[[-71.094382, 42.365039], [-71.094467, 42.365076], [-71.09442, 42.365135], [-71.094434, 42.365141], [-71.094338, 42.365262], [-71.094323, 42.365256], [-71.094254, 42.365343], [-71.094394, 42.365404], [-71.094338, 42.365475], [-71.094109, 42.365376], [-71.094225, 42.365229], [-71.09425, 42.36524], [-71.094325, 42.365144], [-71.094309, 42.365137], [-71.094382, 42.365039]]]}, "properties": {"addr:housenumber": "130", "addr:street": "Harvard Street", "building": "yes"}}, {"type": "Feature", "id": 29650613, "geometry": {"type": "Polygon", "coordinates": [[[-71.096322, 42.365063], [-71.096457, 42.365091], [-71.096452, 42.365105], [-71.096471, 42.365109], [-71.096435, 42.365202], [-71.096366, 42.365187], [-71.09637, 42.365178], [-71.096345, 42.365172], [-71.096341, 42.365183], [-71.096281, 42.36517], [-71.096322, 42.365063]]]}, "properties": {"addr:housenumber": "149;151", "addr:street": "Windsor Street", "building": "yes"}}, {"type": "Feature", "id": 29650658, "geometry": {"type": "Polygon", "coordinates": [[[-71.095496, 42.360742], [-71.095616, 42.360875], [-71.095457, 42.360953], [-71.095478, 42.360977], [-71.095414, 42.361008], [-71.095273, 42.360852], [-71.095496, 42.360742]]]}, "properties": {"addr:city": "Cambridge", "addr:housenumber": "155", "addr:postcode": "02139", "addr:state": "MA", "addr:street": "Massachusetts Avenue", "architect": "Carleton Richmond Jr.", "building": "university", "campusbuilding": "yes", "name": "High Voltage Research Lab (N10)", "ref": "N10"}}, {"type": "Feature", "id": 29714576, "geometry": {"type": "Polygon", "coordinates": [[[-71.094351, 42.361089], [-71.094578, 42.361343], [-71.094451, 42.361405], [-71.094306, 42.361243], [-71.094195, 42.361297], [-71.094113, 42.361205], [-71.094351, 42.361089]]]}, "properties": {"addr:housenumber": "60", "addr:street": "Albany Street", "building": "university", "campusbuilding": "yes", "ref": "N16A"}}, {"type": "Feature", "id": 29716871, "geometry": {"type": "Polygon", "coordinates": [[[-71.096232, 42.365497], [-71.096183, 42.365487], [-71.09619, 42.365468], [-71.096155, 42.365461], [-71.096177, 42.365403], [-71.096298, 42.365429], [-71.096302, 42.365419], [-71.096321, 42.365423], [-71.096316, 42.365436], [-71.096332, 42.365439], [-71.096325, 42.365458], [-71.096342, 42.365462], [-71.09633, 42.36549], [-71.096267, 42.365477], [-71.096263, 42.365486], [-71.096238, 42.365481], [-71.096232, 42.365497]]]}, "properties": {"addr:housenumber": "167", "addr:street": "Windsor Street", "building": "yes"}}, {"type": "Feature", "id": 29738233, "geometry": {"type": "Polygon", "coordinates": [[[-71.096244, 42.365311], [-71.096283, 42.365319], [-71.09628, 42.365327], [-71.096346, 42.365341], [-71.096334, 42.365374], [-71.096355, 42.365379], [-71.09636, 42.365366], [-71.096409, 42.365376], [-71.096396, 42.365409], [-71.096182, 42.365364], [-71.096201, 42.365314], [-71.09624, 42.365323], [-71.096244, 42.365311]]]}, "properties": {"addr:housenumber": "161", "addr:street": "Windsor Street", "building": "yes"}}, {"type": "Feature", "id": 29739496, "geometry": {"type": "Polygon", "coordinates": [[[-71.095206, 42.36081], [-71.095367, 42.360995], [-71.095159, 42.361095], [-71.095043, 42.36096], [-71.0951, 42.360933], [-71.095056, 42.360882], [-71.095206, 42.36081]]]}, "properties": {"addr:city": "Cambridge", "addr:housenumber": "68", "addr:postcode": "02139", "addr:state": "MA", "addr:street": "Albany Street", "building": "university", "campusbuilding": "yes", "name": "Superconducting  Test Facility (N9)", "ref": "N9"}}, {"type": "Feature", "id": 29743462, "geometry": {"type": "Polygon", "coordinates": [[[-71.09488, 42.36464], [-71.094972, 42.364658], [-71.094948, 42.364726], [-71.094973, 42.364731], [-71.094931, 42.364846], [-71.094903, 42.36484], [-71.094857, 42.364967], [-71.095018, 42.364999], [-71.094994, 42.365065], [-71.094745, 42.365016], [-71.09488, 42.36464]]]}, "properties": {"addr:housenumber": "141", "addr:street": "Washington Street", "building": "yes"}}, {"type": "Feature", "id": 29743496, "geometry": {"type": "Polygon", "coordinates": [[[-71.095147, 42.364705], [-71.095413, 42.364753], [-71.095372, 42.364877], [-71.095348, 42.364873], [-71.095298, 42.365026], [-71.095321, 42.36503], [-71.095286, 42.36514], [-71.095193, 42.365123], [-71.095211, 42.365067], [-71.095197, 42.365064], [-71.095283, 42.364799], [-71.095125, 42.364771], [-71.095147, 42.364705]]]}, "properties": {"addr:housenumber": "151", "addr:street": "Washington Street", "building": "yes"}}, {"type": "Feature", "id": 29803141, "geometry": {"type": "Polygon", "coordinates": [[[-71.096516, 42.360683], [-71.09668, 42.360796], [-71.096496, 42.360967], [-71.096253, 42.360798], [-71.096516, 42.360683]]]}, "properties": {"addr:city": "Cambridge", "addr:housenumber": "180", "addr:state": "Massachusetts", "addr:street": "Massachusetts Avenue", "amenity": "bar", "building": "yes", "gay": "yes", "lgbtq": "primary", "name": "Paradise", "phone": "617 868-3000", "postal_code": "02238", "website": "http://paradisecambridge.com/"}}, {"type": "Feature", "id": 29803955, "geometry": {"type": "Polygon", "coordinates": [[[-71.096761, 42.359314], [-71.09696, 42.359543], [-71.096275, 42.35987], [-71.096238, 42.359828], [-71.096007, 42.359938], [-71.096047, 42.359985], [-71.095405, 42.360309], [-71.095127, 42.360143], [-71.096761, 42.359314]]]}, "properties": {"building": "warehouse", "building:levels": "5", "description": "Fire proof! Now owned by M.I.T., potential new location for School of Architecture and Planning", "name": "Metropolitan Storage Warehouse", "roof:levels": "0"}}, {"type": "Feature", "id": 29804458, "geometry": {"type": "Polygon", "coordinates": [[[-71.095171, 42.36203], [-71.095191, 42.361885], [-71.095353, 42.361897], [-71.095207, 42.362983], [-71.094797, 42.362952], [-71.094899, 42.362192], [-71.095147, 42.362211], [-71.095171, 42.36203]]]}, "properties": {"building": "yes", "created_by": "Potlatch 0.10f"}}, {"type": "Feature", "id": 29808210, "geometry": {"type": "Polygon", "coordinates": [[[-71.096267, 42.360177], [-71.096301, 42.360222], [-71.096323, 42.360213], [-71.096344, 42.360241], [-71.09632, 42.360251], [-71.096306, 42.360234], [-71.09628, 42.360245], [-71.0963, 42.360271], [-71.096251, 42.360291], [-71.096237, 42.360272], [-71.096216, 42.36028], [-71.096169, 42.360219], [-71.096267, 42.360177]]]}, "properties": {"building": "service"}}, {"type": "Feature", "id": 29809131, "geometry": {"type": "Polygon", "coordinates": [[[-71.094349, 42.363586], [-71.094443, 42.363599], [-71.094426, 42.363669], [-71.094331, 42.363656], [-71.094336, 42.363639], [-71.094304, 42.363635], [-71.094313, 42.363599], [-71.094345, 42.363603], [-71.094349, 42.363586]]]}, "properties": {"building": "yes"}}, {"type": "Feature", "id": 29810276, "geometry": {"type": "Polygon", "coordinates": [[[-71.093917, 42.364297], [-71.094003, 42.364334], [-71.093956, 42.364394], [-71.09397, 42.3644], [-71.093874, 42.364521], [-71.093859, 42.364514], [-71.09379, 42.364602], [-71.09393, 42.364662], [-71.093874, 42.364734], [-71.093645, 42.364635], [-71.093761, 42.364488], [-71.093786, 42.364498], [-71.093861, 42.364403], [-71.093845, 42.364396], [-71.093917, 42.364297]]]}, "properties": {"addr:housenumber": "111", "addr:street": "Washington Street", "building": "yes"}}, {"type": "Feature", "id": 29862486, "geometry": {"type": "Polygon", "coordinates": [[[-71.093856, 42.363199], [-71.093908, 42.363258], [-71.093673, 42.363372], [-71.093784, 42.363499], [-71.093678, 42.36355], [-71.093546, 42.363399], [-71.093649, 42.363349], [-71.093618, 42.363314], [-71.093856, 42.363199]]]}, "properties": {"addr:housenumber": "33;35", "addr:street": "Newtowne Court", "building": "apartments"}}, {"type": "Feature", "id": 29868913, "geometry": {"type": "Polygon", "coordinates": [[[-71.094645, 42.365159], [-71.094862, 42.365255], [-71.094775, 42.365363], [-71.094756, 42.365353], [-71.094634, 42.365504], [-71.094658, 42.365514], [-71.094599, 42.365587], [-71.094505, 42.365545], [-71.094559, 42.365481], [-71.094535, 42.36547], [-71.094653, 42.365324], [-71.094673, 42.365333], [-71.094707, 42.36529], [-71.094584, 42.365235], [-71.094645, 42.365159]]]}, "properties": {"addr:housenumber": "140", "addr:street": "Harvard Street", "building": "yes"}}, {"type": "Feature", "id": 29871253, "geometry": {"type": "Polygon", "coordinates": [[[-71.093679, 42.363642], [-71.093737, 42.363705], [-71.093568, 42.36379], [-71.093706, 42.36394], [-71.093619, 42.363984], [-71.093479, 42.363831], [-71.093525, 42.363808], [-71.093469, 42.363747], [-71.093679, 42.363642]]]}, "properties": {"addr:housenumber": "34;36", "addr:street": "Newtowne Court", "building": "apartments"}}, {"type": "Feature", "id": 29942411, "geometry": {"type": "Polygon", "coordinates": [[[-71.0962, 42.364121], [-71.09627, 42.364204], [-71.096194, 42.364239], [-71.096315, 42.364382], [-71.09609, 42.364487], [-71.096144, 42.364551], [-71.096058, 42.364591], [-71.096001, 42.364523], [-71.095819, 42.364608], [-71.095703, 42.36447], [-71.09561, 42.364514], [-71.095548, 42.364442], [-71.095621, 42.364408], [-71.09557, 42.364348], [-71.095656, 42.364307], [-71.095836, 42.36452], [-71.096167, 42.364365], [-71.096002, 42.364171], [-71.096084, 42.364132], [-71.09611, 42.364163], [-71.0962, 42.364121]]]}, "properties": {"addr:housenumber": "2;4;6;8", "addr:street": "Newtowne Court", "building": "apartments"}}, {"type": "Feature", "id": 29946111, "geometry": {"type": "Polygon", "coordinates": [[[-71.095863, 42.364854], [-71.096129, 42.364902], [-71.096089, 42.365026], [-71.096064, 42.365022], [-71.096014, 42.365175], [-71.096038, 42.365179], [-71.096002, 42.365289], [-71.095909, 42.365272], [-71.095928, 42.365216], [-71.095913, 42.365213], [-71.096, 42.364948], [-71.095842, 42.36492], [-71.095863, 42.364854]]]}, "properties": {"addr:housenumber": "170", "addr:street": "Windsor Street", "building": "yes"}}, {"type": "Feature", "id": 29946359, "geometry": {"type": "Polygon", "coordinates": [[[-71.095191, 42.361885], [-71.095171, 42.36203], [-71.095101, 42.362033], [-71.095011, 42.362025], [-71.094914, 42.361991], [-71.094876, 42.36197], [-71.094944, 42.36191], [-71.095017, 42.361414], [-71.095174, 42.361427], [-71.09517, 42.361474], [-71.095257, 42.361478], [-71.095289, 42.361227], [-71.095452, 42.361164], [-71.095353, 42.361897], [-71.095191, 42.361885]]]}, "properties": {"addr:housenumber": "700;710", "addr:street": "Main Street", "building": "yes"}}, {"type": "Feature", "id": 32526782, "geometry": {"type": "Polygon", "coordinates": [[[-71.093707, 42.359923], [-71.093773, 42.359897], [-71.094004, 42.360311], [-71.093815, 42.360413], [-71.093798, 42.360375], [-71.093625, 42.360433], [-71.093518, 42.360254], [-71.093661, 42.360211], [-71.093703, 42.360211], [-71.093556, 42.359976], [-71.093607, 42.359955], [-71.093707, 42.359923]]]}, "properties": {"addr:housename": "Guggenheim Laboratory", "addr:housenumber": "125", "addr:state": "MA", "addr:street": "Massachusetts Avenue", "alt_name": "Building 33", "building": "university", "building:levels": "5", "ele": "3", "gnis:county_name": "Middlesex", "gnis:feature_id": "1971306", "gnis:import_uuid": "57871b70-0100-4405-bb30-88b2e001a944", "gnis:reviewed": "no", "name": "33 Guggenheim Aeronautical Laboratory", "ref": "33", "source": "Massachusetts Institute of Technology - Facility Information Systems;USGS Geonames"}}, {"type": "Feature", "id": 32526807, "geometry": {"type": "Polygon", "coordinates": [[[-71.094004, 42.360311], [-71.094347, 42.360134], [-71.094459, 42.360267], [-71.093695, 42.360635], [-71.093646, 42.360563], [-71.0936, 42.360495], [-71.093815, 42.360413], [-71.094004, 42.360311]]]}, "properties": {"addr:housenumber": "127", "addr:state": "MA", "addr:street": "Massachusetts Avenue", "alt_name": "Sloan Laboratory", "building": "university", "building:levels": "5", "campusbuilding": "yes", "ele": "3", "gnis:county_name": "Middlesex", "gnis:feature_id": "1971761", "gnis:import_uuid": "57871b70-0100-4405-bb30-88b2e001a944", "gnis:reviewed": "no", "name": "Sloan Laboratory (35)", "ref": "35", "source": "Massachusetts Institute of Technology - Facility Information Systems;USGS Geonames"}}, {"type": "Feature", "id": 207075847, "geometry": {"type": "Polygon", "coordinates": [[[-71.093947, 42.361418], [-71.094056, 42.36154], [-71.094304, 42.361419], [-71.094195, 42.361297], [-71.093947, 42.361418]]]}, "properties": {"building": "yes"}}, {"type": "Feature", "id": 212292442, "geometry": {"type": "Polygon", "coordinates": [[[-71.094916, 42.360367], [-71.094861, 42.360396], [-71.094833, 42.360366], [-71.094888, 42.360338], [-71.094916, 42.360367]]]}, "properties": {"addr:housenumber": "135;139", "addr:street": "Massachusetts Avenue", "amenity": "atm", "building": "kiosk", "operator": "Bank of America"}}, {"type": "Feature", "id": 221233962, "geometry": {"type": "Polygon", "coordinates": [[[-71.096457, 42.365041], [-71.096335, 42.365015], [-71.096366, 42.364936], [-71.096488, 42.364962], [-71.096457, 42.365041]]]}, "properties": {"building": "yes"}}, {"type": "Feature", "id": 328487248, "geometry": {"type": "Polygon", "coordinates": [[[-71.096636, 42.363099], [-71.095783, 42.363041], [-71.095812, 42.362808], [-71.095953, 42.362818], [-71.095986, 42.36255], [-71.096127, 42.36256], [-71.096698, 42.362599], [-71.096636, 42.363099]]]}, "properties": {"addr:housenumber": "750", "building": "commercial", "name": "750 Main St", "note": "Former Polaroid offices. Owner: MIT. \"730-750 Main Street. This block is an optimal size for an academic or commercial science building. Future re-development of this site would allow for the continuation of the emerging retail corridor along Main St.\"", "source": "http://www.cambridgema.gov/~/media/Files/CDD/Planning/TownGown/tg2011/tg_2011_mit.ashx"}}, {"type": "Feature", "id": 409936847, "geometry": {"type": "Polygon", "coordinates": [[[-71.094715, 42.362097], [-71.094772, 42.361672], [-71.094721, 42.361608], [-71.094767, 42.361586], [-71.094703, 42.361509], [-71.094187, 42.36174], [-71.094217, 42.361777], [-71.094096, 42.361831], [-71.09409, 42.361894], [-71.094039, 42.361893], [-71.094025, 42.362045], [-71.094715, 42.362097]]]}, "properties": {"addr:housenumber": "1", "addr:postcode": "02139", "addr:street": "Portland Street", "building": "commercial", "building:levels": "7", "name": "Pfizer"}}, {"type": "Feature", "id": 409936848, "geometry": {"type": "Polygon", "coordinates": [[[-71.094318, 42.362551], [-71.094362, 42.362188], [-71.093857, 42.362154], [-71.093791, 42.362685], [-71.094297, 42.362719], [-71.094318, 42.362551]]]}, "properties": {"building": "yes", "building:part": "yes"}}, {"type": "Feature", "id": 409936849, "geometry": {"type": "Polygon", "coordinates": [[[-71.094601, 42.362945], [-71.094648, 42.362573], [-71.094318, 42.362551], [-71.094362, 42.362188], [-71.093857, 42.362154], [-71.093791, 42.362685], [-71.093766, 42.362889], [-71.094601, 42.362945]]]}, "properties": {"addr:housenumber": "610", "addr:street": "Main Street", "building": "commercial"}}, {"type": "Feature", "id": 409937903, "geometry": {"type": "Polygon", "coordinates": [[[-71.096478, 42.361267], [-71.095995, 42.360983], [-71.095961, 42.360972], [-71.095927, 42.360968], [-71.095894, 42.360972], [-71.095651, 42.361076], [-71.095631, 42.36109], [-71.095619, 42.36111], [-71.095516, 42.361886], [-71.095631, 42.361894], [-71.095904, 42.361915], [-71.095921, 42.361911], [-71.095937, 42.361902], [-71.096012, 42.361375], [-71.096457, 42.361406], [-71.096478, 42.361267]]]}, "properties": {"addr:housenumber": "177;181", "addr:street": "Massachusetts Avenue", "building": "commercial", "name": "Novartis"}}, {"type": "Feature", "id": 409937904, "geometry": {"type": "Polygon", "coordinates": [[[-71.096012, 42.361375], [-71.096027, 42.361251], [-71.095745, 42.361233], [-71.095727, 42.361238], [-71.095716, 42.361253], [-71.095631, 42.361894], [-71.095904, 42.361915], [-71.095921, 42.361911], [-71.095937, 42.361902], [-71.096012, 42.361375]]]}, "properties": {"building": "yes", "building:levels": "9", "building:part": "yes"}}, {"type": "Feature", "id": 32517447, "geometry": {"type": "Polygon", "coordinates": [[[-71.092208, 42.358376], [-71.092516, 42.358275], [-71.092285, 42.357894], [-71.09192, 42.358015], [-71.091929, 42.358029], [-71.091751, 42.358088], [-71.091725, 42.358047], [-71.091712, 42.358051], [-71.091677, 42.357993], [-71.09169, 42.357989], [-71.091668, 42.357953], [-71.091848, 42.357893], [-71.091854, 42.357903], [-71.092432, 42.357712], [-71.09279, 42.358302], [-71.092747, 42.358316], [-71.09277, 42.358354], [-71.092604, 42.358409], [-71.092613, 42.358424], [-71.0923, 42.358527], [-71.092208, 42.358376]]]}, "properties": {"addr:housename": "Pierce Laboratory", "addr:housenumber": "33", "addr:state": "MA", "addr:street": "Massachusetts Avenue", "alt_name": "Building 1", "building": "university", "building:levels": "4", "campusbuilding": "yes", "ele": "4", "gnis:county_name": "Middlesex", "gnis:feature_id": "1971655", "gnis:import_uuid": "57871b70-0100-4405-bb30-88b2e001a944", "gnis:reviewed": "no", "name": "1 Pierce Engineering Laboratory", "operator": "Massachusetts Institute of Technology", "ref": "1", "source": "USGS Geonames"}}, {"type": "Feature", "id": 32517556, "geometry": {"type": "Polygon", "coordinates": [[[-71.093231, 42.359012], [-71.092824, 42.358339], [-71.09277, 42.358354], [-71.092604, 42.358409], [-71.092613, 42.358424], [-71.093013, 42.359084], [-71.093231, 42.359012]]]}, "properties": {"addr:housename": "Pratt School", "addr:housenumber": "55", "addr:state": "MA", "addr:street": "Massachusetts Avenue", "alt_name": "Building 5", "building": "university", "building:levels": "4", "campusbuilding": "yes", "ele": "3", "gnis:county_name": "Middlesex", "gnis:feature_id": "1971665", "gnis:import_uuid": "57871b70-0100-4405-bb30-88b2e001a944", "gnis:reviewed": "no", "name": "5 Pratt School of Naval Architecture and Marine Engineering", "operator": "Massachusetts Institute of Technology", "ref": "5", "source": "USGS Geonames"}}, {"type": "Feature", "id": 32534638, "geometry": {"type": "Polygon", "coordinates": [[[-71.087991, 42.358388], [-71.087441, 42.35857], [-71.087481, 42.358637], [-71.088031, 42.358455], [-71.087991, 42.358388]]]}, "properties": {"access": "private", "addr:housenumber": "134", "addr:street": "Memorial Drive", "building": "university", "name": "Wood Sailing Pavilion", "operator": "Massachusetts Institute of Technology", "ref": "51", "waterway": "boatyard"}}, {"type": "Feature", "id": 24494050, "geometry": {"type": "Polygon", "coordinates": [[[-71.088626, 42.359528], [-71.088348, 42.359083], [-71.087936, 42.359216], [-71.088206, 42.359667], [-71.088626, 42.359528]]]}, "properties": {"addr:city": "Cambridge", "addr:housename": "Walker Memorial", "addr:housenumber": "142", "addr:state": "MA", "addr:street": "Memorial Drive", "alt_name": "Building 50", "architect": "William Welles Bosworth", "building": "university", "campusbuilding": "yes", "ele": "3", "gnis:county_name": "Middlesex", "gnis:feature_id": "1971841", "gnis:import_uuid": "57871b70-0100-4405-bb30-88b2e001a944", "name": "Walker Memorial (50)", "ref": "50", "source": "Massachusetts Institute of Technology - Facility Information Systems", "wheelchair": "limited"}}, {"type": "Feature", "id": 24494052, "geometry": {"type": "Polygon", "coordinates": [[[-71.087176, 42.359585], [-71.087081, 42.359464], [-71.086719, 42.359597], [-71.086781, 42.35972], [-71.087176, 42.359585]]]}, "properties": {"addr:housenumber": "111", "addr:street": "Memorial Drive", "alt_name": "Gray House", "building": "university", "campusbuilding": "yes", "name": "E1 Gray House", "ref": "E1", "source": "Massachusetts Institute of Technology - Facility Information Systems"}}, {"type": "Feature", "id": 24494055, "geometry": {"type": "Polygon", "coordinates": [[[-71.086541, 42.359673], [-71.086412, 42.359712], [-71.086695, 42.360168], [-71.087425, 42.35994], [-71.087373, 42.359851], [-71.086755, 42.360035], [-71.086541, 42.359673]]]}, "properties": {"addr:housename": "Senior House", "alt_name": "Building E2", "building": "university", "campusbuilding": "yes", "name": "E2", "ref": "E2", "source": "Massachusetts Institute of Technology - Facility Information Systems"}}, {"type": "Feature", "id": 29558550, "geometry": {"type": "Polygon", "coordinates": [[[-71.090009, 42.365711], [-71.089956, 42.365903], [-71.089907, 42.365896], [-71.089909, 42.365915], [-71.089621, 42.365949], [-71.089621, 42.365856], [-71.089575, 42.36585], [-71.089747, 42.3652], [-71.089791, 42.365205], [-71.089847, 42.365111], [-71.090031, 42.365215], [-71.090022, 42.365221], [-71.090115, 42.365237], [-71.090233, 42.365256], [-71.09033, 42.365266], [-71.090796, 42.365662], [-71.090791, 42.365716], [-71.090542, 42.365878], [-71.09027, 42.365659], [-71.090261, 42.365677], [-71.090253, 42.365689], [-71.090237, 42.365706], [-71.090215, 42.365721], [-71.09019, 42.365732], [-71.090166, 42.36574], [-71.090133, 42.365744], [-71.090105, 42.365744], [-71.090076, 42.36574], [-71.090046, 42.365731], [-71.090009, 42.365711]]]}, "properties": {"addr:city": "Cambridge", "addr:housenumber": "1", "addr:postcode": "02139", "addr:state": "MA- MASSACHUSETTS", "addr:street": "Hampshire Street", "building": "university", "building:levels": "7", "campusbuilding": "yes", "name": "Draper Labs/ Schlumberger", "note": "Draper Labs, B, 1, 5, 6, 7. Schlumberger, 2/3/4-S. 64,067 sq. ft. \"Schlumberger is the world\u2019s leading supplier of technology, integrated project management and information solutions to customers working in the oil and gas industry worldwide.\"", "note:source": "Bing imagery from Mar-May 2011 and unspecified earlier date (1980) is available, the earlier material at high zoom.  The Bing source is the 2011 imagery.", "ref": "NE80", "source": "http://www.cambridgema.gov/propertydatabase and MassGIS Buildings;Bing", "source_ref": "http://www.mass.gov/mgis/lidarbuildingfp2d.htm", "website": "https://www.slb.com/"}}, {"type": "Feature", "id": 29566193, "geometry": {"type": "Polygon", "coordinates": [[[-71.086534, 42.365255], [-71.087011, 42.365458], [-71.086562, 42.366036], [-71.086475, 42.365999], [-71.086285, 42.365918], [-71.086339, 42.365849], [-71.086241, 42.365807], [-71.086337, 42.365684], [-71.086271, 42.365656], [-71.086345, 42.36556], [-71.086309, 42.365545], [-71.086534, 42.365255]]]}, "properties": {"building": "yes"}}, {"type": "Feature", "id": 29574727, "geometry": {"type": "Polygon", "coordinates": [[[-71.084722, 42.365442], [-71.084963, 42.365473], [-71.084958, 42.365493], [-71.085089, 42.36551], [-71.085024, 42.365785], [-71.084897, 42.365769], [-71.08493, 42.365629], [-71.084686, 42.365597], [-71.084692, 42.36557], [-71.084722, 42.365442]]]}, "properties": {"building": "yes"}}, {"type": "Feature", "id": 29628336, "geometry": {"type": "Polygon", "coordinates": [[[-71.092566, 42.365133], [-71.092699, 42.365188], [-71.092636, 42.365272], [-71.093009, 42.365424], [-71.092636, 42.365927], [-71.092174, 42.365739], [-71.09249, 42.365236], [-71.092566, 42.365133]]]}, "properties": {"addr:city": "Cambridge", "addr:housenumber": "141", "addr:postcode": "02139", "addr:state": "MA- MASSACHUSETTS", "addr:street": "Portland Street", "building": "yes", "building:levels": "10", "name": "U.S. Trust Building", "note": "GlaxoSmithKline AstraZeneca Neuroscience Citizens Bank (1rst floor)"}}, {"type": "Feature", "id": 29949437, "geometry": {"type": "Polygon", "coordinates": [[[-71.086291, 42.362615], [-71.086347, 42.362619], [-71.086353, 42.362578], [-71.086979, 42.362625], [-71.086938, 42.36293], [-71.08625, 42.362878], [-71.086253, 42.362862], [-71.086291, 42.362615]]]}, "properties": {"addr:housenumber": "325", "addr:postcode": "02142", "addr:street": "Main Street", "building": "yes", "building:levels": "4"}}, {"type": "Feature", "id": 29950639, "geometry": {"type": "Polygon", "coordinates": [[[-71.087883, 42.364699], [-71.087993, 42.364746], [-71.088021, 42.36471], [-71.088077, 42.364734], [-71.088134, 42.364758], [-71.088106, 42.364794], [-71.088216, 42.364841], [-71.087318, 42.366], [-71.087259, 42.365975], [-71.087233, 42.366009], [-71.087171, 42.365983], [-71.087144, 42.366017], [-71.087091, 42.365994], [-71.087044, 42.365974], [-71.08707, 42.36594], [-71.087009, 42.365914], [-71.087036, 42.36588], [-71.086984, 42.365858], [-71.087883, 42.364699]]]}, "properties": {"amenity": "parking", "building": "parking", "parking": "multi-storey"}}, {"type": "Feature", "id": 32517406, "geometry": {"type": "Polygon", "coordinates": [[[-71.092821, 42.359397], [-71.092602, 42.359468], [-71.092288, 42.359569], [-71.09226, 42.359522], [-71.092193, 42.35941], [-71.092508, 42.359307], [-71.092063, 42.358565], [-71.092051, 42.358569], [-71.092011, 42.358503], [-71.09197, 42.358434], [-71.092146, 42.358376], [-71.092154, 42.35839], [-71.092208, 42.358376], [-71.0923, 42.358527], [-71.092727, 42.359242], [-71.092821, 42.359397]]]}, "properties": {"addr:housename": "Maclaurin Buildings (3)", "alt_name": "Building 3", "building": "university", "building:levels": "6", "campusbuilding": "yes", "name": "3", "ref": "3", "source": "Massachusetts Institute of Technology - Facility Information Systems"}}, {"type": "Feature", "id": 32517654, "geometry": {"type": "Polygon", "coordinates": [[[-71.091694, 42.35971], [-71.091726, 42.359762], [-71.091196, 42.359939], [-71.091105, 42.359788], [-71.090899, 42.359453], [-71.090662, 42.35907], [-71.090572, 42.358921], [-71.090624, 42.358904], [-71.090618, 42.358894], [-71.090789, 42.358837], [-71.090824, 42.358893], [-71.090867, 42.358965], [-71.090859, 42.358967], [-71.091308, 42.359712], [-71.091632, 42.359606], [-71.091694, 42.35971]]]}, "properties": {"addr:housename": "Building 4", "alt_name": "Maclaurin Buildings (4)", "building": "university", "name": "4", "ref": "4", "source": "Massachusetts Institute of Technology - Facility Information Systems"}}, {"type": "Feature", "id": 32517707, "geometry": {"type": "Polygon", "coordinates": [[[-71.090599, 42.358493], [-71.090396, 42.358559], [-71.090389, 42.358546], [-71.090038, 42.358659], [-71.090254, 42.359024], [-71.090572, 42.358921], [-71.090662, 42.35907], [-71.090333, 42.359178], [-71.090166, 42.359232], [-71.090141, 42.359193], [-71.090106, 42.359206], [-71.090072, 42.35916], [-71.090041, 42.359112], [-71.089774, 42.358685], [-71.089717, 42.358596], [-71.090309, 42.358402], [-71.090301, 42.358389], [-71.090496, 42.358325], [-71.090514, 42.358355], [-71.090543, 42.358346], [-71.090595, 42.358432], [-71.090567, 42.358441], [-71.090599, 42.358493]]]}, "properties": {"addr:housename": "Building 2", "alt_name": "Building 2", "building": "university", "building:levels": "6", "campusbuilding": "yes", "name": "2", "ref": "2", "source": "Massachusetts Institute of Technology - Facility Information Systems"}}, {"type": "Feature", "id": 32517817, "geometry": {"type": "Polygon", "coordinates": [[[-71.090166, 42.359232], [-71.090333, 42.359178], [-71.090501, 42.359458], [-71.090575, 42.359434], [-71.090638, 42.359539], [-71.090641, 42.359544], [-71.090565, 42.359569], [-71.090736, 42.35985], [-71.0907, 42.359862], [-71.090731, 42.359913], [-71.09061, 42.359954], [-71.090581, 42.359906], [-71.09054, 42.35992], [-71.090129, 42.359245], [-71.090166, 42.359232]]]}, "properties": {"addr:housename": "Eastman Laboratories", "addr:state": "MA", "alt_name": "building 6", "building": "university", "campusbuilding": "yes", "ele": "3", "gnis:county_name": "Middlesex", "gnis:feature_id": "1971198", "gnis:import_uuid": "57871b70-0100-4405-bb30-88b2e001a944", "gnis:reviewed": "no", "name": "6 Eastman Research Laboratory", "ref": "6", "source": "Massachusetts Institute of Technology - Facility Information Systems;USGS Geonames"}}, {"type": "Feature", "id": 132600546, "geometry": {"type": "Polygon", "coordinates": [[[-71.085604, 42.36286], [-71.085657, 42.362863], [-71.085846, 42.362875], [-71.085853, 42.362832], [-71.085882, 42.362834], [-71.085912, 42.362835], [-71.085907, 42.362879], [-71.086047, 42.362889], [-71.086052, 42.362846], [-71.08611, 42.36285], [-71.086104, 42.362893], [-71.086246, 42.362903], [-71.086312, 42.362908], [-71.086305, 42.362965], [-71.086901, 42.363], [-71.086907, 42.362948], [-71.08694, 42.36295], [-71.087015, 42.362954], [-71.087014, 42.363017], [-71.087171, 42.363029], [-71.087185, 42.362944], [-71.087391, 42.362956], [-71.087375, 42.363038], [-71.087326, 42.363359], [-71.087414, 42.363371], [-71.087376, 42.363724], [-71.087128, 42.36371], [-71.087133, 42.363664], [-71.087019, 42.363658], [-71.087021, 42.363634], [-71.086906, 42.363627], [-71.086911, 42.363579], [-71.086827, 42.363574], [-71.086833, 42.363522], [-71.086719, 42.363515], [-71.086729, 42.363422], [-71.086504, 42.363409], [-71.086509, 42.363363], [-71.086394, 42.363356], [-71.086399, 42.363309], [-71.086281, 42.363302], [-71.086285, 42.363263], [-71.086288, 42.363228], [-71.085949, 42.363208], [-71.085737, 42.363109], [-71.085575, 42.363037], [-71.085604, 42.36286]]]}, "properties": {"addr:housenumber": "90", "addr:street": "Broadway", "building": "yes", "building:levels_1": "26", "name": "Boston Marriott Cambridge", "operator": "Marriott", "tourism": "hotel"}}, {"type": "Feature", "id": 177921759, "geometry": {"type": "Polygon", "coordinates": [[[-71.087346, 42.361821], [-71.087348, 42.361801], [-71.086393, 42.361726], [-71.08642, 42.361523], [-71.086427, 42.361483], [-71.086718, 42.361383], [-71.086754, 42.361371], [-71.086748, 42.361415], [-71.086746, 42.361451], [-71.08671, 42.361464], [-71.086696, 42.361551], [-71.08745, 42.361611], [-71.087447, 42.36163], [-71.087433, 42.361734], [-71.087423, 42.361807], [-71.087411, 42.361893], [-71.087445, 42.361896], [-71.087437, 42.361944], [-71.087449, 42.361956], [-71.087437, 42.362006], [-71.087207, 42.361989], [-71.087214, 42.361929], [-71.087338, 42.361885], [-71.087346, 42.361821]]]}, "properties": {"addr:housenumber": "25;45", "addr:state": "MA", "addr:street": "Carleton Street", "alt_name": "Whitaker College of Health Sciences Technology and Management", "building": "university", "building:levels": "6", "campusbuilding": "yes", "ele": "3", "gnis:county_name": "Middlesex", "gnis:feature_id": "1971863", "gnis:import_uuid": "57871b70-0100-4405-bb30-88b2e001a944", "gnis:reviewed": "no", "name": "E25 Whitaker College", "source": "USGS Geonames"}}, {"type": "Feature", "id": 177921761, "geometry": {"type": "Polygon", "coordinates": [[[-71.087567, 42.360164], [-71.087782, 42.360515], [-71.087722, 42.360534], [-71.087739, 42.360562], [-71.08725, 42.360725], [-71.087234, 42.360699], [-71.087112, 42.36074], [-71.087092, 42.360707], [-71.087059, 42.360718], [-71.086965, 42.360564], [-71.086984, 42.360558], [-71.086923, 42.360458], [-71.086883, 42.360393], [-71.087567, 42.360164]]]}, "properties": {"addr:city": "Cambridge", "addr:housename": "Media Lab", "addr:housenumber": "75", "addr:postcode": "02139", "addr:street": "Amherst Street", "alt_name": "Building E14", "building": "university", "campusbuilding": "yes", "name": "E14 - Media Lab", "ref": "E14"}}, {"type": "Feature", "id": 212292107, "geometry": {"type": "Polygon", "coordinates": [[[-71.086913, 42.359859], [-71.086864, 42.359876], [-71.086822, 42.359808], [-71.086871, 42.359791], [-71.086913, 42.359859]]]}, "properties": {"building": "yes"}}, {"type": "Feature", "id": 300590175, "geometry": {"type": "Polygon", "coordinates": [[[-71.087729, 42.364821], [-71.087189, 42.365504], [-71.086349, 42.365151], [-71.086877, 42.364464], [-71.08695, 42.364495], [-71.087729, 42.364821]]]}, "properties": {"addr:city": "Cambridge", "addr:housenumber": "115", "addr:postcode": "02142", "addr:street": "Broadway", "building": "commercial", "name": "Biogen Idec", "smoking": "isolated"}}, {"type": "Feature", "id": 328486366, "geometry": {"type": "Polygon", "coordinates": [[[-71.092636, 42.365927], [-71.092174, 42.365739], [-71.09249, 42.365236], [-71.093009, 42.365424], [-71.092636, 42.365927]]]}, "properties": {"building": "commercial", "name": "141 Portland St.", "note": "GlaxoSmithKline AstraZeneca Neuroscience Citizens Bank"}}, {"type": "Feature", "id": 431782053, "geometry": {"type": "Polygon", "coordinates": [[[-71.088549, 42.366117], [-71.088516, 42.365961], [-71.088202, 42.365824], [-71.087985, 42.365838], [-71.087856, 42.365785], [-71.087955, 42.365664], [-71.087821, 42.365607], [-71.087464, 42.366079], [-71.087539, 42.366114], [-71.087563, 42.366126], [-71.087561, 42.366183], [-71.087912, 42.366227], [-71.088199, 42.366207], [-71.088343, 42.36619], [-71.088549, 42.366117]]]}, "properties": {"building": "yes"}}, {"type": "Feature", "id": 712133782, "geometry": {"type": "Polygon", "coordinates": [[[-71.08671, 42.362136], [-71.087076, 42.362162], [-71.087068, 42.362226], [-71.087048, 42.362385], [-71.086682, 42.362359], [-71.08671, 42.362136]]]}, "properties": {"building": "yes"}}, {"type": "Feature", "id": 17660188, "geometry": {"type": "Polygon", "coordinates": [[[-71.091834, 42.362683], [-71.090694, 42.362593], [-71.091173, 42.362376], [-71.091088, 42.3623], [-71.091482, 42.362128], [-71.091397, 42.362033], [-71.0918, 42.361837], [-71.092358, 42.362446], [-71.091834, 42.362683]]]}, "properties": {"addr:city": "Cambridge", "addr:housename": "Brain & Cognitive Science Complex", "addr:housenumber": "43", "addr:postcode": "02139", "addr:state": "MA", "addr:street": "Vassar Street", "alt_name": "Building 46", "building": "university", "campusbuilding": "yes", "name": "Brain and Cognitive Sciences (46)", "ref": "46"}}, {"type": "Feature", "id": 24493980, "geometry": {"type": "Polygon", "coordinates": [[[-71.090139, 42.36038], [-71.089796, 42.359811], [-71.089751, 42.359739], [-71.089715, 42.35968], [-71.089599, 42.359719], [-71.089483, 42.359757], [-71.089576, 42.359911], [-71.089907, 42.360458], [-71.090075, 42.360403], [-71.090142, 42.360513], [-71.090171, 42.360504], [-71.090104, 42.360392], [-71.090139, 42.36038]]]}, "properties": {"addr:housename": "Dreyfus Building", "alt_name": "Building 18", "architect": "I. M. Pei & Associates", "building": "university", "building:levels": "7", "building:material": "cream_city_brick", "campusbuilding": "yes", "ele": "0", "name": "18 Camille Edouard Dreyfus Building", "ref": "18", "roof:shape": "flat", "source": "Massachusetts Institute of Technology - Facility Information Systems"}}, {"type": "Feature", "id": 24493983, "geometry": {"type": "Polygon", "coordinates": [[[-71.089563, 42.360315], [-71.089493, 42.360197], [-71.089455, 42.36021], [-71.089451, 42.360202], [-71.08933, 42.360241], [-71.089149, 42.3603], [-71.089156, 42.360311], [-71.089118, 42.360324], [-71.089185, 42.360437], [-71.089228, 42.360424], [-71.089235, 42.360435], [-71.089527, 42.36034], [-71.089521, 42.360329], [-71.089563, 42.360315]]]}, "properties": {"addr:housename": "Green Building", "alt_name": "Building 54", "architect": "I. M. Pei & Associates", "building": "university", "building:levels": "21", "campusbuilding": "yes", "ele": "4", "height": "90", "name": "54 Green Building", "ref": "54", "source": "Massachusetts Institute of Technology - Facility Information Systems", "wheelchair": "yes", "wikidata": "Q5602382", "wikipedia": "en:Green Building (MIT)"}}, {"type": "Feature", "id": 24808074, "geometry": {"type": "Polygon", "coordinates": [[[-71.088016, 42.360064], [-71.087977, 42.36], [-71.087833, 42.360048], [-71.088303, 42.36082], [-71.088444, 42.360773], [-71.088393, 42.360691], [-71.088329, 42.360584], [-71.08824, 42.360438], [-71.088177, 42.360334], [-71.088087, 42.360182], [-71.088016, 42.360064]]]}, "properties": {"addr:housename": "East Campus (Fred)", "addr:housenumber": "3", "addr:street": "Ames Street", "alt_name": "Building 64", "building": "dormitory", "campusbuilding": "yes", "description": "East Campus east parallel", "name": "64", "ref": "64", "source": "Massachusetts Institute of Technology - Facility Information Systems"}}, {"type": "Feature", "id": 24808162, "geometry": {"type": "Polygon", "coordinates": [[[-71.089484, 42.36083], [-71.089467, 42.360802], [-71.089448, 42.360807], [-71.089288, 42.360858], [-71.089237, 42.360773], [-71.089245, 42.360723], [-71.089233, 42.360705], [-71.089096, 42.360751], [-71.088374, 42.360995], [-71.088619, 42.361011], [-71.089337, 42.361065], [-71.089395, 42.361047], [-71.089409, 42.361069], [-71.089458, 42.361072], [-71.089341, 42.360876], [-71.089484, 42.36083]]]}, "properties": {"addr:housename": "Ralph Landau Building", "addr:housenumber": "25", "addr:state": "MA", "addr:street": "Ames Street", "alt_name": "Building 66", "building": "university", "building:levels": "5", "campusbuilding": "yes", "ele": "3", "gnis:county_name": "Middlesex", "gnis:feature_id": "1971678", "gnis:import_uuid": "57871b70-0100-4405-bb30-88b2e001a944", "gnis:reviewed": "no", "name": "Ralph Landau Building", "ref": "66", "source": "Massachusetts Institute of Technology - Facility Information Systems;USGS Geonames", "wheelchair": "yes"}}, {"type": "Feature", "id": 24808163, "geometry": {"type": "Polygon", "coordinates": [[[-71.08862, 42.361146], [-71.088847, 42.361211], [-71.088726, 42.362081], [-71.088616, 42.362095], [-71.088616, 42.362133], [-71.088485, 42.362127], [-71.088488, 42.362084], [-71.088398, 42.362071], [-71.08853, 42.361217], [-71.088607, 42.361212], [-71.08862, 42.361146]]]}, "properties": {"addr:housename": "Koch Biology Building", "addr:housenumber": "31", "addr:street": "Ames Street", "alt_name": "Building 68", "building": "university", "building:levels": "6", "campusbuilding": "yes", "name": "68 Department of Biology", "ref": "68", "source": "Massachusetts Institute of Technology - Facility Information Systems"}}, {"type": "Feature", "id": 27078002, "geometry": {"type": "Polygon", "coordinates": [[[-71.090725, 42.361916], [-71.090701, 42.362025], [-71.090619, 42.362017], [-71.090665, 42.36205], [-71.090615, 42.362064], [-71.090614, 42.362094], [-71.090567, 42.36209], [-71.090546, 42.362117], [-71.090491, 42.362125], [-71.090452, 42.362085], [-71.090383, 42.362128], [-71.090317, 42.362057], [-71.09027, 42.362102], [-71.090088, 42.361989], [-71.090082, 42.361995], [-71.090109, 42.362011], [-71.090125, 42.36203], [-71.090077, 42.362067], [-71.090069, 42.362065], [-71.090069, 42.362072], [-71.090031, 42.362095], [-71.089983, 42.362086], [-71.089978, 42.362071], [-71.089964, 42.362085], [-71.089933, 42.362087], [-71.089906, 42.362061], [-71.089952, 42.362016], [-71.089903, 42.361986], [-71.089919, 42.361969], [-71.089901, 42.361958], [-71.089949, 42.36191], [-71.089839, 42.361723], [-71.089886, 42.361721], [-71.08989, 42.361657], [-71.08987, 42.361656], [-71.08988, 42.361539], [-71.089895, 42.361544], [-71.089916, 42.361547], [-71.08994, 42.361545], [-71.089955, 42.361539], [-71.08997, 42.361525], [-71.089973, 42.36151], [-71.089973, 42.361494], [-71.089968, 42.361487], [-71.089964, 42.361481], [-71.089948, 42.36147], [-71.089929, 42.361463], [-71.089904, 42.361465], [-71.089886, 42.361471], [-71.089895, 42.361358], [-71.089935, 42.361357], [-71.089929, 42.361355], [-71.090413, 42.361198], [-71.090397, 42.361171], [-71.090499, 42.361138], [-71.090486, 42.361189], [-71.090534, 42.361194], [-71.090528, 42.361222], [-71.090554, 42.361224], [-71.09057, 42.361226], [-71.090562, 42.361148], [-71.090627, 42.361144], [-71.090611, 42.361006], [-71.090774, 42.360953], [-71.090785, 42.360972], [-71.090799, 42.360995], [-71.090676, 42.361036], [-71.090689, 42.361178], [-71.09073, 42.361175], [-71.090826, 42.361171], [-71.090829, 42.361232], [-71.091086, 42.361244], [-71.091136, 42.361248], [-71.09112, 42.361379], [-71.091175, 42.361384], [-71.091174, 42.361392], [-71.091211, 42.361395], [-71.091198, 42.361488], [-71.091206, 42.36149], [-71.091204, 42.361504], [-71.091245, 42.361492], [-71.091254, 42.361505], [-71.091352, 42.361473], [-71.091438, 42.361611], [-71.091503, 42.361651], [-71.091475, 42.36168], [-71.091477, 42.361719], [-71.091457, 42.361715], [-71.091431, 42.361704], [-71.091424, 42.361706], [-71.091444, 42.361733], [-71.091368, 42.361771], [-71.091335, 42.361732], [-71.091333, 42.361739], [-71.091353, 42.361787], [-71.09127, 42.361797], [-71.091252, 42.361757], [-71.091084, 42.361844], [-71.091069, 42.361829], [-71.091049, 42.361841], [-71.091045, 42.361873], [-71.091034, 42.361893], [-71.091019, 42.361909], [-71.090991, 42.361918], [-71.090964, 42.361919], [-71.09094, 42.361915], [-71.090915, 42.361902], [-71.090896, 42.361889], [-71.090888, 42.361912], [-71.090869, 42.361935], [-71.090841, 42.361956], [-71.090816, 42.36197], [-71.090782, 42.36198], [-71.090744, 42.361987], [-71.090737, 42.361943], [-71.090725, 42.361916]]]}, "properties": {"addr:housename": "Ray and Maria Stata Center", "addr:housenumber": "32", "addr:street": "Vassar Street", "alt_name": "Building 32", "architect": "Frank O. Gehry", "building": "university", "building:levels": "9", "campusbuilding": "yes", "name": "Ray & Maria Stata Center", "ref": "32", "source": "Massachusetts Institute of Technology - Facility Information Systems", "wikidata": "Q3312712", "wikipedia": "en:Ray and Maria Stata Center"}}, {"type": "Feature", "id": 29127425, "geometry": {"type": "Polygon", "coordinates": [[[-71.091908, 42.361477], [-71.091924, 42.361507], [-71.091503, 42.361651], [-71.091438, 42.361611], [-71.091352, 42.361473], [-71.091323, 42.361422], [-71.091879, 42.361234], [-71.091908, 42.361275], [-71.091962, 42.361367], [-71.091908, 42.361477]]]}, "properties": {"addr:housename": "Fairchild Building (36)", "alt_name": "Building 36", "building": "university", "building:levels": "9", "campusbuilding": "yes", "name": "36", "ref": "36"}}, {"type": "Feature", "id": 29127459, "geometry": {"type": "Polygon", "coordinates": [[[-71.092468, 42.360647], [-71.092313, 42.360387], [-71.091631, 42.360622], [-71.091538, 42.360654], [-71.091761, 42.361028], [-71.091812, 42.361015], [-71.091842, 42.361049], [-71.091889, 42.361041], [-71.091867, 42.360996], [-71.091958, 42.360977], [-71.091889, 42.36085], [-71.092468, 42.360647]]]}, "properties": {"alt_name": "Building 24", "building": "university", "building:levels": "7", "campusbuilding": "yes", "name": "24", "ref": "24", "source": "Massachusetts Institute of Technology - Facility Information Systems"}}, {"type": "Feature", "id": 29575544, "geometry": {"type": "Polygon", "coordinates": [[[-71.091553, 42.363811], [-71.092369, 42.363867], [-71.092335, 42.364139], [-71.091519, 42.364083], [-71.091553, 42.363811]]]}, "properties": {"addr:city": "Cambridge", "addr:housenumber": "400", "addr:postcode": "02139", "addr:street": "Technology Square", "building": "commercial", "building:levels": "9", "name": "400 Technology Square"}}, {"type": "Feature", "id": 29607745, "geometry": {"type": "Polygon", "coordinates": [[[-71.091512, 42.364206], [-71.092808, 42.364284], [-71.092626, 42.364564], [-71.092478, 42.364574], [-71.092444, 42.364845], [-71.092365, 42.364879], [-71.092254, 42.364882], [-71.0923, 42.364941], [-71.092279, 42.365202], [-71.092182, 42.365233], [-71.092176, 42.365353], [-71.091958, 42.365476], [-71.091597, 42.365444], [-71.091459, 42.365275], [-71.091464, 42.365182], [-71.091413, 42.365151], [-71.091424, 42.364876], [-71.091508, 42.364825], [-71.091443, 42.36477], [-71.091512, 42.364206]]]}, "properties": {"amenity": "parking", "building": "garage", "building:levels": "5", "parking": "multi-storey", "year_of_construction": "1975"}}, {"type": "Feature", "id": 29609886, "geometry": {"type": "Polygon", "coordinates": [[[-71.092378, 42.36307], [-71.092365, 42.362992], [-71.09251, 42.363032], [-71.092681, 42.36305], [-71.092797, 42.363056], [-71.092784, 42.363175], [-71.092716, 42.363774], [-71.092406, 42.36375], [-71.09246, 42.363315], [-71.092352, 42.363308], [-71.092378, 42.36307]]]}, "properties": {"addr:city": "Cambridge", "addr:housenumber": "500", "addr:postcode": "02139", "addr:state": "MA", "addr:street": "Technology Square", "alt_name": "Building NE47", "building": "commercial", "building:levels": "1", "campusbuilding": "yes", "operator": "MIT", "ref": "NE47", "wheelchair": "yes"}}, {"type": "Feature", "id": 29610252, "geometry": {"type": "Polygon", "coordinates": [[[-71.0873, 42.364102], [-71.087876, 42.364348], [-71.087647, 42.364644], [-71.08759, 42.36462], [-71.087071, 42.364398], [-71.0873, 42.364102]]]}, "properties": {"building": "yes", "building:levels": "7"}}, {"type": "Feature", "id": 29612925, "geometry": {"type": "Polygon", "coordinates": [[[-71.092821, 42.36504], [-71.0932, 42.365198], [-71.093082, 42.365352], [-71.092945, 42.365294], [-71.092989, 42.365237], [-71.092951, 42.365221], [-71.092901, 42.365286], [-71.092795, 42.365242], [-71.092843, 42.365178], [-71.092814, 42.365166], [-71.092777, 42.365214], [-71.09271, 42.365186], [-71.092821, 42.36504]]]}, "properties": {"addr:housenumber": "115;117;119", "addr:street": "Harvard Street", "building": "yes"}}, {"type": "Feature", "id": 29618959, "geometry": {"type": "Polygon", "coordinates": [[[-71.093031, 42.361693], [-71.093289, 42.361976], [-71.092528, 42.362358], [-71.092519, 42.362361], [-71.092513, 42.362361], [-71.092508, 42.362361], [-71.092503, 42.362359], [-71.092498, 42.362357], [-71.092495, 42.362353], [-71.092492, 42.36235], [-71.092491, 42.362346], [-71.09249, 42.362342], [-71.092491, 42.362338], [-71.092494, 42.362334], [-71.092497, 42.362331], [-71.092501, 42.362328], [-71.092557, 42.3623], [-71.09254, 42.362282], [-71.092555, 42.362274], [-71.092547, 42.362266], [-71.092533, 42.362273], [-71.092525, 42.362276], [-71.092519, 42.362279], [-71.092513, 42.362281], [-71.092506, 42.362283], [-71.0925, 42.362285], [-71.092493, 42.362287], [-71.092487, 42.362288], [-71.09248, 42.362289], [-71.092473, 42.36229], [-71.092466, 42.36229], [-71.092459, 42.36229], [-71.092452, 42.36229], [-71.092445, 42.36229], [-71.092438, 42.362289], [-71.092432, 42.362288], [-71.092425, 42.362287], [-71.092418, 42.362286], [-71.092411, 42.362284], [-71.092405, 42.362282], [-71.092399, 42.36228], [-71.092393, 42.362278], [-71.092387, 42.362275], [-71.092381, 42.362272], [-71.092375, 42.362269], [-71.09237, 42.362266], [-71.092365, 42.362262], [-71.09236, 42.362259], [-71.092356, 42.362255], [-71.092351, 42.362251], [-71.092347, 42.362246], [-71.092343, 42.362242], [-71.09234, 42.362237], [-71.092337, 42.362233], [-71.092334, 42.362228], [-71.092332, 42.362223], [-71.09233, 42.362218], [-71.092328, 42.362213], [-71.092327, 42.362208], [-71.092326, 42.362203], [-71.092325, 42.362198], [-71.092325, 42.362193], [-71.092325, 42.362188], [-71.092326, 42.362183], [-71.092326, 42.362178], [-71.092328, 42.362173], [-71.092329, 42.362167], [-71.092331, 42.362163], [-71.092333, 42.362158], [-71.092336, 42.362153], [-71.092339, 42.362148], [-71.092342, 42.362144], [-71.092345, 42.362139], [-71.092349, 42.362135], [-71.092354, 42.362131], [-71.092358, 42.362127], [-71.092363, 42.362123], [-71.092368, 42.36212], [-71.092373, 42.362116], [-71.092378, 42.362113], [-71.092384, 42.36211], [-71.092397, 42.362104], [-71.092388, 42.362094], [-71.092375, 42.3621], [-71.09235, 42.362073], [-71.092296, 42.3621], [-71.092287, 42.362103], [-71.092282, 42.362103], [-71.092277, 42.362102], [-71.092272, 42.3621], [-71.092268, 42.362097], [-71.092265, 42.362094], [-71.092263, 42.362091], [-71.092263, 42.362087], [-71.092263, 42.362083], [-71.092265, 42.362079], [-71.092268, 42.362076], [-71.092272, 42.362074], [-71.093031, 42.361693]]]}, "properties": {"addr:city": "Cambridge", "addr:housename": "Albany Street Parking Garage", "addr:housenumber": "32", "addr:street": "Albany Street", "amenity": "parking", "building": "university", "campusbuilding": "yes", "name": "Albany Garage (N4)", "name:tr": "Albany Garaj\u0131", "ref": "N4"}}, {"type": "Feature", "id": 29620676, "geometry": {"type": "Polygon", "coordinates": [[[-71.08709, 42.362059], [-71.087449, 42.362084], [-71.087427, 42.362254], [-71.087359, 42.362249], [-71.087338, 42.362408], [-71.087201, 42.362398], [-71.087222, 42.362237], [-71.087068, 42.362226], [-71.087076, 42.362162], [-71.08709, 42.362059]]]}, "properties": {"addr:housenumber": "350", "addr:postcode": "02139", "addr:street": "Main Street", "building": "yes", "building:levels": "7", "name": "The Kendall Hotel", "tourism": "hotel"}}, {"type": "Feature", "id": 29623158, "geometry": {"type": "Polygon", "coordinates": [[[-71.093077, 42.364496], [-71.093162, 42.364533], [-71.093115, 42.364593], [-71.093129, 42.364599], [-71.093034, 42.36472], [-71.093019, 42.364713], [-71.09295, 42.364801], [-71.09309, 42.364861], [-71.093033, 42.364933], [-71.092805, 42.364833], [-71.09292, 42.364686], [-71.092945, 42.364697], [-71.093021, 42.364602], [-71.093004, 42.364594], [-71.093077, 42.364496]]]}, "properties": {"addr:housenumber": "100", "addr:street": "Harvard Street", "building": "yes"}}, {"type": "Feature", "id": 29627492, "geometry": {"type": "Polygon", "coordinates": [[[-71.092657, 42.364973], [-71.092812, 42.365035], [-71.092732, 42.365143], [-71.092676, 42.365121], [-71.092658, 42.365146], [-71.092619, 42.36513], [-71.092639, 42.365104], [-71.092579, 42.36508], [-71.092657, 42.364973]]]}, "properties": {"addr:housenumber": "113", "addr:street": "Harvard Street", "building": "yes"}}, {"type": "Feature", "id": 29650626, "geometry": {"type": "Polygon", "coordinates": [[[-71.09252, 42.363888], [-71.093034, 42.363911], [-71.092866, 42.364161], [-71.092508, 42.364152], [-71.09252, 42.363888]]]}, "properties": {"addr:housenumber": "700", "addr:street": "Technology Square", "building": "university", "campusbuilding": "yes", "name": "700 Technology Square", "ref": "NE48"}}, {"type": "Feature", "id": 29650630, "geometry": {"type": "Polygon", "coordinates": [[[-71.087925, 42.363645], [-71.088476, 42.363864], [-71.088284, 42.364129], [-71.087733, 42.36391], [-71.087925, 42.363645]]]}, "properties": {"addr:city": "Cambridge", "addr:housenumber": "100", "addr:postcode": "02142", "addr:state": "MA", "addr:street": "Broadway", "building": "yes", "building:levels": "15", "name": "Residence Inn Cambridge", "operator": "Marriot", "phone": "+1 617 349 0700", "source": "local_knowledge", "tourism": "hotel", "website": "https://www.marriott.com/hotels/travel/boscm-residence-inn-boston-cambridge/"}}, {"type": "Feature", "id": 29650632, "geometry": {"type": "Polygon", "coordinates": [[[-71.089225, 42.363014], [-71.089296, 42.363017], [-71.089312, 42.363003], [-71.089339, 42.362995], [-71.089377, 42.362994], [-71.089399, 42.362999], [-71.089419, 42.363005], [-71.089432, 42.363014], [-71.089468, 42.363024], [-71.089637, 42.363037], [-71.089694, 42.363042], [-71.089444, 42.363903], [-71.089439, 42.363902], [-71.089114, 42.363868], [-71.089114, 42.363775], [-71.089225, 42.363014]]]}, "properties": {"addr:housename": "Whitehead Institute", "addr:housenumber": "455", "addr:state": "MA", "addr:street": "Main Street", "building": "yes", "building:levels": "7", "ele": "3", "gnis:county_name": "Middlesex", "gnis:feature_id": "1971865", "gnis:import_uuid": "57871b70-0100-4405-bb30-88b2e001a944", "name": "Whitehead Institute", "source": "USGS Geonames", "wikipedia": "en:Whitehead Institute"}}, {"type": "Feature", "id": 29650662, "geometry": {"type": "Polygon", "coordinates": [[[-71.088516, 42.359813], [-71.088965, 42.360572], [-71.088978, 42.360595], [-71.088836, 42.360641], [-71.088794, 42.360565], [-71.088733, 42.360462], [-71.088639, 42.360305], [-71.088585, 42.360213], [-71.088495, 42.360063], [-71.088419, 42.359936], [-71.088374, 42.359859], [-71.088516, 42.359813]]]}, "properties": {"addr:housename": "East Campus (Fred)", "addr:housenumber": "3R", "addr:street": "Ames Street", "alt_name": "Building 62", "building": "dormitory", "campusbuilding": "yes", "description": "East Campus west parallel", "name": "62", "ref": "62", "source": "Massachusetts Institute of Technology - Facility Information Systems"}}, {"type": "Feature", "id": 29716669, "geometry": {"type": "Polygon", "coordinates": [[[-71.090536, 42.364011], [-71.090986, 42.364044], [-71.091186, 42.364255], [-71.091174, 42.364353], [-71.091047, 42.364444], [-71.090827, 42.364433], [-71.090723, 42.364324], [-71.090629, 42.364317], [-71.090492, 42.364413], [-71.090658, 42.364426], [-71.090636, 42.364591], [-71.090471, 42.364579], [-71.090569, 42.364681], [-71.090688, 42.364688], [-71.090795, 42.364802], [-71.090994, 42.364815], [-71.091196, 42.365028], [-71.091181, 42.365128], [-71.091051, 42.365219], [-71.090933, 42.365211], [-71.090834, 42.365106], [-71.090497, 42.365081], [-71.090441, 42.365021], [-71.090394, 42.364972], [-71.090288, 42.364962], [-71.089992, 42.364647], [-71.090043, 42.364262], [-71.090297, 42.364083], [-71.090417, 42.364091], [-71.090536, 42.364011]]]}, "properties": {"addr:city": "Cambridge", "addr:housenumber": "555", "addr:state": "MA", "addr:street": "Technology Square", "building": "yes", "building:levels": "8", "name": "The Charles Stark Draper Laboratory, Inc", "office": "research", "roof:material": "tar_gravel", "roof:shape": "flat", "short_name": "Draper Lab", "year_of_construction": "1970"}}, {"type": "Feature", "id": 29743556, "geometry": {"type": "Polygon", "coordinates": [[[-71.087084, 42.362632], [-71.08791, 42.362681], [-71.087878, 42.362984], [-71.087677, 42.362973], [-71.087391, 42.362956], [-71.087185, 42.362944], [-71.087051, 42.362936], [-71.087084, 42.362632]]]}, "properties": {"addr:city": "Cambridge", "addr:housenumber": "355", "addr:street": "Main Street", "alt_name": "Building NE25", "building": "yes", "building:levels": "13", "landuse": "commercial", "ref": "NE25"}}, {"type": "Feature", "id": 29803755, "geometry": {"type": "Polygon", "coordinates": [[[-71.090937, 42.362201], [-71.091007, 42.362278], [-71.090943, 42.36231], [-71.090989, 42.36236], [-71.090466, 42.362623], [-71.090438, 42.362593], [-71.090394, 42.362615], [-71.090306, 42.362519], [-71.090937, 42.362201]]]}, "properties": {"addr:city": "Cambridge", "addr:housenumber": "15", "addr:postcode": "02139", "addr:state": "MA", "addr:street": "Vassar Street", "building": "university", "building:levels": "4", "campusbuilding": "yes", "name": "Parsons Lab (48)", "ref": "48"}}, {"type": "Feature", "id": 29804416, "geometry": {"type": "Polygon", "coordinates": [[[-71.088857, 42.364008], [-71.089374, 42.364226], [-71.08931, 42.364475], [-71.089308, 42.36448], [-71.089306, 42.364485], [-71.089304, 42.364489], [-71.089301, 42.364494], [-71.089298, 42.364498], [-71.089294, 42.364503], [-71.08929, 42.364507], [-71.089286, 42.364511], [-71.089282, 42.364515], [-71.089277, 42.364519], [-71.089272, 42.364522], [-71.089267, 42.364525], [-71.089262, 42.364528], [-71.089256, 42.364531], [-71.08925, 42.364534], [-71.089244, 42.364537], [-71.089238, 42.364539], [-71.089232, 42.364541], [-71.089225, 42.364542], [-71.089219, 42.364544], [-71.089212, 42.364545], [-71.089205, 42.364546], [-71.089198, 42.364547], [-71.089192, 42.364547], [-71.089185, 42.364548], [-71.089178, 42.364548], [-71.089171, 42.364547], [-71.089164, 42.364547], [-71.089158, 42.364546], [-71.089151, 42.364545], [-71.089144, 42.364543], [-71.089138, 42.364542], [-71.089131, 42.36454], [-71.089125, 42.364537], [-71.089119, 42.364535], [-71.089113, 42.364532], [-71.089108, 42.36453], [-71.089102, 42.364526], [-71.089097, 42.364523], [-71.089092, 42.36452], [-71.088738, 42.364372], [-71.088734, 42.36437], [-71.088729, 42.364367], [-71.088724, 42.364365], [-71.08872, 42.364363], [-71.088716, 42.36436], [-71.088711, 42.364357], [-71.088707, 42.364355], [-71.088703, 42.364352], [-71.0887, 42.364349], [-71.088696, 42.364346], [-71.088692, 42.364343], [-71.088689, 42.36434], [-71.088686, 42.364336], [-71.088683, 42.364333], [-71.08868, 42.364329], [-71.088677, 42.364326], [-71.088675, 42.364322], [-71.088672, 42.364319], [-71.08867, 42.364315], [-71.088668, 42.364311], [-71.088666, 42.364307], [-71.088664, 42.364301], [-71.088662, 42.364296], [-71.088661, 42.364291], [-71.08866, 42.364286], [-71.08866, 42.364282], [-71.088659, 42.364277], [-71.088659, 42.364272], [-71.08866, 42.364267], [-71.088661, 42.364262], [-71.088662, 42.364258], [-71.088663, 42.364253], [-71.088665, 42.364248], [-71.088667, 42.364244], [-71.08867, 42.364239], [-71.088673, 42.364235], [-71.088676, 42.364231], [-71.088679, 42.364227], [-71.088683, 42.364223], [-71.088687, 42.364219], [-71.088691, 42.364215], [-71.088857, 42.364008]]]}, "properties": {"addr:city": "Cambridge", "addr:housenumber": "150", "addr:postcode": "02142", "addr:state": "MA", "addr:street": "Broadway", "building": "yes", "building:levels": "8", "name": "Akamai Technologies", "office": "company", "smoking": "isolated", "source": "local knowledge", "website": "https://www.akamai.com", "wikipedia": "en:Akamai Technologies"}}, {"type": "Feature", "id": 29842810, "geometry": {"type": "Polygon", "coordinates": [[[-71.091504, 42.362983], [-71.091616, 42.362993], [-71.091688, 42.36307], [-71.091843, 42.363084], [-71.091747, 42.363703], [-71.09136, 42.36368], [-71.091426, 42.363062], [-71.091491, 42.363068], [-71.091504, 42.362983]]]}, "properties": {"addr:city": "Cambridge", "addr:housenumber": "300", "addr:postcode": "02139", "addr:state": "MA", "addr:street": "Technology Square", "building": "yes", "name": "300 Technology Square"}}, {"type": "Feature", "id": 29864502, "geometry": {"type": "Polygon", "coordinates": [[[-71.088555, 42.364644], [-71.08874, 42.364722], [-71.088707, 42.364765], [-71.088803, 42.364805], [-71.088839, 42.364759], [-71.089032, 42.36484], [-71.089016, 42.364861], [-71.089125, 42.364907], [-71.089072, 42.364976], [-71.089135, 42.365003], [-71.089, 42.365177], [-71.088447, 42.364944], [-71.08852, 42.364849], [-71.088427, 42.36481], [-71.088555, 42.364644]]]}, "properties": {"building": "construction", "building:levels": "19", "campusbuilding": "yes", "name": "Akamai Technologies"}}, {"type": "Feature", "id": 29945170, "geometry": {"type": "Polygon", "coordinates": [[[-71.092672, 42.361416], [-71.092778, 42.361531], [-71.09264, 42.361601], [-71.092648, 42.36161], [-71.09228, 42.361796], [-71.092165, 42.361671], [-71.092672, 42.361416]]]}, "properties": {"addr:city": "Cambridge", "addr:housename": "Cyclotron", "addr:housenumber": "51", "addr:postcode": "02139", "addr:state": "MA", "addr:street": "Vassar Street", "architect": "Mccreery &Theriault", "building": "university", "campusbuilding": "yes", "name": "Cyclotron", "ref": "44"}}, {"type": "Feature", "id": 29949702, "geometry": {"type": "Polygon", "coordinates": [[[-71.088242, 42.365046], [-71.088986, 42.365363], [-71.088903, 42.365647], [-71.088471, 42.365463], [-71.088299, 42.365685], [-71.088134, 42.365624], [-71.087928, 42.365625], [-71.088189, 42.365287], [-71.088242, 42.365046]]]}, "properties": {"building": "yes"}}, {"type": "Feature", "id": 32517105, "geometry": {"type": "Polygon", "coordinates": [[[-71.091976, 42.359978], [-71.092343, 42.359856], [-71.092356, 42.359876], [-71.092954, 42.359677], [-71.093124, 42.359621], [-71.09321, 42.359765], [-71.093265, 42.359855], [-71.091992, 42.360279], [-71.091852, 42.360049], [-71.091991, 42.360003], [-71.091976, 42.359978]]]}, "properties": {"addr:housename": "Bush Building", "addr:state": "MA", "alt_name": "Building 13", "building": "university", "building:levels": "6", "campusbuilding": "yes", "ele": "3", "gnis:county_name": "Middlesex", "gnis:feature_id": "1971061", "gnis:import_uuid": "57871b70-0100-4405-bb30-88b2e001a944", "gnis:reviewed": "no", "name": "Bush Building (13)", "ref": "13", "source": "Massachusetts Institute of Technology - Facility Information Systems;USGS Geonames"}}, {"type": "Feature", "id": 32517290, "geometry": {"type": "Polygon", "coordinates": [[[-71.092821, 42.359397], [-71.092602, 42.359468], [-71.092721, 42.359664], [-71.092941, 42.35959], [-71.092821, 42.359397]]]}, "properties": {"addr:state": "MA", "alt_name": "Homberg Building", "building": "university", "building:levels": "5", "ele": "3", "gnis:county_name": "Middlesex", "gnis:feature_id": "1971371", "gnis:import_uuid": "57871b70-0100-4405-bb30-88b2e001a944", "gnis:reviewed": "no", "name": "11 Homberg Building", "operator": "Massachusetts Institute of Technology", "ref": "11", "source": "Massachusetts Institute of Technology - Facility Information Systems;USGS Geonames"}}, {"type": "Feature", "id": 32517642, "geometry": {"type": "Polygon", "coordinates": [[[-71.091762, 42.359688], [-71.091694, 42.35971], [-71.091632, 42.359606], [-71.09162, 42.359587], [-71.091658, 42.359574], [-71.091647, 42.359556], [-71.092131, 42.359393], [-71.092142, 42.359411], [-71.092184, 42.359397], [-71.092193, 42.35941], [-71.09226, 42.359522], [-71.09219, 42.359545], [-71.092374, 42.359848], [-71.092343, 42.359856], [-71.091976, 42.359978], [-71.091943, 42.359989], [-71.091762, 42.359688]]]}, "properties": {"addr:housename": "Maclaurin Buildings (10)", "addr:housenumber": "222", "addr:street": "Memorial Drive", "alt_name": "Building 10", "building": "university", "building:levels": "7", "campusbuilding": "yes", "ele": "3", "name": "10", "ref": "10", "source": "Massachusetts Institute of Technology - Facility Information Systems"}}, {"type": "Feature", "id": 32517839, "geometry": {"type": "Polygon", "coordinates": [[[-71.09061, 42.359954], [-71.090731, 42.359913], [-71.091105, 42.359788], [-71.091196, 42.359939], [-71.090883, 42.360042], [-71.090957, 42.360166], [-71.090876, 42.360192], [-71.090736, 42.360239], [-71.090614, 42.360042], [-71.090567, 42.359967], [-71.09061, 42.359954]]]}, "properties": {"addr:housename": "Building 8", "alt_name": "Building 8", "building": "university", "campusbuilding": "yes", "name": "8", "ref": "8"}}, {"type": "Feature", "id": 32524914, "geometry": {"type": "Polygon", "coordinates": [[[-71.090638, 42.359539], [-71.090709, 42.359515], [-71.090705, 42.359509], [-71.090736, 42.359499], [-71.090726, 42.359482], [-71.09082, 42.359451], [-71.090834, 42.359474], [-71.090899, 42.359453], [-71.091105, 42.359788], [-71.090731, 42.359913], [-71.0907, 42.359862], [-71.090736, 42.35985], [-71.090565, 42.359569], [-71.090641, 42.359544], [-71.090638, 42.359539]]]}, "properties": {"addr:housename": "PDSI (Physics, DMSE, Spectroscopy, Infrastructure)", "addr:state": "MA", "alt_name": "Building 6C", "building": "university", "campusbuilding": "yes", "ele": "3", "gnis:county_name": "Middlesex", "gnis:feature_id": "1971780", "gnis:import_uuid": "57871b70-0100-4405-bb30-88b2e001a944", "gnis:reviewed": "no", "name": "6C PDSI", "ref": "6C", "source": "Massachusetts Institute of Technology - Facility Information Systems"}}, {"type": "Feature", "id": 32524923, "geometry": {"type": "Polygon", "coordinates": [[[-71.090575, 42.359375], [-71.090694, 42.359336], [-71.090771, 42.359463], [-71.090652, 42.359502], [-71.090575, 42.359375]]]}, "properties": {"alt_name": "Building 6B", "building": "university", "name": "6B", "ref": "6B", "source": "Massachusetts Institute of Technology - Facility Information Systems"}}, {"type": "Feature", "id": 32525350, "geometry": {"type": "Polygon", "coordinates": [[[-71.092983, 42.360933], [-71.092593, 42.361066], [-71.092576, 42.361041], [-71.092499, 42.360907], [-71.092447, 42.360812], [-71.092834, 42.360692], [-71.092851, 42.360711], [-71.092957, 42.360888], [-71.092983, 42.360933]]]}, "properties": {"addr:housename": "Brown Building", "addr:state": "MA", "alt_name": "Building 39", "building": "university", "building:levels": "7", "campusbuilding": "yes", "ele": "3", "gnis:county_name": "Middlesex", "gnis:feature_id": "1971044", "gnis:import_uuid": "57871b70-0100-4405-bb30-88b2e001a944", "gnis:reviewed": "no", "name": "39 Brown Building", "ref": "39", "source": "Massachusetts Institute of Technology - Facility Information Systems;USGS Geonames"}}, {"type": "Feature", "id": 32525380, "geometry": {"type": "Polygon", "coordinates": [[[-71.092499, 42.360907], [-71.092576, 42.361041], [-71.092502, 42.36106], [-71.092562, 42.361148], [-71.092138, 42.361294], [-71.092087, 42.361199], [-71.09207, 42.361174], [-71.09219, 42.361066], [-71.092164, 42.361009], [-71.092499, 42.360907]]]}, "properties": {"addr:housename": "Fairchild Building (38)", "alt_name": "Building 38", "building": "university", "building:levels": "7", "campusbuilding": "yes", "name": "38", "ref": "38", "source": "Massachusetts Institute of Technology - Facility Information Systems"}}, {"type": "Feature", "id": 32525583, "geometry": {"type": "Polygon", "coordinates": [[[-71.092087, 42.361066], [-71.092044, 42.361136], [-71.09207, 42.361174], [-71.092087, 42.361199], [-71.092027, 42.361294], [-71.091913, 42.361272], [-71.091908, 42.361275], [-71.091879, 42.361234], [-71.091892, 42.36123], [-71.091872, 42.361199], [-71.091747, 42.361161], [-71.09179, 42.361066], [-71.091842, 42.361049], [-71.091889, 42.361041], [-71.09197, 42.361009], [-71.092087, 42.361066]]]}, "properties": {"addr:housename": "EG&G Education Center", "addr:state": "MA", "alt_name": "Building 34", "building": "university", "building:levels": "5", "ele": "3", "gnis:county_name": "Middlesex", "gnis:feature_id": "1971199", "gnis:import_uuid": "57871b70-0100-4405-bb30-88b2e001a944", "gnis:reviewed": "no", "name": "34", "ref": "34", "source": "Massachusetts Institute of Technology - Facility Information Systems"}}, {"type": "Feature", "id": 32525936, "geometry": {"type": "Polygon", "coordinates": [[[-71.091405, 42.361021], [-71.091178, 42.360645], [-71.091215, 42.360633], [-71.091109, 42.360456], [-71.09098, 42.360499], [-71.090938, 42.360427], [-71.090908, 42.360436], [-71.09095, 42.360511], [-71.09055, 42.360643], [-71.090658, 42.360821], [-71.090993, 42.36071], [-71.091391, 42.361369], [-71.091581, 42.361306], [-71.091497, 42.361168], [-71.091625, 42.361125], [-71.091536, 42.360978], [-71.091405, 42.361021]]]}, "properties": {"addr:housename": "Compton Laboratories", "alt_name": "Building 26", "building": "university", "building:levels": "18", "campusbuilding": "yes", "ele": "3", "name": "26", "ref": "26"}}, {"type": "Feature", "id": 32526070, "geometry": {"type": "Polygon", "coordinates": [[[-71.090938, 42.360427], [-71.090908, 42.360436], [-71.090572, 42.360547], [-71.090593, 42.360582], [-71.090529, 42.360603], [-71.090506, 42.360566], [-71.090267, 42.360645], [-71.090179, 42.3605], [-71.090776, 42.360303], [-71.090736, 42.360239], [-71.090876, 42.360192], [-71.090909, 42.360247], [-71.090855, 42.360264], [-71.09095, 42.360422], [-71.090938, 42.360427]]]}, "properties": {"addr:housename": "Dorrance Building", "alt_name": "Building 16", "building": "university", "campusbuilding": "yes", "ele": "3", "name": "16", "ref": "16", "source": "Massachusetts Institute of Technology - Facility Information Systems"}}, {"type": "Feature", "id": 32526121, "geometry": {"type": "Polygon", "coordinates": [[[-71.090179, 42.3605], [-71.090267, 42.360645], [-71.090279, 42.360662], [-71.090255, 42.36067], [-71.089532, 42.360909], [-71.089484, 42.36083], [-71.089467, 42.360802], [-71.089435, 42.36075], [-71.090142, 42.360513], [-71.090171, 42.360504], [-71.090179, 42.3605]]]}, "properties": {"addr:housename": "Whitaker Building", "addr:state": "MA", "alt_name": "Building 56", "building": "university", "campusbuilding": "yes", "ele": "3", "gnis:county_name": "Middlesex", "gnis:feature_id": "1971862", "gnis:import_uuid": "57871b70-0100-4405-bb30-88b2e001a944", "gnis:reviewed": "no", "name": "56", "ref": "56", "source": "Massachusetts Institute of Technology - Facility Information System; USGS Geonames"}}, {"type": "Feature", "id": 32526333, "geometry": {"type": "Polygon", "coordinates": [[[-71.090413, 42.361198], [-71.090397, 42.361171], [-71.090499, 42.361138], [-71.090467, 42.361085], [-71.090425, 42.361099], [-71.090381, 42.361024], [-71.090314, 42.361046], [-71.09027, 42.360973], [-71.08982, 42.361119], [-71.089885, 42.361228], [-71.089859, 42.361236], [-71.089929, 42.361355], [-71.090413, 42.361198]]]}, "properties": {"addr:housenumber": "6", "addr:street": "Vassar Street", "alt_name": "Alumni Pool", "building": "university", "campusbuilding": "yes", "leisure": "swimming_pool", "name": "Alumni Pool", "ref": "57", "source": "Massachusetts Institute of Technology - Facility Information Systems"}}, {"type": "Feature", "id": 37095599, "geometry": {"type": "Polygon", "coordinates": [[[-71.08832, 42.363059], [-71.088307, 42.36317], [-71.088362, 42.36319], [-71.088551, 42.363267], [-71.088559, 42.363253], [-71.088699, 42.363315], [-71.08898, 42.363438], [-71.088992, 42.36331], [-71.088997, 42.363249], [-71.089101, 42.363254], [-71.089168, 42.362788], [-71.088363, 42.362741], [-71.08832, 42.363059]]]}, "properties": {"addr:city": "Cambridge", "addr:housename": "NE30", "addr:housenumber": "415", "addr:street": "Main Street", "alt_name": "Building NE30", "building": "yes", "building:levels": "7", "name": "Broad Institute", "wikipedia": "en:Broad Institute"}}, {"type": "Feature", "id": 46846324, "geometry": {"type": "Polygon", "coordinates": [[[-71.088697, 42.362304], [-71.088923, 42.362065], [-71.089806, 42.362124], [-71.089769, 42.362539], [-71.088665, 42.362456], [-71.088588, 42.362299], [-71.088697, 42.362304]]]}, "properties": {"addr:housename": "David H. Koch Institute for Integrative Cancer Research", "addr:housenumber": "500", "addr:street": "Main Street", "alt_name": "Building 76", "building": "university", "building:levels": "7", "campusbuilding": "yes", "description": "The David H Koch Institute for Integrative Cancer Research", "name": "David H. Koch Institute for Integrative Cancer Research", "ref": "76", "source": "Massachusetts Institute of Technology - Facility Information Systems", "wikipedia": "en:David H. Koch Institute for Integrative Cancer Research"}}, {"type": "Feature", "id": 58336511, "geometry": {"type": "Polygon", "coordinates": [[[-71.088739, 42.363898], [-71.088234, 42.363682], [-71.08857, 42.36328], [-71.088975, 42.363446], [-71.088965, 42.363516], [-71.088953, 42.363607], [-71.088915, 42.363659], [-71.088977, 42.363684], [-71.088835, 42.363876], [-71.088778, 42.363845], [-71.088739, 42.363898]]]}, "properties": {"access": "public", "addr:housenumber": "73;75;77", "addr:street": "Ames Street", "amenity": "parking", "building": "parking", "building:levels": "15", "fee": "yes", "name": "Cambridge Center Garage", "opening_hours": "24/7", "parking": "multi-storey"}}, {"type": "Feature", "id": 106989237, "geometry": {"type": "Polygon", "coordinates": [[[-71.088222, 42.363671], [-71.088101, 42.363631], [-71.087982, 42.363584], [-71.087966, 42.363565], [-71.087963, 42.363527], [-71.088218, 42.363205], [-71.088239, 42.363207], [-71.088505, 42.363317], [-71.088513, 42.363326], [-71.088222, 42.363671]]]}, "properties": {"addr2:housenumber": "73", "addr:city": "Cambridge", "addr:housenumber": "75", "addr:postcode": "02142", "addr:state": "MA", "addr:street": "Ames Street", "building": "yes", "building:levels": "15", "landuse": "commercial", "name": "Broad Institute Stanley Building"}}, {"type": "Feature", "id": 132601298, "geometry": {"type": "Polygon", "coordinates": [[[-71.093117, 42.361261], [-71.093035, 42.361171], [-71.093293, 42.361041], [-71.093375, 42.361132], [-71.093117, 42.361261]]]}, "properties": {"building": "university", "ref": "43"}}, {"type": "Feature", "id": 177921762, "geometry": {"type": "Polygon", "coordinates": [[[-71.088033, 42.360958], [-71.087834, 42.361023], [-71.087551, 42.361117], [-71.087475, 42.361142], [-71.087381, 42.360983], [-71.087233, 42.36073], [-71.08725, 42.360725], [-71.087739, 42.360562], [-71.087785, 42.360547], [-71.088033, 42.360958]]]}, "properties": {"addr:housename": "Wiesner Arts and Media Technology Building", "addr:state": "MA", "alt_name": "Building E15", "building": "university", "campusbuilding": "yes", "ele": "3", "gnis:county_name": "Middlesex", "gnis:feature_id": "1971956", "gnis:import_uuid": "57871b70-0100-4405-bb30-88b2e001a944", "gnis:reviewed": "no", "name": "E15", "source": "USGS Geonames", "wikidata": "Q7999383"}}, {"type": "Feature", "id": 177921857, "geometry": {"type": "Polygon", "coordinates": [[[-71.087565, 42.361745], [-71.087519, 42.361741], [-71.087433, 42.361734], [-71.087432, 42.361766], [-71.08756, 42.361775], [-71.087565, 42.361745]]]}, "properties": {"building": "university"}}, {"type": "Feature", "id": 212292282, "geometry": {"type": "Polygon", "coordinates": [[[-71.087097, 42.365505], [-71.08705, 42.36557], [-71.086996, 42.365549], [-71.087043, 42.365484], [-71.087097, 42.365505]]]}, "properties": {"building": "yes"}}, {"type": "Feature", "id": 220076812, "geometry": {"type": "Polygon", "coordinates": [[[-71.087587, 42.361595], [-71.088058, 42.361631], [-71.088186, 42.36164], [-71.088163, 42.361812], [-71.088018, 42.361801], [-71.088011, 42.361855], [-71.087861, 42.361845], [-71.087783, 42.36184], [-71.087767, 42.36196], [-71.087839, 42.361965], [-71.087834, 42.362004], [-71.087674, 42.361992], [-71.08767, 42.362029], [-71.087622, 42.362025], [-71.087627, 42.361986], [-71.087501, 42.361975], [-71.087488, 42.362011], [-71.087463, 42.362008], [-71.087437, 42.362006], [-71.087449, 42.361956], [-71.087437, 42.361944], [-71.087445, 42.361896], [-71.087538, 42.361903], [-71.087553, 42.361824], [-71.08756, 42.361775], [-71.087565, 42.361745], [-71.087587, 42.361595]]]}, "properties": {"addr:housename": "Ford Building", "alt_name": "Building E18", "building": "university", "building:levels": "6", "name": "E18", "ref": "E18"}}, {"type": "Feature", "id": 220076879, "geometry": {"type": "Polygon", "coordinates": [[[-71.088149, 42.361893], [-71.088153, 42.361865], [-71.088011, 42.361855], [-71.087861, 42.361845], [-71.087783, 42.36184], [-71.087767, 42.36196], [-71.087839, 42.361965], [-71.087834, 42.362004], [-71.087828, 42.362046], [-71.087777, 42.362445], [-71.087776, 42.362455], [-71.088069, 42.362477], [-71.088149, 42.361893]]]}, "properties": {"addr:housename": "Ford Building", "addr:housenumber": "400", "addr:state": "MA", "addr:street": "Main Street", "alt_name": "Building E19", "building": "university", "building:levels": "7", "campusbuilding": "yes", "ele": "3", "gnis:county_name": "Middlesex", "gnis:feature_id": "1971254", "gnis:import_uuid": "57871b70-0100-4405-bb30-88b2e001a944", "gnis:reviewed": "no", "name": "E19", "ref": "E19", "source": "USGS Geonames"}}, {"type": "Feature", "id": 220082897, "geometry": {"type": "Polygon", "coordinates": [[[-71.088116, 42.361578], [-71.088063, 42.361574], [-71.088058, 42.361631], [-71.087587, 42.361595], [-71.087621, 42.361364], [-71.088217, 42.361411], [-71.088193, 42.361584], [-71.088116, 42.361578]]]}, "properties": {"addr:housename": "Mudd Building", "addr:housenumber": "40", "addr:state": "MA", "addr:street": "Ames Street", "alt_name": "Building E17", "building": "university", "building:levels": "6", "campusbuilding": "yes", "ele": "3", "gnis:county_name": "Middlesex", "gnis:feature_id": "1971559", "gnis:import_uuid": "57871b70-0100-4405-bb30-88b2e001a944", "gnis:reviewed": "no", "name": "E17 Seely G. Mudd Building", "ref": "E17", "source": "USGS Geonames"}}, {"type": "Feature", "id": 328256023, "geometry": {"type": "Polygon", "coordinates": [[[-71.091057, 42.363656], [-71.09078, 42.363636], [-71.090869, 42.362958], [-71.090874, 42.362918], [-71.091223, 42.362943], [-71.091181, 42.363262], [-71.091109, 42.363256], [-71.091057, 42.363656]]]}, "properties": {"addr:housenumber": "200", "addr:street": "Technology Square", "building": "commercial", "name": "200 Technology Square"}}, {"type": "Feature", "id": 328256024, "geometry": {"type": "Polygon", "coordinates": [[[-71.090084, 42.363752], [-71.090167, 42.363576], [-71.090131, 42.363565], [-71.090204, 42.363449], [-71.090261, 42.363367], [-71.090322, 42.363286], [-71.090387, 42.363208], [-71.090455, 42.363131], [-71.090526, 42.363057], [-71.090615, 42.362972], [-71.090736, 42.362981], [-71.090741, 42.362949], [-71.090869, 42.362958], [-71.09078, 42.363636], [-71.090776, 42.363669], [-71.090825, 42.363672], [-71.090811, 42.363802], [-71.090084, 42.363752]]]}, "properties": {"addr:city": "Cambridge", "addr:housenumber": "100", "addr:postcode": "02139", "addr:state": "MA", "addr:street": "Technology Square", "building": "industrial", "building:levels": "9", "name": "100 Technology Square", "note": "8-story building. Lab space. Novartis. Built 2002. Rentable Sq Ft. 255,441 MIT/ Alexandria Real Estate"}}, {"type": "Feature", "id": 349283256, "geometry": {"type": "Polygon", "coordinates": [[[-71.08987, 42.361656], [-71.08989, 42.361657], [-71.089932, 42.361657], [-71.08999, 42.361647], [-71.090034, 42.361632], [-71.090076, 42.361601], [-71.090111, 42.361559], [-71.090124, 42.3615], [-71.090108, 42.361442], [-71.090079, 42.361409], [-71.09005, 42.361389], [-71.089991, 42.361365], [-71.089935, 42.361357], [-71.089895, 42.361358], [-71.089886, 42.361471], [-71.08988, 42.361539], [-71.08987, 42.361656]]]}, "properties": {"amenity": "theatre", "building": "yes", "capacity": "350", "covered": "no", "name": "Dertouzos Amphitheater"}}, {"type": "Feature", "id": 435078056, "geometry": {"type": "Polygon", "coordinates": [[[-71.093322, 42.359626], [-71.093312, 42.35963], [-71.093318, 42.35964], [-71.093231, 42.359668], [-71.093056, 42.359378], [-71.093153, 42.359346], [-71.093322, 42.359626]]]}, "properties": {"building": "university", "building:levels": "6", "campusbuilding": "yes", "name": "7A"}}, {"type": "Feature", "id": 479313188, "geometry": {"type": "Polygon", "coordinates": [[[-71.092333, 42.359836], [-71.091965, 42.359953], [-71.091809, 42.359686], [-71.092177, 42.359569], [-71.092333, 42.359836]]]}, "properties": {"building": "college", "building:levels": "8", "building:roof:shape": "dome"}}, {"type": "Feature", "id": 485224102, "geometry": {"type": "Polygon", "coordinates": [[[-71.089235, 42.360435], [-71.089228, 42.360424], [-71.089185, 42.360437], [-71.089118, 42.360324], [-71.089156, 42.360311], [-71.089149, 42.3603], [-71.08933, 42.360241], [-71.089451, 42.360202], [-71.089455, 42.36021], [-71.089493, 42.360197], [-71.089563, 42.360315], [-71.089521, 42.360329], [-71.089527, 42.36034], [-71.089235, 42.360435]]]}, "properties": {"building": "yes", "building:levels": "21", "height": "90", "name": "Green Building", "wikidata": "Q5602382"}}, {"type": "Feature", "id": 652551627, "geometry": {"type": "Polygon", "coordinates": [[[-71.087385, 42.363273], [-71.087439, 42.363277], [-71.087437, 42.363311], [-71.087673, 42.363323], [-71.08789, 42.363045], [-71.087622, 42.363027], [-71.08757, 42.363099], [-71.087405, 42.363094], [-71.087385, 42.363273]]]}, "properties": {"addr:city": "Cambridge", "addr:housenumber": "88", "addr:postcode": "02142", "addr:state": "MA", "addr:street": "Ames Street", "building": "apartments", "building:levels": "22", "name": "Proto", "website": "https://protokendallsq.com/"}}, {"type": "Feature", "id": 656372673, "geometry": {"type": "Polygon", "coordinates": [[[-71.091965, 42.360399], [-71.091656, 42.359872], [-71.091117, 42.360044], [-71.091439, 42.360579], [-71.091965, 42.360399]]]}, "properties": {"addr:city": "Cambridge", "addr:housenumber": "77", "addr:postcode": "02139", "addr:state": "MA", "addr:street": "Massachusetts Avenue", "addr:unit": "Building 12", "building": "industrial", "name": "MIT.nano", "office": "research", "phone": "617-253-3282", "website": "http://mitnano.mit.edu/"}}, {"type": "Feature", "id": 24494079, "geometry": {"type": "Polygon", "coordinates": [[[-71.086545, 42.36018], [-71.086472, 42.360086], [-71.086068, 42.360155], [-71.08606, 42.360118], [-71.08612, 42.360086], [-71.08606, 42.359889], [-71.086026, 42.359883], [-71.086, 42.359781], [-71.085828, 42.3598], [-71.085845, 42.359908], [-71.08582, 42.359915], [-71.085897, 42.360124], [-71.085983, 42.36013], [-71.085991, 42.360175], [-71.08527, 42.360289], [-71.085133, 42.360067], [-71.084936, 42.36013], [-71.085142, 42.360441], [-71.086545, 42.36018]]]}, "properties": {"addr:housenumber": "100", "addr:street": "Memorial Drive", "building": "university"}}, {"type": "Feature", "id": 24494135, "geometry": {"type": "Polygon", "coordinates": [[[-71.084968, 42.360312], [-71.084891, 42.360179], [-71.084488, 42.360316], [-71.084469, 42.36029], [-71.084483, 42.360279], [-71.084467, 42.360264], [-71.084407, 42.36029], [-71.084303, 42.36032], [-71.084315, 42.360336], [-71.084379, 42.360331], [-71.084384, 42.360346], [-71.084117, 42.36044], [-71.084444, 42.360974], [-71.084638, 42.360914], [-71.08469, 42.361002], [-71.084731, 42.361073], [-71.084772, 42.361062], [-71.084731, 42.360988], [-71.084678, 42.360899], [-71.084731, 42.36088], [-71.084669, 42.360778], [-71.084644, 42.360787], [-71.084459, 42.360482], [-71.084968, 42.360312]]]}, "properties": {"addr:housename": "Tang Center", "addr:housenumber": "70", "addr:state": "MA", "addr:street": "Memorial Drive", "alt_name": "Building E51", "building": "university", "campusbuilding": "yes", "ele": "3", "gnis:county_name": "Middlesex", "gnis:feature_id": "1971797", "gnis:import_uuid": "57871b70-0100-4405-bb30-88b2e001a944", "gnis:reviewed": "no", "layer": "1", "name": "E51", "ref": "E51", "source": "USGS Geonames"}}, {"type": "Feature", "id": 24494137, "geometry": {"type": "Polygon", "coordinates": [[[-71.083889, 42.360512], [-71.08319, 42.360739], [-71.083245, 42.360833], [-71.08329, 42.360908], [-71.083469, 42.36085], [-71.083518, 42.360834], [-71.083592, 42.360959], [-71.083915, 42.360855], [-71.084064, 42.360807], [-71.083889, 42.360512]]]}, "properties": {"addr:housename": "Sloan Building", "addr:housenumber": "50", "addr:state": "MA", "addr:street": "Memorial Drive", "alt_name": "Building E52", "building": "university", "campusbuilding": "yes", "designation": "Massachusetts Institute of Technology - Facility Information Systems", "ele": "3", "gnis:county_name": "Middlesex", "gnis:feature_id": "1971759", "gnis:import_uuid": "57871b70-0100-4405-bb30-88b2e001a944", "gnis:reviewed": "no", "name": "E52", "ref": "E52", "source": "USGS Geonames"}}, {"type": "Feature", "id": 29251184, "geometry": {"type": "Polygon", "coordinates": [[[-71.083987, 42.361601], [-71.084006, 42.361631], [-71.084045, 42.361696], [-71.084104, 42.361792], [-71.083858, 42.361874], [-71.083742, 42.361683], [-71.083987, 42.361601]]]}, "properties": {"addr:housenumber": "60", "addr:street": "Wadsworth Street", "alt_name": "Eastgate (Family Housing)", "architect": "Catalano Cooper", "building": "apartments", "building:height": "80", "building:levels": "30", "campusbuilding": "yes", "description": "Graduate family residence", "name": "Eastgate", "ref": "E55", "source": "image"}}, {"type": "Feature", "id": 29616889, "geometry": {"type": "Polygon", "coordinates": [[[-71.084728, 42.363862], [-71.085196, 42.364059], [-71.084948, 42.364383], [-71.08448, 42.364186], [-71.084728, 42.363862]]]}, "properties": {"building": "yes"}}, {"type": "Feature", "id": 29617037, "geometry": {"type": "Polygon", "coordinates": [[[-71.085175, 42.363391], [-71.085703, 42.363616], [-71.085572, 42.363784], [-71.085558, 42.363801], [-71.085607, 42.363822], [-71.085569, 42.363871], [-71.084992, 42.363625], [-71.085175, 42.363391]]]}, "properties": {"addr:housenumber": "33", "addr:street": "Broadway", "building": "yes"}}, {"type": "Feature", "id": 29618861, "geometry": {"type": "Polygon", "coordinates": [[[-71.084865, 42.361317], [-71.084841, 42.361275], [-71.084704, 42.361319], [-71.0847, 42.36139], [-71.084434, 42.36138], [-71.084445, 42.361208], [-71.084446, 42.361202], [-71.084446, 42.361197], [-71.084448, 42.361193], [-71.084449, 42.361188], [-71.084451, 42.361184], [-71.084453, 42.361179], [-71.084456, 42.361175], [-71.084459, 42.361171], [-71.084462, 42.361166], [-71.084465, 42.361162], [-71.084469, 42.361159], [-71.084473, 42.361155], [-71.084477, 42.361151], [-71.084481, 42.361148], [-71.084486, 42.361145], [-71.084491, 42.361142], [-71.084496, 42.361139], [-71.084501, 42.361136], [-71.084507, 42.361134], [-71.084512, 42.361132], [-71.084518, 42.36113], [-71.084731, 42.361073], [-71.084772, 42.361062], [-71.085201, 42.360912], [-71.085279, 42.361019], [-71.085258, 42.361138], [-71.084987, 42.361225], [-71.085013, 42.36127], [-71.084865, 42.361317]]]}, "properties": {"addr:housename": "Muckley Building", "addr:housenumber": "1", "addr:state": "MA", "addr:street": "Amherst Street", "alt_name": "Building E40", "building": "university", "campusbuilding": "yes", "ele": "3", "gnis:county_name": "Middlesex", "gnis:feature_id": "1971558", "gnis:import_uuid": "57871b70-0100-4405-bb30-88b2e001a944", "gnis:reviewed": "no", "name": "E40", "ref": "E40", "source": "USGS Geonames"}}, {"type": "Feature", "id": 29626637, "geometry": {"type": "Polygon", "coordinates": [[[-71.083518, 42.363965], [-71.08445, 42.364368], [-71.084392, 42.364624], [-71.084632, 42.36466], [-71.084607, 42.364745], [-71.083949, 42.364643], [-71.083983, 42.364512], [-71.084092, 42.364524], [-71.084119, 42.364431], [-71.083651, 42.364225], [-71.083475, 42.364535], [-71.083306, 42.364484], [-71.083339, 42.364426], [-71.083264, 42.364401], [-71.083518, 42.363965]]]}, "properties": {"addr:housenumber": "295;301;303", "addr:street": "Third Street", "building": "yes", "source": "imagery"}}, {"type": "Feature", "id": 29650622, "geometry": {"type": "Polygon", "coordinates": [[[-71.08561, 42.363818], [-71.085692, 42.363853], [-71.085702, 42.363839], [-71.085763, 42.363864], [-71.085826, 42.363891], [-71.085815, 42.363904], [-71.085919, 42.363948], [-71.08576, 42.364155], [-71.085672, 42.364269], [-71.085606, 42.364354], [-71.085451, 42.364289], [-71.085297, 42.364224], [-71.085396, 42.364095], [-71.085413, 42.364073], [-71.085479, 42.363988], [-71.085569, 42.363871], [-71.085607, 42.363822], [-71.08561, 42.363818]]]}, "properties": {"addr:housenumber": "55", "addr:postcode": "02142", "addr:street": "Broadway", "attribution": "Office of Geographic and Environmental Information (MassGIS)", "building": "yes", "building:levels": "14", "name": "Volpe National Transportation Systems Center", "office": "government", "region": "Metrowest", "type": "special", "wheelchair": "yes"}}, {"type": "Feature", "id": 29742243, "geometry": {"type": "Polygon", "coordinates": [[[-71.085668, 42.362005], [-71.085637, 42.362246], [-71.085254, 42.362217], [-71.085289, 42.361955], [-71.085671, 42.361983], [-71.085668, 42.362005]]]}, "properties": {"addr:housename": "Building E39", "building": "university", "building:levels": "3", "campusbuilding": "yes", "name": "E39", "ref": "E39"}}, {"type": "Feature", "id": 29810111, "geometry": {"type": "Polygon", "coordinates": [[[-71.08316, 42.364577], [-71.083254, 42.364606], [-71.083285, 42.364551], [-71.083624, 42.364664], [-71.08355, 42.364793], [-71.083382, 42.364742], [-71.083303, 42.364878], [-71.083454, 42.364899], [-71.084229, 42.365004], [-71.084238, 42.364968], [-71.084246, 42.364933], [-71.084199, 42.364927], [-71.084229, 42.364783], [-71.084572, 42.364829], [-71.084475, 42.365237], [-71.082911, 42.365031], [-71.08316, 42.364577]]]}, "properties": {"addr:housenumber": "285", "addr:postcode": "02142", "addr:street": "Third Street", "building": "apartments", "building:levels": "8", "name": "Third Square Apartments", "source": "imagery", "website": "https://www.equityapartments.com/boston/kendall-square/third-square-apartments"}}, {"type": "Feature", "id": 29863317, "geometry": {"type": "Polygon", "coordinates": [[[-71.084334, 42.361919], [-71.085142, 42.361979], [-71.085111, 42.362207], [-71.084304, 42.362147], [-71.084334, 42.361919]]]}, "properties": {"addr:housenumber": "238", "addr:street": "Main Street", "alt_name": "Building E48", "building": "university", "building:levels": "5", "campusbuilding": "yes", "material": "brick", "name": "E48", "ref": "E48"}}, {"type": "Feature", "id": 29869835, "geometry": {"type": "Polygon", "coordinates": [[[-71.085778, 42.364312], [-71.085922, 42.364373], [-71.086065, 42.364433], [-71.086254, 42.364513], [-71.086038, 42.364796], [-71.086017, 42.364822], [-71.085541, 42.364621], [-71.085778, 42.364312]]]}, "properties": {"building": "yes"}}, {"type": "Feature", "id": 29944552, "geometry": {"type": "Polygon", "coordinates": [[[-71.085575, 42.363037], [-71.085604, 42.36286], [-71.085642, 42.362571], [-71.085695, 42.362575], [-71.085701, 42.362527], [-71.084798, 42.36246], [-71.084792, 42.362501], [-71.084712, 42.362494], [-71.084699, 42.362589], [-71.08478, 42.362594], [-71.084767, 42.362686], [-71.084836, 42.362691], [-71.085575, 42.363037]]]}, "properties": {"addr:housenumber": "255", "addr:street": "Main Street", "alt_name": "Building NE18", "building": "university", "building:levels": "13", "campusbuilding": "yes", "name": "NE18", "ref": "NE18"}}, {"type": "Feature", "id": 132601295, "geometry": {"type": "Polygon", "coordinates": [[[-71.085637, 42.362246], [-71.085668, 42.362005], [-71.08608, 42.362036], [-71.086069, 42.362123], [-71.086048, 42.362276], [-71.085637, 42.362246]]]}, "properties": {"addr:housename": "Suffolk Building", "addr:housenumber": "292", "addr:state": "MA", "addr:street": "Main Street", "alt_name": "Building E38", "building": "university", "building:levels": "6", "campusbuilding": "yes", "ele": "3", "gnis:county_name": "Middlesex", "gnis:feature_id": "1971793", "gnis:import_uuid": "57871b70-0100-4405-bb30-88b2e001a944", "gnis:reviewed": "no", "name": "E38", "ref": "E38", "source": "USGS Geonames; MassGIS Buildings (http://www.mass.gov/mgis/lidarbuildingfp2d.htm)"}}, {"type": "Feature", "id": 141434940, "geometry": {"type": "Polygon", "coordinates": [[[-71.083726, 42.36313], [-71.084063, 42.362672], [-71.083721, 42.362526], [-71.083704, 42.362551], [-71.083591, 42.36251], [-71.083508, 42.362481], [-71.083428, 42.362456], [-71.083337, 42.362435], [-71.083278, 42.362423], [-71.083174, 42.362405], [-71.083092, 42.362394], [-71.083035, 42.362392], [-71.082968, 42.362938], [-71.083632, 42.363108], [-71.08364, 42.363096], [-71.083726, 42.36313]]]}, "properties": {"addr:city": "Cambridge", "addr:housename": "Badger Building", "addr:housenumber": "1", "addr:postcode": "02142", "addr:street": "Broadway", "alt_name": "Building E70", "building": "commercial", "building:levels": "26", "campusbuilding": "yes", "name": "One Broadway", "operator": "Massachusetts Institute of Technology", "ref": "E70", "source": "Bing"}}, {"type": "Feature", "id": 141451508, "geometry": {"type": "Polygon", "coordinates": [[[-71.086184, 42.364857], [-71.0861, 42.364821], [-71.086171, 42.364728], [-71.086255, 42.364763], [-71.086249, 42.36477], [-71.086184, 42.364857]]]}, "properties": {"building": "yes", "source": "Bing"}}, {"type": "Feature", "id": 141451517, "geometry": {"type": "Polygon", "coordinates": [[[-71.085137, 42.364301], [-71.085142, 42.364301], [-71.085146, 42.364302], [-71.085151, 42.364302], [-71.085156, 42.364303], [-71.08516, 42.364305], [-71.085165, 42.364306], [-71.085169, 42.364308], [-71.085173, 42.36431], [-71.085177, 42.364312], [-71.085181, 42.364314], [-71.085184, 42.364317], [-71.085188, 42.36432], [-71.085191, 42.364322], [-71.085193, 42.364325], [-71.085196, 42.364328], [-71.085198, 42.364333], [-71.0852, 42.364337], [-71.085201, 42.36434], [-71.085202, 42.364343], [-71.085202, 42.364347], [-71.085202, 42.364351], [-71.085202, 42.364354], [-71.085202, 42.364358], [-71.085201, 42.364361], [-71.0852, 42.364365], [-71.085198, 42.364368], [-71.085196, 42.364371], [-71.085194, 42.364375], [-71.085192, 42.364378], [-71.085189, 42.364381], [-71.085186, 42.364384], [-71.085183, 42.364386], [-71.085179, 42.364389], [-71.085175, 42.364391], [-71.085171, 42.364393], [-71.085167, 42.364395], [-71.085163, 42.364397], [-71.085159, 42.364398], [-71.085154, 42.364399], [-71.085149, 42.3644], [-71.085145, 42.364401], [-71.08514, 42.364402], [-71.085135, 42.364402], [-71.08513, 42.364402], [-71.085125, 42.364402], [-71.08512, 42.364401], [-71.085116, 42.3644], [-71.085111, 42.364399], [-71.085107, 42.364398], [-71.085102, 42.364397], [-71.085098, 42.364395], [-71.085094, 42.364393], [-71.08509, 42.364391], [-71.085086, 42.364388], [-71.085083, 42.364386], [-71.085079, 42.364383], [-71.085076, 42.364381], [-71.085074, 42.364378], [-71.085071, 42.364374], [-71.085069, 42.364371], [-71.085067, 42.364368], [-71.085066, 42.364363], [-71.085065, 42.364359], [-71.085065, 42.364356], [-71.085064, 42.364352], [-71.085065, 42.364349], [-71.085065, 42.364345], [-71.085066, 42.364342], [-71.085067, 42.364338], [-71.085069, 42.364335], [-71.085071, 42.364331], [-71.085073, 42.364328], [-71.085075, 42.364325], [-71.085078, 42.364322], [-71.085081, 42.364319], [-71.085084, 42.364316], [-71.085088, 42.364314], [-71.085091, 42.364312], [-71.085095, 42.364309], [-71.085099, 42.364308], [-71.085104, 42.364306], [-71.085108, 42.364305], [-71.085113, 42.364303], [-71.085117, 42.364302], [-71.085122, 42.364302], [-71.085127, 42.364301], [-71.085132, 42.364301], [-71.085137, 42.364301]]]}, "properties": {"building": "yes", "man_made": "storage_tank"}}, {"type": "Feature", "id": 155437850, "geometry": {"type": "Polygon", "coordinates": [[[-71.084868, 42.362246], [-71.086085, 42.362337], [-71.086098, 42.362243], [-71.086234, 42.362253], [-71.08623, 42.36228], [-71.086167, 42.362743], [-71.086126, 42.36274], [-71.086128, 42.362727], [-71.086146, 42.362594], [-71.086047, 42.362586], [-71.086056, 42.362522], [-71.084843, 42.362431], [-71.084868, 42.362246]]]}, "properties": {"building": "train_station", "layer": "-1", "location": "underground", "name": "Kendall/MIT Station"}}, {"type": "Feature", "id": 177921760, "geometry": {"type": "Polygon", "coordinates": [[[-71.086805, 42.360574], [-71.086775, 42.360801], [-71.086783, 42.360802], [-71.086795, 42.360803], [-71.086744, 42.361135], [-71.08674, 42.361171], [-71.086785, 42.361175], [-71.086781, 42.361218], [-71.086741, 42.361215], [-71.086718, 42.361383], [-71.086427, 42.361483], [-71.086554, 42.360652], [-71.086771, 42.360585], [-71.086805, 42.360574]]]}, "properties": {"addr:city": "Cambridge", "addr:housename": "Health Services", "addr:housenumber": "25", "addr:postcode": "02142", "addr:state": "MA", "addr:street": "Carleton Street", "alt_name": "Building E23", "building": "university", "building:levels": "6", "campusbuilding": "yes", "name": "MIT Medical", "wheelchair": "yes"}}, {"type": "Feature", "id": 212292413, "geometry": {"type": "Polygon", "coordinates": [[[-71.0844, 42.363783], [-71.084355, 42.363844], [-71.084303, 42.363823], [-71.084348, 42.363762], [-71.0844, 42.363783]]]}, "properties": {"addr:housenumber": "20", "addr:street": "Potter Street", "building": "yes"}}, {"type": "Feature", "id": 212292958, "geometry": {"type": "Polygon", "coordinates": [[[-71.086823, 42.359749], [-71.086803, 42.359755], [-71.086821, 42.35979], [-71.086743, 42.359812], [-71.086713, 42.359753], [-71.086768, 42.359738], [-71.086764, 42.359729], [-71.086807, 42.359717], [-71.086823, 42.359749]]]}, "properties": {"building": "yes"}}, {"type": "Feature", "id": 220087810, "geometry": {"type": "Polygon", "coordinates": [[[-71.086258, 42.362155], [-71.086186, 42.36215], [-71.086181, 42.362182], [-71.08615, 42.362179], [-71.086137, 42.362273], [-71.08623, 42.36228], [-71.086234, 42.362253], [-71.086244, 42.362254], [-71.086258, 42.362155]]]}, "properties": {"building": "train_station"}}, {"type": "Feature", "id": 652081719, "geometry": {"type": "Polygon", "coordinates": [[[-71.085765, 42.361522], [-71.085785, 42.361354], [-71.085872, 42.36136], [-71.085868, 42.361396], [-71.086162, 42.361415], [-71.086146, 42.361547], [-71.085765, 42.361522]]]}, "properties": {"addr:housenumber": "42;44", "addr:street": "Carleton Street", "building": "yes"}}, {"type": "Feature", "id": 702152174, "geometry": {"type": "Polygon", "coordinates": [[[-71.086253, 42.362862], [-71.086157, 42.362854], [-71.086172, 42.362746], [-71.086193, 42.362606], [-71.086198, 42.362566], [-71.08631, 42.362575], [-71.086353, 42.362578], [-71.086347, 42.362619], [-71.086291, 42.362615], [-71.086253, 42.362862]]]}, "properties": {"building": "roof"}}, {"type": "Feature", "id": 712133787, "geometry": {"type": "Polygon", "coordinates": [[[-71.085795, 42.361212], [-71.086187, 42.361241], [-71.086169, 42.361378], [-71.085777, 42.361348], [-71.085795, 42.361212]]]}, "properties": {"building": "yes"}}]}