{"type": "FeatureCollection", "features": [{"type": "Feature", "id": 29127389, "geometry": {"type": "Polygon", "coordinates": [[[-71.096321, 42.358852], [-71.095978, 42.358307], [-71.095669, 42.358415], [-71.095377, 42.358542], [-71.09518, 42.358669], [-71.095317, 42.358821], [-71.095334, 42.358922], [-71.095394, 42.358992], [-71.095437, 42.35903], [-71.095477, 42.359161], [-71.096105, 42.358848], [-71.096167, 42.358916], [-71.096321, 42.358852]]]}, "properties": {"addr:housenumber": "106;120", "addr:state": "MA", "addr:street": "Vassar Street", "building": "university", "campusbuilding": "yes", "ele": "3", "gnis:county_name": "Middlesex", "gnis:feature_id": "1971038", "gnis:import_uuid": "57871b70-0100-4405-bb30-88b2e001a944", "gnis:reviewed": "no", "name": "Zesiger Sports & Fitness Center", "ref": "W35", "source": "USGS Geonames", "wikidata": "Q8069682"}}, {"type": "Feature", "id": 24494019, "geometry": {"type": "Polygon", "coordinates": [[[-71.095329, 42.359086], [-71.094437, 42.359383], [-71.094212, 42.359013], [-71.094467, 42.358928], [-71.094838, 42.358805], [-71.095104, 42.358716], [-71.095329, 42.359086]]]}, "properties": {"addr:city": "Cambridge", "addr:housename": "Stratton Student Center", "addr:housenumber": "84", "addr:postcode": "02139", "addr:state": "MA", "addr:street": "Massachusetts Avenue", "alt_name": "Building W20", "architect": "Catalano, Brannen, Shimamoto", "building": "university", "building:levels": "5", "building:material": "concrete", "campusbuilding": "yes", "name": "Stratton Student Center (W20)", "ref": "W20", "roof:material": "concrete", "roof:shape": "flat"}}, {"type": "Feature", "id": 29860015, "geometry": {"type": "Polygon", "coordinates": [[[-71.093072, 42.362259], [-71.093156, 42.362361], [-71.093598, 42.362394], [-71.093582, 42.362513], [-71.0934, 42.362499], [-71.093397, 42.362527], [-71.093573, 42.36254], [-71.09353, 42.362857], [-71.093399, 42.362848], [-71.093428, 42.362635], [-71.093384, 42.362632], [-71.093356, 42.362844], [-71.092541, 42.362784], [-71.092451, 42.362569], [-71.093072, 42.362259]]]}, "properties": {"building": "yes", "created_by": "Potlatch 0.10f"}}, {"type": "Feature", "id": 32499809, "geometry": {"type": "Polygon", "coordinates": [[[-71.093492, 42.359572], [-71.093398, 42.359603], [-71.093433, 42.359661], [-71.093379, 42.359679], [-71.093374, 42.359671], [-71.093301, 42.359695], [-71.093306, 42.359704], [-71.093293, 42.359708], [-71.09331, 42.359736], [-71.093326, 42.359762], [-71.093339, 42.359758], [-71.09339, 42.359844], [-71.093379, 42.359848], [-71.093412, 42.359904], [-71.093423, 42.3599], [-71.093427, 42.359908], [-71.093504, 42.359883], [-71.093498, 42.359873], [-71.093549, 42.359856], [-71.093607, 42.359955], [-71.093707, 42.359923], [-71.093648, 42.359823], [-71.093701, 42.359806], [-71.093706, 42.359815], [-71.093738, 42.359804], [-71.093742, 42.359812], [-71.093731, 42.359816], [-71.093762, 42.35987], [-71.093774, 42.359866], [-71.093779, 42.359874], [-71.093886, 42.35984], [-71.093881, 42.359831], [-71.093892, 42.359828], [-71.093861, 42.359775], [-71.093848, 42.359779], [-71.093844, 42.359771], [-71.093778, 42.359792], [-71.093772, 42.359782], [-71.093785, 42.359778], [-71.093753, 42.359726], [-71.093739, 42.35973], [-71.093686, 42.359641], [-71.093698, 42.359637], [-71.093667, 42.359584], [-71.093653, 42.359589], [-71.093648, 42.35958], [-71.093581, 42.359603], [-71.093586, 42.359611], [-71.093527, 42.35963], [-71.093492, 42.359572]]]}, "properties": {"addr:city": "Cambridge", "addr:housenumber": "105", "addr:postcode": "02139", "addr:state": "MA", "addr:street": "Massachusetts Avenue", "alt_name": "Building 9", "building": "university", "building:levels": "6", "campusbuilding": "yes", "name": "9 Samuel Tak Lee Building", "ref": "9"}}, {"type": "Feature", "id": 32517230, "geometry": {"type": "Polygon", "coordinates": [[[-71.092727, 42.359242], [-71.092821, 42.359397], [-71.093025, 42.359329], [-71.093056, 42.359378], [-71.093153, 42.359346], [-71.093322, 42.359626], [-71.093398, 42.359603], [-71.093492, 42.359572], [-71.093559, 42.35955], [-71.093387, 42.359263], [-71.093396, 42.35926], [-71.093384, 42.35924], [-71.093409, 42.359232], [-71.093347, 42.359129], [-71.093281, 42.35902], [-71.093254, 42.359029], [-71.093242, 42.359009], [-71.093231, 42.359012], [-71.093013, 42.359084], [-71.092899, 42.359123], [-71.09293, 42.359175], [-71.092727, 42.359242]]]}, "properties": {"addr:city": "Cambridge", "addr:housenumber": "77", "addr:postcode": "02139", "addr:state": "MA", "addr:street": "Massachusetts Avenue", "alt_name": "Rogers Building", "building": "university", "building:colour": "#EEEEEE", "building:levels": "6", "building:material": "stone", "campusbuilding": "yes", "gnis:feature_id": "1971695", "name": "7 Rogers Building", "ref": "7", "source": "Massachusetts Institute of Technology - Facility Information Systems"}}, {"type": "Feature", "id": 32525033, "geometry": {"type": "Polygon", "coordinates": [[[-71.093242, 42.360101], [-71.093471, 42.36048], [-71.092868, 42.36066], [-71.092671, 42.360337], [-71.092696, 42.36033], [-71.092671, 42.360286], [-71.093242, 42.360101]]]}, "properties": {"addr:housename": "Sloan Laboratories", "addr:housenumber": "70R", "addr:state": "MA", "addr:street": "Vassar Street", "alt_name": "Building 31", "building": "university", "building:levels": "4", "campusbuilding": "yes", "ele": "3", "gnis:county_name": "Middlesex", "gnis:feature_id": "1971760", "gnis:import_uuid": "57871b70-0100-4405-bb30-88b2e001a944", "gnis:reviewed": "no", "name": "31 Sloan Labs for Aircraft and Auto Engineering", "ref": "31", "source": "Massachusetts Institute of Technology - Facility Information Systems;USGS Geonames"}}, {"type": "Feature", "id": 32525279, "geometry": {"type": "Polygon", "coordinates": [[[-71.093598, 42.360692], [-71.092957, 42.360888], [-71.092851, 42.360711], [-71.093503, 42.360514], [-71.093548, 42.360599], [-71.093598, 42.360692]]]}, "properties": {"addr:housename": "McNair Building", "addr:housenumber": "70", "addr:state": "MA", "addr:street": "Vassar Street", "alt_name": "Building 37", "building": "university", "building:levels": "7", "campusbuilding": "yes", "ele": "3", "gnis:county_name": "Middlesex", "gnis:feature_id": "1971533", "gnis:import_uuid": "57871b70-0100-4405-bb30-88b2e001a944", "gnis:reviewed": "no", "name": "37 McNair Center for Space Research", "ref": "37", "source": "Massachusetts Institute of Technology - Facility Information Systems;USGS Geonames"}}, {"type": "Feature", "id": 32526802, "geometry": {"type": "Polygon", "coordinates": [[[-71.093388, 42.360036], [-71.093518, 42.360254], [-71.093661, 42.360211], [-71.093545, 42.359986], [-71.093388, 42.360036]]]}, "properties": {"addr:housename": "Wright Brothers Wind Tunnel", "addr:state": "MA", "alt_name": "Building 17", "building": "university", "building:levels": "1", "ele": "3", "gnis:county_name": "Middlesex", "gnis:feature_id": "1971879", "gnis:import_uuid": "57871b70-0100-4405-bb30-88b2e001a944", "gnis:reviewed": "no", "name": "17 Wright Brothers Wind Tunnel", "ref": "17", "source": "USGS Geonames"}}, {"type": "Feature", "id": 132601297, "geometry": {"type": "Polygon", "coordinates": [[[-71.093913, 42.360748], [-71.093408, 42.360989], [-71.093487, 42.361076], [-71.093375, 42.361132], [-71.093117, 42.361261], [-71.093135, 42.361281], [-71.092816, 42.361442], [-71.092902, 42.361536], [-71.093695, 42.361136], [-71.093943, 42.361015], [-71.094087, 42.360942], [-71.093913, 42.360748]]]}, "properties": {"addr:housenumber": "57;59;71;77", "addr:street": "Vassar Street", "building": "university", "campusbuilding": "yes", "name": "William R. Dickson Cogeneration Plant", "ref": "42"}}, {"type": "Feature", "id": 132601562, "geometry": {"type": "Polygon", "coordinates": [[[-71.095499, 42.359332], [-71.094691, 42.359607], [-71.094588, 42.359436], [-71.095386, 42.359157], [-71.095499, 42.359332]]]}, "properties": {"addr:state": "MA", "building": "university", "campusbuilding": "yes", "ele": "3", "gnis:county_name": "Middlesex", "gnis:feature_id": "1971188", "gnis:import_uuid": "57871b70-0100-4405-bb30-88b2e001a944", "gnis:reviewed": "no", "leisure": "sports_centre", "name": "du Pont Athletic Center", "ref": "W32", "source": "USGS Geonames"}}, {"type": "Feature", "id": 29127393, "geometry": {"type": "Polygon", "coordinates": [[[-71.094691, 42.359607], [-71.095499, 42.359332], [-71.095686, 42.35962], [-71.094845, 42.359937], [-71.094742, 42.359817], [-71.094656, 42.359836], [-71.094639, 42.359804], [-71.094716, 42.359772], [-71.094639, 42.359626], [-71.094691, 42.359607]]]}, "properties": {"addr:housenumber": "120", "building": "university", "building:levels": "2", "campusbuilding": "yes", "name": "du Pont Athletic Gymnasium", "ref": "W31", "roof:levels": "2"}}, {"type": "Feature", "id": 29559726, "geometry": {"type": "Polygon", "coordinates": [[[-71.093943, 42.361015], [-71.094113, 42.361205], [-71.094195, 42.361297], [-71.093947, 42.361418], [-71.093695, 42.361136], [-71.093943, 42.361015]]]}, "properties": {"building": "university", "campusbuilding": "yes", "name": "N16 Cooling Tower", "ref": "N16"}}, {"type": "Feature", "id": 29566805, "geometry": {"type": "Polygon", "coordinates": [[[-71.094517, 42.360465], [-71.094636, 42.360601], [-71.094455, 42.360688], [-71.094336, 42.360551], [-71.094517, 42.360465]]]}, "properties": {"building": "yes", "created_by": "Potlatch 0.10f"}}, {"type": "Feature", "id": 29569108, "geometry": {"type": "Polygon", "coordinates": [[[-71.093913, 42.360748], [-71.094219, 42.360602], [-71.09439, 42.36079], [-71.094087, 42.360942], [-71.093913, 42.360748]]]}, "properties": {"building": "university", "ref": "41"}}, {"type": "Feature", "id": 29650658, "geometry": {"type": "Polygon", "coordinates": [[[-71.095496, 42.360742], [-71.095616, 42.360875], [-71.095457, 42.360953], [-71.095478, 42.360977], [-71.095414, 42.361008], [-71.095273, 42.360852], [-71.095496, 42.360742]]]}, "properties": {"addr:city": "Cambridge", "addr:housenumber": "155", "addr:postcode": "02139", "addr:state": "MA", "addr:street": "Massachusetts Avenue", "architect": "Carleton Richmond Jr.", "building": "university", "campusbuilding": "yes", "name": "High Voltage Research Lab (N10)", "ref": "N10"}}, {"type": "Feature", "id": 29714576, "geometry": {"type": "Polygon", "coordinates": [[[-71.094351, 42.361089], [-71.094578, 42.361343], [-71.094451, 42.361405], [-71.094306, 42.361243], [-71.094195, 42.361297], [-71.094113, 42.361205], [-71.094351, 42.361089]]]}, "properties": {"addr:housenumber": "60", "addr:street": "Albany Street", "building": "university", "campusbuilding": "yes", "ref": "N16A"}}, {"type": "Feature", "id": 29739496, "geometry": {"type": "Polygon", "coordinates": [[[-71.095206, 42.36081], [-71.095367, 42.360995], [-71.095159, 42.361095], [-71.095043, 42.36096], [-71.0951, 42.360933], [-71.095056, 42.360882], [-71.095206, 42.36081]]]}, "properties": {"addr:city": "Cambridge", "addr:housenumber": "68", "addr:postcode": "02139", "addr:state": "MA", "addr:street": "Albany Street", "building": "university", "campusbuilding": "yes", "name": "Superconducting  Test Facility (N9)", "ref": "N9"}}, {"type": "Feature", "id": 29803955, "geometry": {"type": "Polygon", "coordinates": [[[-71.096761, 42.359314], [-71.09696, 42.359543], [-71.096275, 42.35987], [-71.096238, 42.359828], [-71.096007, 42.359938], [-71.096047, 42.359985], [-71.095405, 42.360309], [-71.095127, 42.360143], [-71.096761, 42.359314]]]}, "properties": {"building": "warehouse", "building:levels": "5", "description": "Fire proof! Now owned by M.I.T., potential new location for School of Architecture and Planning", "name": "Metropolitan Storage Warehouse", "roof:levels": "0"}}, {"type": "Feature", "id": 29804458, "geometry": {"type": "Polygon", "coordinates": [[[-71.095171, 42.36203], [-71.095191, 42.361885], [-71.095353, 42.361897], [-71.095207, 42.362983], [-71.094797, 42.362952], [-71.094899, 42.362192], [-71.095147, 42.362211], [-71.095171, 42.36203]]]}, "properties": {"building": "yes", "created_by": "Potlatch 0.10f"}}, {"type": "Feature", "id": 29946359, "geometry": {"type": "Polygon", "coordinates": [[[-71.095191, 42.361885], [-71.095171, 42.36203], [-71.095101, 42.362033], [-71.095011, 42.362025], [-71.094914, 42.361991], [-71.094876, 42.36197], [-71.094944, 42.36191], [-71.095017, 42.361414], [-71.095174, 42.361427], [-71.09517, 42.361474], [-71.095257, 42.361478], [-71.095289, 42.361227], [-71.095452, 42.361164], [-71.095353, 42.361897], [-71.095191, 42.361885]]]}, "properties": {"addr:housenumber": "700;710", "addr:street": "Main Street", "building": "yes"}}, {"type": "Feature", "id": 32526782, "geometry": {"type": "Polygon", "coordinates": [[[-71.093707, 42.359923], [-71.093773, 42.359897], [-71.094004, 42.360311], [-71.093815, 42.360413], [-71.093798, 42.360375], [-71.093625, 42.360433], [-71.093518, 42.360254], [-71.093661, 42.360211], [-71.093703, 42.360211], [-71.093556, 42.359976], [-71.093607, 42.359955], [-71.093707, 42.359923]]]}, "properties": {"addr:housename": "Guggenheim Laboratory", "addr:housenumber": "125", "addr:state": "MA", "addr:street": "Massachusetts Avenue", "alt_name": "Building 33", "building": "university", "building:levels": "5", "ele": "3", "gnis:county_name": "Middlesex", "gnis:feature_id": "1971306", "gnis:import_uuid": "57871b70-0100-4405-bb30-88b2e001a944", "gnis:reviewed": "no", "name": "33 Guggenheim Aeronautical Laboratory", "ref": "33", "source": "Massachusetts Institute of Technology - Facility Information Systems;USGS Geonames"}}, {"type": "Feature", "id": 32526807, "geometry": {"type": "Polygon", "coordinates": [[[-71.094004, 42.360311], [-71.094347, 42.360134], [-71.094459, 42.360267], [-71.093695, 42.360635], [-71.093646, 42.360563], [-71.0936, 42.360495], [-71.093815, 42.360413], [-71.094004, 42.360311]]]}, "properties": {"addr:housenumber": "127", "addr:state": "MA", "addr:street": "Massachusetts Avenue", "alt_name": "Sloan Laboratory", "building": "university", "building:levels": "5", "campusbuilding": "yes", "ele": "3", "gnis:county_name": "Middlesex", "gnis:feature_id": "1971761", "gnis:import_uuid": "57871b70-0100-4405-bb30-88b2e001a944", "gnis:reviewed": "no", "name": "Sloan Laboratory (35)", "ref": "35", "source": "Massachusetts Institute of Technology - Facility Information Systems;USGS Geonames"}}, {"type": "Feature", "id": 207075847, "geometry": {"type": "Polygon", "coordinates": [[[-71.093947, 42.361418], [-71.094056, 42.36154], [-71.094304, 42.361419], [-71.094195, 42.361297], [-71.093947, 42.361418]]]}, "properties": {"building": "yes"}}, {"type": "Feature", "id": 212292442, "geometry": {"type": "Polygon", "coordinates": [[[-71.094916, 42.360367], [-71.094861, 42.360396], [-71.094833, 42.360366], [-71.094888, 42.360338], [-71.094916, 42.360367]]]}, "properties": {"addr:housenumber": "135;139", "addr:street": "Massachusetts Avenue", "amenity": "atm", "building": "kiosk", "operator": "Bank of America"}}, {"type": "Feature", "id": 409936847, "geometry": {"type": "Polygon", "coordinates": [[[-71.094715, 42.362097], [-71.094772, 42.361672], [-71.094721, 42.361608], [-71.094767, 42.361586], [-71.094703, 42.361509], [-71.094187, 42.36174], [-71.094217, 42.361777], [-71.094096, 42.361831], [-71.09409, 42.361894], [-71.094039, 42.361893], [-71.094025, 42.362045], [-71.094715, 42.362097]]]}, "properties": {"addr:housenumber": "1", "addr:postcode": "02139", "addr:street": "Portland Street", "building": "commercial", "building:levels": "7", "name": "Pfizer"}}, {"type": "Feature", "id": 409936848, "geometry": {"type": "Polygon", "coordinates": [[[-71.094318, 42.362551], [-71.094362, 42.362188], [-71.093857, 42.362154], [-71.093791, 42.362685], [-71.094297, 42.362719], [-71.094318, 42.362551]]]}, "properties": {"building": "yes", "building:part": "yes"}}, {"type": "Feature", "id": 409936849, "geometry": {"type": "Polygon", "coordinates": [[[-71.094601, 42.362945], [-71.094648, 42.362573], [-71.094318, 42.362551], [-71.094362, 42.362188], [-71.093857, 42.362154], [-71.093791, 42.362685], [-71.093766, 42.362889], [-71.094601, 42.362945]]]}, "properties": {"addr:housenumber": "610", "addr:street": "Main Street", "building": "commercial"}}, {"type": "Feature", "id": 32517556, "geometry": {"type": "Polygon", "coordinates": [[[-71.093231, 42.359012], [-71.092824, 42.358339], [-71.09277, 42.358354], [-71.092604, 42.358409], [-71.092613, 42.358424], [-71.093013, 42.359084], [-71.093231, 42.359012]]]}, "properties": {"addr:housename": "Pratt School", "addr:housenumber": "55", "addr:state": "MA", "addr:street": "Massachusetts Avenue", "alt_name": "Building 5", "building": "university", "building:levels": "4", "campusbuilding": "yes", "ele": "3", "gnis:county_name": "Middlesex", "gnis:feature_id": "1971665", "gnis:import_uuid": "57871b70-0100-4405-bb30-88b2e001a944", "gnis:reviewed": "no", "name": "5 Pratt School of Naval Architecture and Marine Engineering", "operator": "Massachusetts Institute of Technology", "ref": "5", "source": "USGS Geonames"}}, {"type": "Feature", "id": 32517406, "geometry": {"type": "Polygon", "coordinates": [[[-71.092821, 42.359397], [-71.092602, 42.359468], [-71.092288, 42.359569], [-71.09226, 42.359522], [-71.092193, 42.35941], [-71.092508, 42.359307], [-71.092063, 42.358565], [-71.092051, 42.358569], [-71.092011, 42.358503], [-71.09197, 42.358434], [-71.092146, 42.358376], [-71.092154, 42.35839], [-71.092208, 42.358376], [-71.0923, 42.358527], [-71.092727, 42.359242], [-71.092821, 42.359397]]]}, "properties": {"addr:housename": "Maclaurin Buildings (3)", "alt_name": "Building 3", "building": "university", "building:levels": "6", "campusbuilding": "yes", "name": "3", "ref": "3", "source": "Massachusetts Institute of Technology - Facility Information Systems"}}, {"type": "Feature", "id": 32517654, "geometry": {"type": "Polygon", "coordinates": [[[-71.091694, 42.35971], [-71.091726, 42.359762], [-71.091196, 42.359939], [-71.091105, 42.359788], [-71.090899, 42.359453], [-71.090662, 42.35907], [-71.090572, 42.358921], [-71.090624, 42.358904], [-71.090618, 42.358894], [-71.090789, 42.358837], [-71.090824, 42.358893], [-71.090867, 42.358965], [-71.090859, 42.358967], [-71.091308, 42.359712], [-71.091632, 42.359606], [-71.091694, 42.35971]]]}, "properties": {"addr:housename": "Building 4", "alt_name": "Maclaurin Buildings (4)", "building": "university", "name": "4", "ref": "4", "source": "Massachusetts Institute of Technology - Facility Information Systems"}}, {"type": "Feature", "id": 17660188, "geometry": {"type": "Polygon", "coordinates": [[[-71.091834, 42.362683], [-71.090694, 42.362593], [-71.091173, 42.362376], [-71.091088, 42.3623], [-71.091482, 42.362128], [-71.091397, 42.362033], [-71.0918, 42.361837], [-71.092358, 42.362446], [-71.091834, 42.362683]]]}, "properties": {"addr:city": "Cambridge", "addr:housename": "Brain & Cognitive Science Complex", "addr:housenumber": "43", "addr:postcode": "02139", "addr:state": "MA", "addr:street": "Vassar Street", "alt_name": "Building 46", "building": "university", "campusbuilding": "yes", "name": "Brain and Cognitive Sciences (46)", "ref": "46"}}, {"type": "Feature", "id": 27078002, "geometry": {"type": "Polygon", "coordinates": [[[-71.090725, 42.361916], [-71.090701, 42.362025], [-71.090619, 42.362017], [-71.090665, 42.36205], [-71.090615, 42.362064], [-71.090614, 42.362094], [-71.090567, 42.36209], [-71.090546, 42.362117], [-71.090491, 42.362125], [-71.090452, 42.362085], [-71.090383, 42.362128], [-71.090317, 42.362057], [-71.09027, 42.362102], [-71.090088, 42.361989], [-71.090082, 42.361995], [-71.090109, 42.362011], [-71.090125, 42.36203], [-71.090077, 42.362067], [-71.090069, 42.362065], [-71.090069, 42.362072], [-71.090031, 42.362095], [-71.089983, 42.362086], [-71.089978, 42.362071], [-71.089964, 42.362085], [-71.089933, 42.362087], [-71.089906, 42.362061], [-71.089952, 42.362016], [-71.089903, 42.361986], [-71.089919, 42.361969], [-71.089901, 42.361958], [-71.089949, 42.36191], [-71.089839, 42.361723], [-71.089886, 42.361721], [-71.08989, 42.361657], [-71.08987, 42.361656], [-71.08988, 42.361539], [-71.089895, 42.361544], [-71.089916, 42.361547], [-71.08994, 42.361545], [-71.089955, 42.361539], [-71.08997, 42.361525], [-71.089973, 42.36151], [-71.089973, 42.361494], [-71.089968, 42.361487], [-71.089964, 42.361481], [-71.089948, 42.36147], [-71.089929, 42.361463], [-71.089904, 42.361465], [-71.089886, 42.361471], [-71.089895, 42.361358], [-71.089935, 42.361357], [-71.089929, 42.361355], [-71.090413, 42.361198], [-71.090397, 42.361171], [-71.090499, 42.361138], [-71.090486, 42.361189], [-71.090534, 42.361194], [-71.090528, 42.361222], [-71.090554, 42.361224], [-71.09057, 42.361226], [-71.090562, 42.361148], [-71.090627, 42.361144], [-71.090611, 42.361006], [-71.090774, 42.360953], [-71.090785, 42.360972], [-71.090799, 42.360995], [-71.090676, 42.361036], [-71.090689, 42.361178], [-71.09073, 42.361175], [-71.090826, 42.361171], [-71.090829, 42.361232], [-71.091086, 42.361244], [-71.091136, 42.361248], [-71.09112, 42.361379], [-71.091175, 42.361384], [-71.091174, 42.361392], [-71.091211, 42.361395], [-71.091198, 42.361488], [-71.091206, 42.36149], [-71.091204, 42.361504], [-71.091245, 42.361492], [-71.091254, 42.361505], [-71.091352, 42.361473], [-71.091438, 42.361611], [-71.091503, 42.361651], [-71.091475, 42.36168], [-71.091477, 42.361719], [-71.091457, 42.361715], [-71.091431, 42.361704], [-71.091424, 42.361706], [-71.091444, 42.361733], [-71.091368, 42.361771], [-71.091335, 42.361732], [-71.091333, 42.361739], [-71.091353, 42.361787], [-71.09127, 42.361797], [-71.091252, 42.361757], [-71.091084, 42.361844], [-71.091069, 42.361829], [-71.091049, 42.361841], [-71.091045, 42.361873], [-71.091034, 42.361893], [-71.091019, 42.361909], [-71.090991, 42.361918], [-71.090964, 42.361919], [-71.09094, 42.361915], [-71.090915, 42.361902], [-71.090896, 42.361889], [-71.090888, 42.361912], [-71.090869, 42.361935], [-71.090841, 42.361956], [-71.090816, 42.36197], [-71.090782, 42.36198], [-71.090744, 42.361987], [-71.090737, 42.361943], [-71.090725, 42.361916]]]}, "properties": {"addr:housename": "Ray and Maria Stata Center", "addr:housenumber": "32", "addr:street": "Vassar Street", "alt_name": "Building 32", "architect": "Frank O. Gehry", "building": "university", "building:levels": "9", "campusbuilding": "yes", "name": "Ray & Maria Stata Center", "ref": "32", "source": "Massachusetts Institute of Technology - Facility Information Systems", "wikidata": "Q3312712", "wikipedia": "en:Ray and Maria Stata Center"}}, {"type": "Feature", "id": 29127425, "geometry": {"type": "Polygon", "coordinates": [[[-71.091908, 42.361477], [-71.091924, 42.361507], [-71.091503, 42.361651], [-71.091438, 42.361611], [-71.091352, 42.361473], [-71.091323, 42.361422], [-71.091879, 42.361234], [-71.091908, 42.361275], [-71.091962, 42.361367], [-71.091908, 42.361477]]]}, "properties": {"addr:housename": "Fairchild Building (36)", "alt_name": "Building 36", "building": "university", "building:levels": "9", "campusbuilding": "yes", "name": "36", "ref": "36"}}, {"type": "Feature", "id": 29127459, "geometry": {"type": "Polygon", "coordinates": [[[-71.092468, 42.360647], [-71.092313, 42.360387], [-71.091631, 42.360622], [-71.091538, 42.360654], [-71.091761, 42.361028], [-71.091812, 42.361015], [-71.091842, 42.361049], [-71.091889, 42.361041], [-71.091867, 42.360996], [-71.091958, 42.360977], [-71.091889, 42.36085], [-71.092468, 42.360647]]]}, "properties": {"alt_name": "Building 24", "building": "university", "building:levels": "7", "campusbuilding": "yes", "name": "24", "ref": "24", "source": "Massachusetts Institute of Technology - Facility Information Systems"}}, {"type": "Feature", "id": 29618959, "geometry": {"type": "Polygon", "coordinates": [[[-71.093031, 42.361693], [-71.093289, 42.361976], [-71.092528, 42.362358], [-71.092519, 42.362361], [-71.092513, 42.362361], [-71.092508, 42.362361], [-71.092503, 42.362359], [-71.092498, 42.362357], [-71.092495, 42.362353], [-71.092492, 42.36235], [-71.092491, 42.362346], [-71.09249, 42.362342], [-71.092491, 42.362338], [-71.092494, 42.362334], [-71.092497, 42.362331], [-71.092501, 42.362328], [-71.092557, 42.3623], [-71.09254, 42.362282], [-71.092555, 42.362274], [-71.092547, 42.362266], [-71.092533, 42.362273], [-71.092525, 42.362276], [-71.092519, 42.362279], [-71.092513, 42.362281], [-71.092506, 42.362283], [-71.0925, 42.362285], [-71.092493, 42.362287], [-71.092487, 42.362288], [-71.09248, 42.362289], [-71.092473, 42.36229], [-71.092466, 42.36229], [-71.092459, 42.36229], [-71.092452, 42.36229], [-71.092445, 42.36229], [-71.092438, 42.362289], [-71.092432, 42.362288], [-71.092425, 42.362287], [-71.092418, 42.362286], [-71.092411, 42.362284], [-71.092405, 42.362282], [-71.092399, 42.36228], [-71.092393, 42.362278], [-71.092387, 42.362275], [-71.092381, 42.362272], [-71.092375, 42.362269], [-71.09237, 42.362266], [-71.092365, 42.362262], [-71.09236, 42.362259], [-71.092356, 42.362255], [-71.092351, 42.362251], [-71.092347, 42.362246], [-71.092343, 42.362242], [-71.09234, 42.362237], [-71.092337, 42.362233], [-71.092334, 42.362228], [-71.092332, 42.362223], [-71.09233, 42.362218], [-71.092328, 42.362213], [-71.092327, 42.362208], [-71.092326, 42.362203], [-71.092325, 42.362198], [-71.092325, 42.362193], [-71.092325, 42.362188], [-71.092326, 42.362183], [-71.092326, 42.362178], [-71.092328, 42.362173], [-71.092329, 42.362167], [-71.092331, 42.362163], [-71.092333, 42.362158], [-71.092336, 42.362153], [-71.092339, 42.362148], [-71.092342, 42.362144], [-71.092345, 42.362139], [-71.092349, 42.362135], [-71.092354, 42.362131], [-71.092358, 42.362127], [-71.092363, 42.362123], [-71.092368, 42.36212], [-71.092373, 42.362116], [-71.092378, 42.362113], [-71.092384, 42.36211], [-71.092397, 42.362104], [-71.092388, 42.362094], [-71.092375, 42.3621], [-71.09235, 42.362073], [-71.092296, 42.3621], [-71.092287, 42.362103], [-71.092282, 42.362103], [-71.092277, 42.362102], [-71.092272, 42.3621], [-71.092268, 42.362097], [-71.092265, 42.362094], [-71.092263, 42.362091], [-71.092263, 42.362087], [-71.092263, 42.362083], [-71.092265, 42.362079], [-71.092268, 42.362076], [-71.092272, 42.362074], [-71.093031, 42.361693]]]}, "properties": {"addr:city": "Cambridge", "addr:housename": "Albany Street Parking Garage", "addr:housenumber": "32", "addr:street": "Albany Street", "amenity": "parking", "building": "university", "campusbuilding": "yes", "name": "Albany Garage (N4)", "name:tr": "Albany Garaj\u0131", "ref": "N4"}}, {"type": "Feature", "id": 29803755, "geometry": {"type": "Polygon", "coordinates": [[[-71.090937, 42.362201], [-71.091007, 42.362278], [-71.090943, 42.36231], [-71.090989, 42.36236], [-71.090466, 42.362623], [-71.090438, 42.362593], [-71.090394, 42.362615], [-71.090306, 42.362519], [-71.090937, 42.362201]]]}, "properties": {"addr:city": "Cambridge", "addr:housenumber": "15", "addr:postcode": "02139", "addr:state": "MA", "addr:street": "Vassar Street", "building": "university", "building:levels": "4", "campusbuilding": "yes", "name": "Parsons Lab (48)", "ref": "48"}}, {"type": "Feature", "id": 29945170, "geometry": {"type": "Polygon", "coordinates": [[[-71.092672, 42.361416], [-71.092778, 42.361531], [-71.09264, 42.361601], [-71.092648, 42.36161], [-71.09228, 42.361796], [-71.092165, 42.361671], [-71.092672, 42.361416]]]}, "properties": {"addr:city": "Cambridge", "addr:housename": "Cyclotron", "addr:housenumber": "51", "addr:postcode": "02139", "addr:state": "MA", "addr:street": "Vassar Street", "architect": "Mccreery &Theriault", "building": "university", "campusbuilding": "yes", "name": "Cyclotron", "ref": "44"}}, {"type": "Feature", "id": 32517105, "geometry": {"type": "Polygon", "coordinates": [[[-71.091976, 42.359978], [-71.092343, 42.359856], [-71.092356, 42.359876], [-71.092954, 42.359677], [-71.093124, 42.359621], [-71.09321, 42.359765], [-71.093265, 42.359855], [-71.091992, 42.360279], [-71.091852, 42.360049], [-71.091991, 42.360003], [-71.091976, 42.359978]]]}, "properties": {"addr:housename": "Bush Building", "addr:state": "MA", "alt_name": "Building 13", "building": "university", "building:levels": "6", "campusbuilding": "yes", "ele": "3", "gnis:county_name": "Middlesex", "gnis:feature_id": "1971061", "gnis:import_uuid": "57871b70-0100-4405-bb30-88b2e001a944", "gnis:reviewed": "no", "name": "Bush Building (13)", "ref": "13", "source": "Massachusetts Institute of Technology - Facility Information Systems;USGS Geonames"}}, {"type": "Feature", "id": 32517290, "geometry": {"type": "Polygon", "coordinates": [[[-71.092821, 42.359397], [-71.092602, 42.359468], [-71.092721, 42.359664], [-71.092941, 42.35959], [-71.092821, 42.359397]]]}, "properties": {"addr:state": "MA", "alt_name": "Homberg Building", "building": "university", "building:levels": "5", "ele": "3", "gnis:county_name": "Middlesex", "gnis:feature_id": "1971371", "gnis:import_uuid": "57871b70-0100-4405-bb30-88b2e001a944", "gnis:reviewed": "no", "name": "11 Homberg Building", "operator": "Massachusetts Institute of Technology", "ref": "11", "source": "Massachusetts Institute of Technology - Facility Information Systems;USGS Geonames"}}, {"type": "Feature", "id": 32517642, "geometry": {"type": "Polygon", "coordinates": [[[-71.091762, 42.359688], [-71.091694, 42.35971], [-71.091632, 42.359606], [-71.09162, 42.359587], [-71.091658, 42.359574], [-71.091647, 42.359556], [-71.092131, 42.359393], [-71.092142, 42.359411], [-71.092184, 42.359397], [-71.092193, 42.35941], [-71.09226, 42.359522], [-71.09219, 42.359545], [-71.092374, 42.359848], [-71.092343, 42.359856], [-71.091976, 42.359978], [-71.091943, 42.359989], [-71.091762, 42.359688]]]}, "properties": {"addr:housename": "Maclaurin Buildings (10)", "addr:housenumber": "222", "addr:street": "Memorial Drive", "alt_name": "Building 10", "building": "university", "building:levels": "7", "campusbuilding": "yes", "ele": "3", "name": "10", "ref": "10", "source": "Massachusetts Institute of Technology - Facility Information Systems"}}, {"type": "Feature", "id": 32517839, "geometry": {"type": "Polygon", "coordinates": [[[-71.09061, 42.359954], [-71.090731, 42.359913], [-71.091105, 42.359788], [-71.091196, 42.359939], [-71.090883, 42.360042], [-71.090957, 42.360166], [-71.090876, 42.360192], [-71.090736, 42.360239], [-71.090614, 42.360042], [-71.090567, 42.359967], [-71.09061, 42.359954]]]}, "properties": {"addr:housename": "Building 8", "alt_name": "Building 8", "building": "university", "campusbuilding": "yes", "name": "8", "ref": "8"}}, {"type": "Feature", "id": 32524914, "geometry": {"type": "Polygon", "coordinates": [[[-71.090638, 42.359539], [-71.090709, 42.359515], [-71.090705, 42.359509], [-71.090736, 42.359499], [-71.090726, 42.359482], [-71.09082, 42.359451], [-71.090834, 42.359474], [-71.090899, 42.359453], [-71.091105, 42.359788], [-71.090731, 42.359913], [-71.0907, 42.359862], [-71.090736, 42.35985], [-71.090565, 42.359569], [-71.090641, 42.359544], [-71.090638, 42.359539]]]}, "properties": {"addr:housename": "PDSI (Physics, DMSE, Spectroscopy, Infrastructure)", "addr:state": "MA", "alt_name": "Building 6C", "building": "university", "campusbuilding": "yes", "ele": "3", "gnis:county_name": "Middlesex", "gnis:feature_id": "1971780", "gnis:import_uuid": "57871b70-0100-4405-bb30-88b2e001a944", "gnis:reviewed": "no", "name": "6C PDSI", "ref": "6C", "source": "Massachusetts Institute of Technology - Facility Information Systems"}}, {"type": "Feature", "id": 32525350, "geometry": {"type": "Polygon", "coordinates": [[[-71.092983, 42.360933], [-71.092593, 42.361066], [-71.092576, 42.361041], [-71.092499, 42.360907], [-71.092447, 42.360812], [-71.092834, 42.360692], [-71.092851, 42.360711], [-71.092957, 42.360888], [-71.092983, 42.360933]]]}, "properties": {"addr:housename": "Brown Building", "addr:state": "MA", "alt_name": "Building 39", "building": "university", "building:levels": "7", "campusbuilding": "yes", "ele": "3", "gnis:county_name": "Middlesex", "gnis:feature_id": "1971044", "gnis:import_uuid": "57871b70-0100-4405-bb30-88b2e001a944", "gnis:reviewed": "no", "name": "39 Brown Building", "ref": "39", "source": "Massachusetts Institute of Technology - Facility Information Systems;USGS Geonames"}}, {"type": "Feature", "id": 32525380, "geometry": {"type": "Polygon", "coordinates": [[[-71.092499, 42.360907], [-71.092576, 42.361041], [-71.092502, 42.36106], [-71.092562, 42.361148], [-71.092138, 42.361294], [-71.092087, 42.361199], [-71.09207, 42.361174], [-71.09219, 42.361066], [-71.092164, 42.361009], [-71.092499, 42.360907]]]}, "properties": {"addr:housename": "Fairchild Building (38)", "alt_name": "Building 38", "building": "university", "building:levels": "7", "campusbuilding": "yes", "name": "38", "ref": "38", "source": "Massachusetts Institute of Technology - Facility Information Systems"}}, {"type": "Feature", "id": 32525583, "geometry": {"type": "Polygon", "coordinates": [[[-71.092087, 42.361066], [-71.092044, 42.361136], [-71.09207, 42.361174], [-71.092087, 42.361199], [-71.092027, 42.361294], [-71.091913, 42.361272], [-71.091908, 42.361275], [-71.091879, 42.361234], [-71.091892, 42.36123], [-71.091872, 42.361199], [-71.091747, 42.361161], [-71.09179, 42.361066], [-71.091842, 42.361049], [-71.091889, 42.361041], [-71.09197, 42.361009], [-71.092087, 42.361066]]]}, "properties": {"addr:housename": "EG&G Education Center", "addr:state": "MA", "alt_name": "Building 34", "building": "university", "building:levels": "5", "ele": "3", "gnis:county_name": "Middlesex", "gnis:feature_id": "1971199", "gnis:import_uuid": "57871b70-0100-4405-bb30-88b2e001a944", "gnis:reviewed": "no", "name": "34", "ref": "34", "source": "Massachusetts Institute of Technology - Facility Information Systems"}}, {"type": "Feature", "id": 32525936, "geometry": {"type": "Polygon", "coordinates": [[[-71.091405, 42.361021], [-71.091178, 42.360645], [-71.091215, 42.360633], [-71.091109, 42.360456], [-71.09098, 42.360499], [-71.090938, 42.360427], [-71.090908, 42.360436], [-71.09095, 42.360511], [-71.09055, 42.360643], [-71.090658, 42.360821], [-71.090993, 42.36071], [-71.091391, 42.361369], [-71.091581, 42.361306], [-71.091497, 42.361168], [-71.091625, 42.361125], [-71.091536, 42.360978], [-71.091405, 42.361021]]]}, "properties": {"addr:housename": "Compton Laboratories", "alt_name": "Building 26", "building": "university", "building:levels": "18", "campusbuilding": "yes", "ele": "3", "name": "26", "ref": "26"}}, {"type": "Feature", "id": 132601298, "geometry": {"type": "Polygon", "coordinates": [[[-71.093117, 42.361261], [-71.093035, 42.361171], [-71.093293, 42.361041], [-71.093375, 42.361132], [-71.093117, 42.361261]]]}, "properties": {"building": "university", "ref": "43"}}, {"type": "Feature", "id": 435078056, "geometry": {"type": "Polygon", "coordinates": [[[-71.093322, 42.359626], [-71.093312, 42.35963], [-71.093318, 42.35964], [-71.093231, 42.359668], [-71.093056, 42.359378], [-71.093153, 42.359346], [-71.093322, 42.359626]]]}, "properties": {"building": "university", "building:levels": "6", "campusbuilding": "yes", "name": "7A"}}, {"type": "Feature", "id": 479313188, "geometry": {"type": "Polygon", "coordinates": [[[-71.092333, 42.359836], [-71.091965, 42.359953], [-71.091809, 42.359686], [-71.092177, 42.359569], [-71.092333, 42.359836]]]}, "properties": {"building": "college", "building:levels": "8", "building:roof:shape": "dome"}}, {"type": "Feature", "id": 656372673, "geometry": {"type": "Polygon", "coordinates": [[[-71.091965, 42.360399], [-71.091656, 42.359872], [-71.091117, 42.360044], [-71.091439, 42.360579], [-71.091965, 42.360399]]]}, "properties": {"addr:city": "Cambridge", "addr:housenumber": "77", "addr:postcode": "02139", "addr:state": "MA", "addr:street": "Massachusetts Avenue", "addr:unit": "Building 12", "building": "industrial", "name": "MIT.nano", "office": "research", "phone": "617-253-3282", "website": "http://mitnano.mit.edu/"}}]}