{"type": "FeatureCollection", "features": [{"type": "Feature", "id": 277904730, "geometry": {"type": "Polygon", "coordinates": [[[-74.009146, 40.714042], [-74.009211, 40.714073], [-74.009045, 40.714281], [-74.008981, 40.714251], [-74.008988, 40.714242], [-74.009146, 40.714042]]]}, "properties": {"addr:housenumber": "43", "addr:postcode": "10007", "addr:street": "Murray Street", "building": "yes", "height": "19.0", "nycdoitt:bin": "1084849"}}, {"type": "Feature", "id": 277904732, "geometry": {"type": "Polygon", "coordinates": [[[-74.00888, 40.714242], [-74.009039, 40.714315], [-74.009036, 40.714319], [-74.008895, 40.714495], [-74.008737, 40.714421], [-74.00888, 40.714242]]]}, "properties": {"addr:housenumber": "43", "addr:postcode": "10007", "addr:street": "Warren Street", "building": "yes", "height": "30.6", "nycdoitt:bin": "1001443"}}, {"type": "Feature", "id": 277904733, "geometry": {"type": "Polygon", "coordinates": [[[-74.009211, 40.714073], [-74.009302, 40.714115], [-74.009131, 40.71433], [-74.00904, 40.714288], [-74.009045, 40.714281], [-74.009211, 40.714073]]]}, "properties": {"addr:housenumber": "45", "addr:postcode": "10007", "addr:street": "Murray Street", "building": "yes", "height": "21.6", "nycdoitt:bin": "1001435"}}, {"type": "Feature", "id": 277904736, "geometry": {"type": "Polygon", "coordinates": [[[-74.009302, 40.714115], [-74.009381, 40.714151], [-74.009215, 40.714358], [-74.009193, 40.714386], [-74.009115, 40.71435], [-74.009131, 40.71433], [-74.009302, 40.714115]]]}, "properties": {"addr:housenumber": "47", "addr:postcode": "10007", "addr:street": "Murray Street", "building": "yes", "height": "25.3", "nycdoitt:bin": "1001436"}}, {"type": "Feature", "id": 277904737, "geometry": {"type": "Polygon", "coordinates": [[[-74.009381, 40.714151], [-74.009458, 40.714186], [-74.009308, 40.714374], [-74.009292, 40.714394], [-74.009215, 40.714358], [-74.009381, 40.714151]]]}, "properties": {"addr:housenumber": "49", "addr:postcode": "10007", "addr:street": "Murray Street", "building": "yes", "height": "25.4", "nycdoitt:bin": "1001437"}}, {"type": "Feature", "id": 277904738, "geometry": {"type": "Polygon", "coordinates": [[[-74.009458, 40.714186], [-74.009536, 40.714222], [-74.009387, 40.71441], [-74.009308, 40.714374], [-74.009458, 40.714186]]]}, "properties": {"addr:housenumber": "51", "addr:postcode": "10007", "addr:street": "Murray Street", "building": "yes", "height": "27.1", "nycdoitt:bin": "1001438"}}, {"type": "Feature", "id": 277904740, "geometry": {"type": "Polygon", "coordinates": [[[-74.009536, 40.714222], [-74.009612, 40.714257], [-74.009446, 40.714466], [-74.00937, 40.714431], [-74.009387, 40.71441], [-74.009536, 40.714222]]]}, "properties": {"addr:housenumber": "53", "addr:postcode": "10007", "addr:street": "Murray Street", "building": "yes", "height": "26.9", "nycdoitt:bin": "1001439"}}, {"type": "Feature", "id": 277904742, "geometry": {"type": "Polygon", "coordinates": [[[-74.009982, 40.713974], [-74.009993, 40.713959], [-74.010008, 40.71394], [-74.010084, 40.713974], [-74.009918, 40.714187], [-74.009028, 40.713785], [-74.009168, 40.713606], [-74.009438, 40.713728], [-74.009982, 40.713974]]]}, "properties": {"addr:housenumber": "54", "addr:postcode": "10007", "addr:street": "Murray Street", "building": "yes", "height": "78.9", "nycdoitt:bin": "1001413"}}, {"type": "Feature", "id": 277904764, "geometry": {"type": "Polygon", "coordinates": [[[-74.008928, 40.714182], [-74.008909, 40.714206], [-74.00888, 40.714242], [-74.008737, 40.714421], [-74.008584, 40.714351], [-74.008603, 40.714327], [-74.008775, 40.714112], [-74.008928, 40.714182]]]}, "properties": {"building": "yes", "height": "29.2", "nycdoitt:bin": "1001444"}}, {"type": "Feature", "id": 278093208, "geometry": {"type": "Polygon", "coordinates": [[[-74.007548, 40.714407], [-74.00774, 40.714165], [-74.007813, 40.714199], [-74.007621, 40.71444], [-74.007613, 40.714437], [-74.007548, 40.714407]]]}, "properties": {"addr:housenumber": "20", "addr:postcode": "10007", "addr:street": "Warren Street", "building": "yes", "height": "20.2", "nycdoitt:bin": "1001461"}}, {"type": "Feature", "id": 278093210, "geometry": {"type": "Polygon", "coordinates": [[[-74.007621, 40.71444], [-74.007813, 40.714199], [-74.007886, 40.714232], [-74.007694, 40.714474], [-74.007687, 40.714471], [-74.007621, 40.71444]]]}, "properties": {"addr:housenumber": "22", "addr:postcode": "10007", "addr:street": "Warren Street", "building": "yes", "height": "26.2", "nycdoitt:bin": "1001462"}}, {"type": "Feature", "id": 278093211, "geometry": {"type": "Polygon", "coordinates": [[[-74.007886, 40.714232], [-74.007961, 40.714267], [-74.007768, 40.714509], [-74.007694, 40.714474], [-74.007886, 40.714232]]]}, "properties": {"addr:housenumber": "24", "addr:postcode": "10007", "addr:street": "Warren Street", "building": "yes", "height": "20.4", "nycdoitt:bin": "1001463"}}, {"type": "Feature", "id": 277904721, "geometry": {"type": "Polygon", "coordinates": [[[-74.008582, 40.713341], [-74.008437, 40.713525], [-74.008357, 40.713489], [-74.008502, 40.713305], [-74.008582, 40.713341]]]}, "properties": {"addr:housenumber": "18", "addr:postcode": "10007", "addr:street": "Murray Street", "building": "yes", "height": "28.1", "nycdoitt:bin": "1001406"}}, {"type": "Feature", "id": 277904726, "geometry": {"type": "Polygon", "coordinates": [[[-74.008648, 40.71312], [-74.008728, 40.713156], [-74.008582, 40.713341], [-74.008502, 40.713305], [-74.008648, 40.71312]]]}, "properties": {"addr:housenumber": "21", "addr:postcode": "10007", "addr:street": "Park Place", "building": "yes", "height": "22.3", "nycdoitt:bin": "1001402"}}, {"type": "Feature", "id": 277904729, "geometry": {"type": "Polygon", "coordinates": [[[-74.009068, 40.714006], [-74.009146, 40.714042], [-74.008988, 40.714242], [-74.008909, 40.714206], [-74.008928, 40.714182], [-74.009068, 40.714006]]]}, "properties": {"addr:housenumber": "41", "addr:postcode": "10007", "addr:street": "Murray Street", "building": "yes", "height": "20.1", "nycdoitt:bin": "1001445"}}, {"type": "Feature", "id": 277904746, "geometry": {"type": "Polygon", "coordinates": [[[-74.008043, 40.713062], [-74.008095, 40.713086], [-74.008125, 40.713099], [-74.007969, 40.713299], [-74.007888, 40.713262], [-74.008043, 40.713062]]]}, "properties": {"addr:housenumber": "6", "addr:postcode": "10007", "addr:street": "Murray Street", "building": "yes", "height": "30.7", "nycdoitt:bin": "1001407"}}, {"type": "Feature", "id": 277904756, "geometry": {"type": "Polygon", "coordinates": [[[-74.008494, 40.713049], [-74.008577, 40.713087], [-74.008294, 40.713447], [-74.008211, 40.713409], [-74.008494, 40.713049]]]}, "properties": {"building": "yes", "height": "22.0", "nycdoitt:bin": "1001400"}}, {"type": "Feature", "id": 277904758, "geometry": {"type": "Polygon", "coordinates": [[[-74.008915, 40.713936], [-74.009068, 40.714006], [-74.008928, 40.714182], [-74.008775, 40.714112], [-74.008915, 40.713936]]]}, "properties": {"building": "yes", "height": "29.3", "nycdoitt:bin": "1001434"}}, {"type": "Feature", "id": 277904760, "geometry": {"type": "Polygon", "coordinates": [[[-74.00882, 40.713191], [-74.008935, 40.713243], [-74.008697, 40.713546], [-74.008647, 40.713523], [-74.008591, 40.713595], [-74.008525, 40.713565], [-74.00882, 40.713191]]]}, "properties": {"building": "yes", "height": "24.8", "nycdoitt:bin": "1001404"}}, {"type": "Feature", "id": 277904761, "geometry": {"type": "Polygon", "coordinates": [[[-74.008732, 40.713151], [-74.00882, 40.713191], [-74.008525, 40.713565], [-74.008437, 40.713525], [-74.008582, 40.713341], [-74.008728, 40.713156], [-74.008732, 40.713151]]]}, "properties": {"building": "yes", "height": "27.4", "nycdoitt:bin": "1001403"}}, {"type": "Feature", "id": 277904762, "geometry": {"type": "Polygon", "coordinates": [[[-74.009168, 40.713606], [-74.009332, 40.713396], [-74.009728, 40.713575], [-74.009598, 40.713742], [-74.009471, 40.713685], [-74.009438, 40.713728], [-74.009168, 40.713606]]]}, "properties": {"building": "yes", "height": "67.6", "nycdoitt:bin": "1001410"}}, {"type": "Feature", "id": 277904763, "geometry": {"type": "Polygon", "coordinates": [[[-74.008647, 40.713523], [-74.008697, 40.713546], [-74.008935, 40.713243], [-74.009046, 40.713294], [-74.008752, 40.713669], [-74.008591, 40.713595], [-74.008647, 40.713523]]]}, "properties": {"building": "yes", "height": "21.1", "nycdoitt:bin": "1001405"}}, {"type": "Feature", "id": 277904767, "geometry": {"type": "Polygon", "coordinates": [[[-74.008168, 40.713045], [-74.008137, 40.713031], [-74.008176, 40.712982], [-74.008206, 40.712944], [-74.008222, 40.712925], [-74.008494, 40.713049], [-74.008211, 40.713409], [-74.007969, 40.713299], [-74.008125, 40.713099], [-74.008168, 40.713045]]]}, "properties": {"building": "yes", "height": "75.0", "nycdoitt:bin": "1001399"}}, {"type": "Feature", "id": 278093203, "geometry": {"type": "Polygon", "coordinates": [[[-74.008099, 40.71356], [-74.008171, 40.713593], [-74.007984, 40.713831], [-74.007912, 40.713799], [-74.00792, 40.713786], [-74.008099, 40.71356]]]}, "properties": {"addr:housenumber": "17", "addr:postcode": "10007", "addr:street": "Murray Street", "building": "yes", "height": "25.2", "nycdoitt:bin": "1001447"}}, {"type": "Feature", "id": 278093204, "geometry": {"type": "Polygon", "coordinates": [[[-74.007741, 40.713739], [-74.007817, 40.713774], [-74.007683, 40.713944], [-74.007607, 40.71391], [-74.007735, 40.713747], [-74.007741, 40.713739]]]}, "properties": {"addr:housenumber": "17", "addr:postcode": "10007", "addr:street": "Warren Street", "building": "yes", "height": "22.6", "nycdoitt:bin": "1001457"}}, {"type": "Feature", "id": 278093206, "geometry": {"type": "Polygon", "coordinates": [[[-74.008171, 40.713593], [-74.008243, 40.713625], [-74.008056, 40.713864], [-74.007984, 40.713831], [-74.008171, 40.713593]]]}, "properties": {"addr:housenumber": "19", "addr:postcode": "10007", "addr:street": "Murray Street", "building": "yes", "height": "26.4", "nycdoitt:bin": "1001448"}}, {"type": "Feature", "id": 278093207, "geometry": {"type": "Polygon", "coordinates": [[[-74.007817, 40.713774], [-74.007973, 40.713845], [-74.00784, 40.714015], [-74.007683, 40.713944], [-74.007817, 40.713774]]]}, "properties": {"addr:housenumber": "19", "addr:postcode": "10007", "addr:street": "Warren Street", "building": "yes", "height": "26.9", "nycdoitt:bin": "1001456"}}, {"type": "Feature", "id": 278093209, "geometry": {"type": "Polygon", "coordinates": [[[-74.008243, 40.713625], [-74.008326, 40.713663], [-74.008139, 40.713902], [-74.008056, 40.713864], [-74.008243, 40.713625]]]}, "properties": {"addr:housenumber": "21", "addr:postcode": "10007", "addr:street": "Murray Street", "building": "yes", "height": "21.5", "nycdoitt:bin": "1001449"}}, {"type": "Feature", "id": 278093215, "geometry": {"type": "Polygon", "coordinates": [[[-74.008099, 40.71356], [-74.00792, 40.713786], [-74.007835, 40.713748], [-74.00787, 40.713703], [-74.0078, 40.713672], [-74.007765, 40.713716], [-74.007631, 40.713655], [-74.007757, 40.713495], [-74.007728, 40.713482], [-74.007781, 40.713416], [-74.007863, 40.713453], [-74.008099, 40.71356]]]}, "properties": {"addr:housenumber": "9", "addr:postcode": "10007", "addr:street": "Murray Street", "building": "yes", "height": "51.4", "nycdoitt:bin": "1001446"}}, {"type": "Feature", "id": 278093226, "geometry": {"type": "Polygon", "coordinates": [[[-74.007477, 40.713509], [-74.007373, 40.713461], [-74.007411, 40.713413], [-74.007338, 40.71338], [-74.007303, 40.713424], [-74.007173, 40.713365], [-74.007304, 40.7132], [-74.007781, 40.713416], [-74.007728, 40.713482], [-74.007713, 40.713475], [-74.007577, 40.713648], [-74.007423, 40.713578], [-74.007477, 40.713509]]]}, "properties": {"building": "yes", "building:colour": "#D3CBBF", "building:levels": "13", "height": "62.1", "nycdoitt:bin": "1082757", "roof:colour": "#6E615B", "roof:material": "concrete", "roof:shape": "flat"}}, {"type": "Feature", "id": 278093230, "geometry": {"type": "Polygon", "coordinates": [[[-74.00856, 40.713769], [-74.008643, 40.713807], [-74.008312, 40.71423], [-74.008307, 40.714227], [-74.008229, 40.714192], [-74.00856, 40.713769]]]}, "properties": {"building": "yes", "height": "25.0", "nycdoitt:bin": "1001453"}}, {"type": "Feature", "id": 292727031, "geometry": {"type": "Polygon", "coordinates": [[[-74.008648, 40.71312], [-74.008577, 40.713087], [-74.008294, 40.713447], [-74.008285, 40.713457], [-74.008357, 40.713489], [-74.008502, 40.713305], [-74.008648, 40.71312]]]}, "properties": {"addr:housenumber": "19", "addr:postcode": "10007", "addr:street": "Park Place", "building": "yes", "height": "89", "landuse": "construction", "name": "19 Park Place", "website": "https://19pptribeca.com/"}}, {"type": "Feature", "id": 277904735, "geometry": {"type": "Polygon", "coordinates": [[[-74.009036, 40.714319], [-74.00919, 40.71439], [-74.009174, 40.714409], [-74.009049, 40.714565], [-74.008895, 40.714495], [-74.009036, 40.714319]]]}, "properties": {"addr:housenumber": "45", "addr:postcode": "10007", "addr:street": "Warren Street", "building": "yes", "height": "29.1", "nycdoitt:bin": "1078993"}}, {"type": "Feature", "id": 278093213, "geometry": {"type": "Polygon", "coordinates": [[[-74.007768, 40.714509], [-74.007961, 40.714267], [-74.008041, 40.714303], [-74.007848, 40.714545], [-74.007844, 40.714543], [-74.007768, 40.714509]]]}, "properties": {"addr:housenumber": "28", "addr:postcode": "10007", "addr:street": "Warren Street", "building": "yes", "height": "20.4", "nycdoitt:bin": "1001464"}}]}