{"type": "FeatureCollection", "features": [{"type": "Feature", "id": 29585286, "geometry": {"type": "Polygon", "coordinates": [[[-71.102061, 42.356741], [-71.102171, 42.356864], [-71.100981, 42.357449], [-71.100871, 42.357327], [-71.102061, 42.356741]]]}, "properties": {"addr:city": "Cambridge", "addr:housenumber": "229", "addr:postcode": "02139", "addr:state": "MA", "addr:street": "Vassar Street", "architect": "Steven Holl/Perry Dean Rogers", "building": "dormitory", "building:levels": "10", "campusbuilding": "yes", "image": "http://upload.wikimedia.org/wikipedia/commons/thumb/6/6b/Simmons_Hall,_MIT,_Cambridge,_Massachusetts.JPG/320px-Simmons_Hall,_MIT,_Cambridge,_Massachusetts.JPG", "name": "Simmons Hall (W79)", "ref": "W79", "source": "MassGIS Buildings;Bing", "source_ref": "http://www.mass.gov/mgis/lidarbuildingfp2d.htm", "wikipedia": "en:List of MIT undergraduate dormitories#Simmons Hall (W79)"}}, {"type": "Feature", "id": 29637303, "geometry": {"type": "Polygon", "coordinates": [[[-71.100756, 42.35805], [-71.101091, 42.35825], [-71.100902, 42.358424], [-71.100941, 42.358448], [-71.100876, 42.358508], [-71.100531, 42.358303], [-71.100636, 42.358207], [-71.100753, 42.358277], [-71.100814, 42.358221], [-71.100666, 42.358133], [-71.100756, 42.35805]]]}, "properties": {"addr:housenumber": "240;242", "addr:street": "Albany Street", "building": "yes"}}, {"type": "Feature", "id": 29680531, "geometry": {"type": "Polygon", "coordinates": [[[-71.100677, 42.358466], [-71.100816, 42.358548], [-71.100464, 42.358721], [-71.100212, 42.358572], [-71.100423, 42.358469], [-71.100536, 42.358536], [-71.100677, 42.358466]]]}, "properties": {"addr:city": "Cambridge", "addr:housenumber": "230", "addr:postcode": "02139", "addr:state": "MA", "addr:street": "Albany Street", "building": "yes"}}, {"type": "Feature", "id": 29890503, "geometry": {"type": "Polygon", "coordinates": [[[-71.100275, 42.357596], [-71.10068, 42.357397], [-71.100864, 42.357602], [-71.10046, 42.357801], [-71.100275, 42.357596]]]}, "properties": {"addr:housenumber": "219", "addr:street": "Vassar Street", "amenity": "childcare", "building": "yes", "campusbuilding": "yes", "name": "David Koch Childcare Center"}}, {"type": "Feature", "id": 212292252, "geometry": {"type": "Polygon", "coordinates": [[[-71.10029, 42.357164], [-71.100265, 42.357177], [-71.100223, 42.357132], [-71.100248, 42.357119], [-71.10029, 42.357164]]]}, "properties": {"building": "yes"}}, {"type": "Feature", "id": 212292890, "geometry": {"type": "Polygon", "coordinates": [[[-71.100605, 42.357185], [-71.100541, 42.357217], [-71.100525, 42.3572], [-71.100589, 42.357168], [-71.100605, 42.357185]]]}, "properties": {"building": "yes"}}, {"type": "Feature", "id": 24494029, "geometry": {"type": "Polygon", "coordinates": [[[-71.095029, 42.358394], [-71.094954, 42.358351], [-71.0949, 42.358305], [-71.094854, 42.358255], [-71.094819, 42.3582], [-71.094782, 42.358119], [-71.094771, 42.358047], [-71.094772, 42.357987], [-71.094867, 42.357968], [-71.094961, 42.357962], [-71.095047, 42.357962], [-71.095158, 42.357968], [-71.095244, 42.357987], [-71.095316, 42.35801], [-71.095364, 42.358032], [-71.095353, 42.358089], [-71.095334, 42.358145], [-71.095299, 42.358202], [-71.095246, 42.358265], [-71.095179, 42.358319], [-71.095098, 42.358368], [-71.095029, 42.358394]]]}, "properties": {"addr:housenumber": "48", "addr:state": "MA", "alt_name": "Building W16", "amenity": "auditorium", "architect": "Eero Saarinen", "building": "university", "ele": "4", "gnis:county_name": "Middlesex", "gnis:feature_id": "1971425", "gnis:import_uuid": "57871b70-0100-4405-bb30-88b2e001a944", "gnis:reviewed": "no", "name": "Kresge Auditorium", "ref": "W16", "wikidata": "Q6436787", "wikipedia": "en:Kresge Auditorium"}}, {"type": "Feature", "id": 24562763, "geometry": {"type": "Polygon", "coordinates": [[[-71.094207, 42.35838], [-71.09415, 42.358397], [-71.094098, 42.35839], [-71.094058, 42.358364], [-71.094043, 42.35834], [-71.09404, 42.358325], [-71.094047, 42.358294], [-71.094071, 42.358267], [-71.094108, 42.358251], [-71.09415, 42.358246], [-71.094202, 42.358261], [-71.094233, 42.358288], [-71.094244, 42.358325], [-71.094236, 42.358351], [-71.094207, 42.35838]]]}, "properties": {"addr:housenumber": "48", "addr:street": "Massachusetts Avenue", "amenity": "place_of_worship", "architect": "Eero Saarinen", "building": "university", "campusbuilding": "yes", "denomination": "nondenominational", "gnis:county_id": "017", "gnis:created": "01/15/2003", "gnis:feature_id": "1971508", "gnis:state_id": "25", "name": "Massachusetts Institute of Technology Chapel", "ref": "W15", "religion": "christian", "short_name": "MIT Chapel", "wikidata": "Q6716291", "wikipedia": "en:MIT Chapel"}}, {"type": "Feature", "id": 29127389, "geometry": {"type": "Polygon", "coordinates": [[[-71.096321, 42.358852], [-71.095978, 42.358307], [-71.095669, 42.358415], [-71.095377, 42.358542], [-71.09518, 42.358669], [-71.095317, 42.358821], [-71.095334, 42.358922], [-71.095394, 42.358992], [-71.095437, 42.35903], [-71.095477, 42.359161], [-71.096105, 42.358848], [-71.096167, 42.358916], [-71.096321, 42.358852]]]}, "properties": {"addr:housenumber": "106;120", "addr:state": "MA", "addr:street": "Vassar Street", "building": "university", "campusbuilding": "yes", "ele": "3", "gnis:county_name": "Middlesex", "gnis:feature_id": "1971038", "gnis:import_uuid": "57871b70-0100-4405-bb30-88b2e001a944", "gnis:reviewed": "no", "name": "Zesiger Sports & Fitness Center", "ref": "W35", "source": "USGS Geonames", "wikidata": "Q8069682"}}, {"type": "Feature", "id": 29602186, "geometry": {"type": "Polygon", "coordinates": [[[-71.096252, 42.356337], [-71.096333, 42.356393], [-71.096269, 42.356444], [-71.096272, 42.356459], [-71.096303, 42.356455], [-71.096288, 42.356593], [-71.096101, 42.356652], [-71.096095, 42.356725], [-71.096034, 42.356741], [-71.09604, 42.356758], [-71.095764, 42.356845], [-71.095599, 42.356773], [-71.095424, 42.356952], [-71.095383, 42.356934], [-71.095401, 42.356912], [-71.095377, 42.356902], [-71.095398, 42.356875], [-71.095374, 42.356865], [-71.095361, 42.356881], [-71.095197, 42.356809], [-71.095208, 42.356795], [-71.095142, 42.35673], [-71.095175, 42.356698], [-71.095382, 42.356796], [-71.095442, 42.356786], [-71.095484, 42.356733], [-71.095485, 42.356727], [-71.095486, 42.356722], [-71.095488, 42.356717], [-71.09549, 42.356712], [-71.095492, 42.356708], [-71.095495, 42.356703], [-71.095498, 42.356699], [-71.095501, 42.356695], [-71.095505, 42.356691], [-71.095509, 42.356687], [-71.095513, 42.356683], [-71.095517, 42.356679], [-71.095522, 42.356676], [-71.095527, 42.356672], [-71.095532, 42.356669], [-71.095537, 42.356666], [-71.095542, 42.356664], [-71.095548, 42.356661], [-71.095554, 42.356659], [-71.09556, 42.356657], [-71.095566, 42.356655], [-71.095572, 42.356654], [-71.095579, 42.356652], [-71.095585, 42.356651], [-71.095592, 42.356651], [-71.095598, 42.35665], [-71.095605, 42.35665], [-71.095611, 42.35665], [-71.095618, 42.35665], [-71.095624, 42.35665], [-71.095631, 42.356651], [-71.095637, 42.356652], [-71.095644, 42.356653], [-71.09565, 42.356655], [-71.095656, 42.356657], [-71.095662, 42.356659], [-71.095668, 42.356661], [-71.095674, 42.356663], [-71.09568, 42.356666], [-71.095685, 42.356669], [-71.09569, 42.356672], [-71.095762, 42.356577], [-71.095856, 42.356609], [-71.095776, 42.356704], [-71.095782, 42.356709], [-71.095786, 42.356711], [-71.095791, 42.356713], [-71.095795, 42.356716], [-71.0958, 42.356717], [-71.095805, 42.356719], [-71.095811, 42.35672], [-71.095816, 42.356721], [-71.095822, 42.356722], [-71.095827, 42.356723], [-71.095833, 42.356723], [-71.095838, 42.356723], [-71.095844, 42.356722], [-71.095849, 42.356722], [-71.095855, 42.356721], [-71.09586, 42.35672], [-71.095865, 42.356718], [-71.09587, 42.356716], [-71.095875, 42.356714], [-71.09588, 42.356712], [-71.095884, 42.35671], [-71.095888, 42.356707], [-71.095892, 42.356704], [-71.095896, 42.356701], [-71.095899, 42.356698], [-71.095902, 42.356694], [-71.096252, 42.356337]]]}, "properties": {"addr:housenumber": "362", "addr:street": "Memorial Drive", "building": "university", "campusbuilding": "yes", "name": "Baker House", "ref": "W7", "wikidata": "Q3714312"}}, {"type": "Feature", "id": 29627554, "geometry": {"type": "Polygon", "coordinates": [[[-71.098292, 42.358266], [-71.098322, 42.358316], [-71.098128, 42.35838], [-71.098142, 42.358404], [-71.098039, 42.358438], [-71.098025, 42.358414], [-71.097781, 42.358494], [-71.097751, 42.358445], [-71.098292, 42.358266]]]}, "properties": {"building": "yes"}}, {"type": "Feature", "id": 29650678, "geometry": {"type": "Polygon", "coordinates": [[[-71.097793, 42.358536], [-71.097826, 42.358586], [-71.097757, 42.358611], [-71.097724, 42.358562], [-71.097793, 42.358536]]]}, "properties": {"building": "yes"}}, {"type": "Feature", "id": 29681495, "geometry": {"type": "Polygon", "coordinates": [[[-71.099724, 42.35786], [-71.099916, 42.358076], [-71.099371, 42.358343], [-71.099178, 42.358127], [-71.099724, 42.35786]]]}, "properties": {"addr:city": "Cambridge", "addr:housenumber": "201", "addr:postcode": "02139", "addr:state": "MA", "addr:street": "Vassar Street", "building": "university", "campusbuilding": "yes", "name": "Heinz Building", "ref": "W59"}}, {"type": "Feature", "id": 29802781, "geometry": {"type": "Polygon", "coordinates": [[[-71.098077, 42.356664], [-71.098245, 42.356944], [-71.097535, 42.357177], [-71.097368, 42.356897], [-71.098077, 42.356664]]]}, "properties": {"building": "university", "campusbuilding": "yes", "name": "Carr Indoor Tennis", "ref": "W53"}}, {"type": "Feature", "id": 29803070, "geometry": {"type": "Polygon", "coordinates": [[[-71.095084, 42.35676], [-71.095247, 42.357029], [-71.09509, 42.357081], [-71.094927, 42.356812], [-71.095084, 42.35676]]]}, "properties": {"addr:housenumber": "350", "addr:street": "Memorial Drive", "building": "university", "campusbuilding": "yes", "name": "Green Hall", "ref": "W5"}}, {"type": "Feature", "id": 29803811, "geometry": {"type": "Polygon", "coordinates": [[[-71.093885, 42.35716], [-71.093927, 42.357229], [-71.093946, 42.357222], [-71.093958, 42.357242], [-71.093914, 42.357257], [-71.093935, 42.35729], [-71.093797, 42.357336], [-71.093785, 42.357315], [-71.093749, 42.357327], [-71.093687, 42.357226], [-71.093885, 42.35716]]]}, "properties": {"addr:housenumber": "311", "building": "university", "ref": "W2"}}, {"type": "Feature", "id": 29862811, "geometry": {"type": "Polygon", "coordinates": [[[-71.097326, 42.356888], [-71.097407, 42.357023], [-71.097323, 42.357051], [-71.097243, 42.356916], [-71.097326, 42.356888]]]}, "properties": {"building": "university", "ref": "W53A"}}, {"type": "Feature", "id": 132601564, "geometry": {"type": "Polygon", "coordinates": [[[-71.096321, 42.358852], [-71.096459, 42.359068], [-71.09706, 42.358871], [-71.096605, 42.358098], [-71.095978, 42.358307], [-71.096321, 42.358852]]]}, "properties": {"addr:housenumber": "120", "addr:state": "MA", "building": "university", "campusbuilding": "yes", "ele": "3", "gnis:county_name": "Middlesex", "gnis:feature_id": "1971408", "gnis:import_uuid": "57871b70-0100-4405-bb30-88b2e001a944", "gnis:reviewed": "no", "leisure": "sports_centre", "name": "Johnson Athletic Center", "ref": "W34", "source": "USGS Geonames"}}, {"type": "Feature", "id": 132601567, "geometry": {"type": "Polygon", "coordinates": [[[-71.096949, 42.356945], [-71.096914, 42.356956], [-71.096938, 42.356997], [-71.096972, 42.356987], [-71.096949, 42.356945]]]}, "properties": {"building": "university", "ref": "W53B"}}, {"type": "Feature", "id": 212292057, "geometry": {"type": "Polygon", "coordinates": [[[-71.098951, 42.357662], [-71.09893, 42.357672], [-71.098871, 42.357599], [-71.098892, 42.35759], [-71.098951, 42.357662]]]}, "properties": {"building": "yes"}}, {"type": "Feature", "id": 212292139, "geometry": {"type": "Polygon", "coordinates": [[[-71.098746, 42.357452], [-71.098702, 42.357474], [-71.098676, 42.357445], [-71.09872, 42.357423], [-71.098746, 42.357452]]]}, "properties": {"building": "yes"}}, {"type": "Feature", "id": 212292242, "geometry": {"type": "Polygon", "coordinates": [[[-71.098463, 42.358238], [-71.098369, 42.358269], [-71.098334, 42.358213], [-71.098429, 42.358182], [-71.098463, 42.358238]]]}, "properties": {"building": "yes"}}, {"type": "Feature", "id": 212292666, "geometry": {"type": "Polygon", "coordinates": [[[-71.098302, 42.356941], [-71.098278, 42.356903], [-71.098325, 42.356887], [-71.098363, 42.35695], [-71.098327, 42.356962], [-71.098312, 42.356938], [-71.098302, 42.356941]]]}, "properties": {"building": "yes"}}, {"type": "Feature", "id": 212292803, "geometry": {"type": "Polygon", "coordinates": [[[-71.099553, 42.357707], [-71.099463, 42.357754], [-71.099446, 42.357735], [-71.099536, 42.357689], [-71.099553, 42.357707]]]}, "properties": {"building": "yes"}}, {"type": "Feature", "id": 212292924, "geometry": {"type": "Polygon", "coordinates": [[[-71.093828, 42.357495], [-71.093784, 42.357509], [-71.093744, 42.357441], [-71.093787, 42.357427], [-71.093828, 42.357495]]]}, "properties": {"building": "yes"}}, {"type": "Feature", "id": 212292948, "geometry": {"type": "Polygon", "coordinates": [[[-71.097479, 42.357147], [-71.097445, 42.357158], [-71.097393, 42.357069], [-71.097426, 42.357058], [-71.097479, 42.357147]]]}, "properties": {"building": "yes"}}, {"type": "Feature", "id": 236579282, "geometry": {"type": "Polygon", "coordinates": [[[-71.094058, 42.358364], [-71.094043, 42.35834], [-71.093957, 42.358369], [-71.093898, 42.358388], [-71.093913, 42.358412], [-71.093971, 42.358393], [-71.094058, 42.358364]]]}, "properties": {"building": "yes"}}, {"type": "Feature", "id": 24494019, "geometry": {"type": "Polygon", "coordinates": [[[-71.095329, 42.359086], [-71.094437, 42.359383], [-71.094212, 42.359013], [-71.094467, 42.358928], [-71.094838, 42.358805], [-71.095104, 42.358716], [-71.095329, 42.359086]]]}, "properties": {"addr:city": "Cambridge", "addr:housename": "Stratton Student Center", "addr:housenumber": "84", "addr:postcode": "02139", "addr:state": "MA", "addr:street": "Massachusetts Avenue", "alt_name": "Building W20", "architect": "Catalano, Brannen, Shimamoto", "building": "university", "building:levels": "5", "building:material": "concrete", "campusbuilding": "yes", "name": "Stratton Student Center (W20)", "ref": "W20", "roof:material": "concrete", "roof:shape": "flat"}}, {"type": "Feature", "id": 24494035, "geometry": {"type": "Polygon", "coordinates": [[[-71.093884, 42.357795], [-71.093559, 42.357277], [-71.09339, 42.357339], [-71.09356, 42.35761], [-71.093282, 42.357695], [-71.093124, 42.357422], [-71.092961, 42.357478], [-71.093278, 42.357995], [-71.093434, 42.357944], [-71.093355, 42.357824], [-71.093665, 42.357722], [-71.093733, 42.357842], [-71.093805, 42.357821], [-71.093884, 42.357795]]]}, "properties": {"addr:housenumber": "305", "addr:postcode": "02139", "addr:street": "Memorial Drive", "building": "university", "campusbuilding": "yes", "name": "Maseeh Hall", "ref": "W1"}}, {"type": "Feature", "id": 29513583, "geometry": {"type": "Polygon", "coordinates": [[[-71.100132, 42.36288], [-71.100228, 42.362938], [-71.100292, 42.362879], [-71.100357, 42.362918], [-71.100144, 42.363111], [-71.099984, 42.363015], [-71.100072, 42.362935], [-71.100046, 42.36292], [-71.100085, 42.362885], [-71.10011, 42.3629], [-71.100132, 42.36288]]]}, "properties": {"addr:city": "Cambridge", "addr:housenumber": "378", "addr:postcode": "02139", "addr:street": "Massachusetts Avenue", "amenity": "fire_station", "attribution": "Office of Geographic and Environmental Information (MassGIS), Massachusetts Emergency Management Agency", "building": "civic", "building:levels": "2", "name": "Station 2", "note": "Houses Engine 2, Ladder 3, and Squad 2.", "operator": "Cambridge Fire Department", "roof:levels": "1", "source": "MassGIS Buildings;Bing;MassGIS Fire Stations", "source_ref": "http://www.mass.gov/mgis/lidarbuildingfp2d.htm", "website": "https://www.cambridgema.gov/cfd/aboutus/firehousesandapparatus/lafayettesquarecentralsquarearea", "wikipedia": "en:Cambridge, Massachusetts#Fire Department"}}, {"type": "Feature", "id": 29557595, "geometry": {"type": "Polygon", "coordinates": [[[-71.098505, 42.359257], [-71.098549, 42.359235], [-71.098407, 42.359066], [-71.099399, 42.358581], [-71.0999, 42.358877], [-71.099827, 42.358931], [-71.099909, 42.359006], [-71.098764, 42.359536], [-71.098632, 42.359389], [-71.098505, 42.359257]]]}, "properties": {"addr:housenumber": "180", "addr:street": "Albany Street", "building": "university", "campusbuilding": "yes", "name": "Plasma Science & Research Ctr", "ref": "NW21"}}, {"type": "Feature", "id": 29585269, "geometry": {"type": "Polygon", "coordinates": [[[-71.099724, 42.36179], [-71.100102, 42.362017], [-71.100401, 42.361743], [-71.100583, 42.361852], [-71.10013, 42.362267], [-71.09957, 42.361931], [-71.099724, 42.36179]]]}, "properties": {"building": "yes"}}, {"type": "Feature", "id": 29611119, "geometry": {"type": "Polygon", "coordinates": [[[-71.093617, 42.358094], [-71.09374, 42.358306], [-71.093401, 42.358413], [-71.093303, 42.358208], [-71.093617, 42.358094]]]}, "properties": {"addr:city": "Cambridge", "addr:housenumber": "32", "addr:postcode": "02139", "addr:state": "MA", "addr:street": "Massachusetts Avenue", "building": "university", "building:levels": "0", "campusbuilding": "yes", "name": "MIT Religious Activities Center (W11)", "ref": "W11"}}, {"type": "Feature", "id": 29650675, "geometry": {"type": "Polygon", "coordinates": [[[-71.09826, 42.359531], [-71.098034, 42.359278], [-71.098242, 42.35917], [-71.098478, 42.359431], [-71.09826, 42.359531]]]}, "properties": {"addr:housenumber": "170", "building": "university", "ref": "NW15"}}, {"type": "Feature", "id": 29680415, "geometry": {"type": "Polygon", "coordinates": [[[-71.100588, 42.359741], [-71.100655, 42.359823], [-71.100564, 42.359864], [-71.100749, 42.360091], [-71.100836, 42.360198], [-71.100132, 42.360512], [-71.100113, 42.360489], [-71.099958, 42.360405], [-71.099911, 42.360448], [-71.099841, 42.360362], [-71.09967, 42.360151], [-71.100588, 42.359741]]]}, "properties": {"addr:housenumber": "80", "addr:postcode": "02139", "addr:street": "Landsdowne Street", "building": "parking", "building:levels": "7", "name": "University Park at MIT Parking Garage", "parking": "multi-storey"}}, {"type": "Feature", "id": 29680534, "geometry": {"type": "Polygon", "coordinates": [[[-71.101925, 42.358223], [-71.102181, 42.358503], [-71.10216, 42.358513], [-71.102199, 42.358554], [-71.102225, 42.358541], [-71.102337, 42.358661], [-71.101747, 42.358956], [-71.101708, 42.358916], [-71.101604, 42.358963], [-71.101646, 42.359007], [-71.101082, 42.359289], [-71.101016, 42.359223], [-71.100868, 42.359296], [-71.100429, 42.359038], [-71.100471, 42.359015], [-71.100525, 42.359002], [-71.100598, 42.359004], [-71.100689, 42.35902], [-71.100765, 42.359046], [-71.100919, 42.359131], [-71.1009, 42.359153], [-71.100942, 42.359178], [-71.101358, 42.358971], [-71.101322, 42.358929], [-71.101273, 42.358952], [-71.101228, 42.358929], [-71.101183, 42.358894], [-71.101103, 42.358805], [-71.101002, 42.358854], [-71.100935, 42.358878], [-71.10087, 42.358895], [-71.100794, 42.358901], [-71.100724, 42.358899], [-71.100671, 42.358839], [-71.101054, 42.358647], [-71.101314, 42.358596], [-71.101379, 42.358669], [-71.101281, 42.358718], [-71.101362, 42.358808], [-71.101389, 42.35885], [-71.101396, 42.358893], [-71.101354, 42.358914], [-71.101392, 42.358955], [-71.102071, 42.358619], [-71.102034, 42.358577], [-71.102003, 42.358591], [-71.101862, 42.358435], [-71.101644, 42.358534], [-71.101575, 42.358557], [-71.101502, 42.35857], [-71.101433, 42.358574], [-71.101362, 42.35857], [-71.101318, 42.358524], [-71.101925, 42.358223]]]}, "properties": {"addr:city": "Cambridge", "addr:housename": "Ashdown House", "addr:housenumber": "235", "addr:postcode": "02139", "addr:state": "MA", "addr:street": "Albany Street", "building": "dormitory", "campusbuilding": "yes", "description": "Graduate residence", "name": "Ashdown House", "ref": "NW35"}}, {"type": "Feature", "id": 29708701, "geometry": {"type": "Polygon", "coordinates": [[[-71.099695, 42.362178], [-71.100033, 42.36238], [-71.099573, 42.3628], [-71.099208, 42.362582], [-71.099643, 42.362185], [-71.09967, 42.362201], [-71.099695, 42.362178]]]}, "properties": {"addr:housenumber": "350", "addr:street": "Massachusetts Avenue", "building": "yes", "name": "Takeda", "source": "MassGIS Buildings;Bing", "source_ref": "http://www.mass.gov/mgis/lidarbuildingfp2d.htm"}}, {"type": "Feature", "id": 29708703, "geometry": {"type": "Polygon", "coordinates": [[[-71.099651, 42.359313], [-71.100262, 42.359667], [-71.099661, 42.359928], [-71.099414, 42.359785], [-71.099457, 42.359743], [-71.099127, 42.359556], [-71.099305, 42.359474], [-71.099572, 42.359628], [-71.099684, 42.359516], [-71.099474, 42.359395], [-71.099651, 42.359313]]]}, "properties": {"addr:housenumber": "185", "addr:street": "Albany Street", "building": "university", "campusbuilding": "yes", "name": "Plasma Fusion & Science Ctr", "ref": "NW22"}}, {"type": "Feature", "id": 29740162, "geometry": {"type": "Polygon", "coordinates": [[[-71.09294, 42.363048], [-71.093505, 42.363076], [-71.093064, 42.363804], [-71.092874, 42.363795], [-71.09294, 42.363048]]]}, "properties": {"addr:housenumber": "600", "addr:street": "Technology Square", "alt_name": "Building NE49", "building": "university", "campusbuilding": "yes", "name": "NE49", "note": "Property Type: Office. Year Built: 2001 Rentable Square Feet: 127,150. MIT/ Alexandria Real Estate Equities, Inc.", "ref": "NE49", "source": "Massachusetts Institute of Technology - Facility Information Systems"}}, {"type": "Feature", "id": 29826981, "geometry": {"type": "Polygon", "coordinates": [[[-71.100102, 42.362017], [-71.099724, 42.36179], [-71.099663, 42.361753], [-71.099948, 42.361484], [-71.100401, 42.361743], [-71.100102, 42.362017]]]}, "properties": {"building": "yes"}}, {"type": "Feature", "id": 29860015, "geometry": {"type": "Polygon", "coordinates": [[[-71.093072, 42.362259], [-71.093156, 42.362361], [-71.093598, 42.362394], [-71.093582, 42.362513], [-71.0934, 42.362499], [-71.093397, 42.362527], [-71.093573, 42.36254], [-71.09353, 42.362857], [-71.093399, 42.362848], [-71.093428, 42.362635], [-71.093384, 42.362632], [-71.093356, 42.362844], [-71.092541, 42.362784], [-71.092451, 42.362569], [-71.093072, 42.362259]]]}, "properties": {"building": "yes", "created_by": "Potlatch 0.10f"}}, {"type": "Feature", "id": 29929971, "geometry": {"type": "Polygon", "coordinates": [[[-71.099832, 42.358394], [-71.100427, 42.358745], [-71.100114, 42.358899], [-71.099519, 42.358548], [-71.099832, 42.358394]]]}, "properties": {"addr:city": "Cambridge", "addr:housename": "The Warehouse Graduate Residence", "addr:housenumber": "224", "addr:postcode": "02139", "addr:state": "MA", "addr:street": "Albany Street", "building": "dormitory", "building:levels": "5", "campusbuilding": "yes", "description": "Graduate residence", "name": "The Warehouse", "ref": "NW30"}}, {"type": "Feature", "id": 29934401, "geometry": {"type": "Polygon", "coordinates": [[[-71.099887, 42.360806], [-71.100007, 42.360881], [-71.10003, 42.360857], [-71.100388, 42.361083], [-71.100365, 42.361106], [-71.100489, 42.361184], [-71.100464, 42.361209], [-71.100487, 42.361221], [-71.100271, 42.361437], [-71.100225, 42.361412], [-71.1002, 42.361437], [-71.099522, 42.361062], [-71.099516, 42.361058], [-71.099511, 42.361054], [-71.099506, 42.36105], [-71.099502, 42.361045], [-71.099499, 42.36104], [-71.099496, 42.361035], [-71.099494, 42.36103], [-71.099493, 42.361025], [-71.099493, 42.361019], [-71.099493, 42.361014], [-71.099494, 42.361008], [-71.099496, 42.361003], [-71.099499, 42.360998], [-71.099502, 42.360993], [-71.099507, 42.360988], [-71.099511, 42.360984], [-71.099516, 42.36098], [-71.099522, 42.360977], [-71.099531, 42.360973], [-71.099887, 42.360806]]]}, "properties": {"addr:housenumber": "35", "addr:street": "Landsdowne Street", "building": "yes", "building:levels": "8", "name": "Takeda"}}, {"type": "Feature", "id": 32499809, "geometry": {"type": "Polygon", "coordinates": [[[-71.093492, 42.359572], [-71.093398, 42.359603], [-71.093433, 42.359661], [-71.093379, 42.359679], [-71.093374, 42.359671], [-71.093301, 42.359695], [-71.093306, 42.359704], [-71.093293, 42.359708], [-71.09331, 42.359736], [-71.093326, 42.359762], [-71.093339, 42.359758], [-71.09339, 42.359844], [-71.093379, 42.359848], [-71.093412, 42.359904], [-71.093423, 42.3599], [-71.093427, 42.359908], [-71.093504, 42.359883], [-71.093498, 42.359873], [-71.093549, 42.359856], [-71.093607, 42.359955], [-71.093707, 42.359923], [-71.093648, 42.359823], [-71.093701, 42.359806], [-71.093706, 42.359815], [-71.093738, 42.359804], [-71.093742, 42.359812], [-71.093731, 42.359816], [-71.093762, 42.35987], [-71.093774, 42.359866], [-71.093779, 42.359874], [-71.093886, 42.35984], [-71.093881, 42.359831], [-71.093892, 42.359828], [-71.093861, 42.359775], [-71.093848, 42.359779], [-71.093844, 42.359771], [-71.093778, 42.359792], [-71.093772, 42.359782], [-71.093785, 42.359778], [-71.093753, 42.359726], [-71.093739, 42.35973], [-71.093686, 42.359641], [-71.093698, 42.359637], [-71.093667, 42.359584], [-71.093653, 42.359589], [-71.093648, 42.35958], [-71.093581, 42.359603], [-71.093586, 42.359611], [-71.093527, 42.35963], [-71.093492, 42.359572]]]}, "properties": {"addr:city": "Cambridge", "addr:housenumber": "105", "addr:postcode": "02139", "addr:state": "MA", "addr:street": "Massachusetts Avenue", "alt_name": "Building 9", "building": "university", "building:levels": "6", "campusbuilding": "yes", "name": "9 Samuel Tak Lee Building", "ref": "9"}}, {"type": "Feature", "id": 32517230, "geometry": {"type": "Polygon", "coordinates": [[[-71.092727, 42.359242], [-71.092821, 42.359397], [-71.093025, 42.359329], [-71.093056, 42.359378], [-71.093153, 42.359346], [-71.093322, 42.359626], [-71.093398, 42.359603], [-71.093492, 42.359572], [-71.093559, 42.35955], [-71.093387, 42.359263], [-71.093396, 42.35926], [-71.093384, 42.35924], [-71.093409, 42.359232], [-71.093347, 42.359129], [-71.093281, 42.35902], [-71.093254, 42.359029], [-71.093242, 42.359009], [-71.093231, 42.359012], [-71.093013, 42.359084], [-71.092899, 42.359123], [-71.09293, 42.359175], [-71.092727, 42.359242]]]}, "properties": {"addr:city": "Cambridge", "addr:housenumber": "77", "addr:postcode": "02139", "addr:state": "MA", "addr:street": "Massachusetts Avenue", "alt_name": "Rogers Building", "building": "university", "building:colour": "#EEEEEE", "building:levels": "6", "building:material": "stone", "campusbuilding": "yes", "gnis:feature_id": "1971695", "name": "7 Rogers Building", "ref": "7", "source": "Massachusetts Institute of Technology - Facility Information Systems"}}, {"type": "Feature", "id": 32525033, "geometry": {"type": "Polygon", "coordinates": [[[-71.093242, 42.360101], [-71.093471, 42.36048], [-71.092868, 42.36066], [-71.092671, 42.360337], [-71.092696, 42.36033], [-71.092671, 42.360286], [-71.093242, 42.360101]]]}, "properties": {"addr:housename": "Sloan Laboratories", "addr:housenumber": "70R", "addr:state": "MA", "addr:street": "Vassar Street", "alt_name": "Building 31", "building": "university", "building:levels": "4", "campusbuilding": "yes", "ele": "3", "gnis:county_name": "Middlesex", "gnis:feature_id": "1971760", "gnis:import_uuid": "57871b70-0100-4405-bb30-88b2e001a944", "gnis:reviewed": "no", "name": "31 Sloan Labs for Aircraft and Auto Engineering", "ref": "31", "source": "Massachusetts Institute of Technology - Facility Information Systems;USGS Geonames"}}, {"type": "Feature", "id": 32525279, "geometry": {"type": "Polygon", "coordinates": [[[-71.093598, 42.360692], [-71.092957, 42.360888], [-71.092851, 42.360711], [-71.093503, 42.360514], [-71.093548, 42.360599], [-71.093598, 42.360692]]]}, "properties": {"addr:housename": "McNair Building", "addr:housenumber": "70", "addr:state": "MA", "addr:street": "Vassar Street", "alt_name": "Building 37", "building": "university", "building:levels": "7", "campusbuilding": "yes", "ele": "3", "gnis:county_name": "Middlesex", "gnis:feature_id": "1971533", "gnis:import_uuid": "57871b70-0100-4405-bb30-88b2e001a944", "gnis:reviewed": "no", "name": "37 McNair Center for Space Research", "ref": "37", "source": "Massachusetts Institute of Technology - Facility Information Systems;USGS Geonames"}}, {"type": "Feature", "id": 32526802, "geometry": {"type": "Polygon", "coordinates": [[[-71.093388, 42.360036], [-71.093518, 42.360254], [-71.093661, 42.360211], [-71.093545, 42.359986], [-71.093388, 42.360036]]]}, "properties": {"addr:housename": "Wright Brothers Wind Tunnel", "addr:state": "MA", "alt_name": "Building 17", "building": "university", "building:levels": "1", "ele": "3", "gnis:county_name": "Middlesex", "gnis:feature_id": "1971879", "gnis:import_uuid": "57871b70-0100-4405-bb30-88b2e001a944", "gnis:reviewed": "no", "name": "17 Wright Brothers Wind Tunnel", "ref": "17", "source": "USGS Geonames"}}, {"type": "Feature", "id": 132600545, "geometry": {"type": "Polygon", "coordinates": [[[-71.098632, 42.359389], [-71.098533, 42.359432], [-71.098324, 42.359197], [-71.09841, 42.359153], [-71.098505, 42.359257], [-71.098632, 42.359389]]]}, "properties": {"building": "university", "ref": "NW20"}}, {"type": "Feature", "id": 132601297, "geometry": {"type": "Polygon", "coordinates": [[[-71.093913, 42.360748], [-71.093408, 42.360989], [-71.093487, 42.361076], [-71.093375, 42.361132], [-71.093117, 42.361261], [-71.093135, 42.361281], [-71.092816, 42.361442], [-71.092902, 42.361536], [-71.093695, 42.361136], [-71.093943, 42.361015], [-71.094087, 42.360942], [-71.093913, 42.360748]]]}, "properties": {"addr:housenumber": "57;59;71;77", "addr:street": "Vassar Street", "building": "university", "campusbuilding": "yes", "name": "William R. Dickson Cogeneration Plant", "ref": "42"}}, {"type": "Feature", "id": 132601562, "geometry": {"type": "Polygon", "coordinates": [[[-71.095499, 42.359332], [-71.094691, 42.359607], [-71.094588, 42.359436], [-71.095386, 42.359157], [-71.095499, 42.359332]]]}, "properties": {"addr:state": "MA", "building": "university", "campusbuilding": "yes", "ele": "3", "gnis:county_name": "Middlesex", "gnis:feature_id": "1971188", "gnis:import_uuid": "57871b70-0100-4405-bb30-88b2e001a944", "gnis:reviewed": "no", "leisure": "sports_centre", "name": "du Pont Athletic Center", "ref": "W32", "source": "USGS Geonames"}}, {"type": "Feature", "id": 132601563, "geometry": {"type": "Polygon", "coordinates": [[[-71.096167, 42.358916], [-71.096105, 42.358848], [-71.095477, 42.359161], [-71.095824, 42.359542], [-71.096452, 42.359229], [-71.096167, 42.358916]]]}, "properties": {"addr:state": "MA", "alt_name": "Building W33", "building": "university", "campusbuilding": "yes", "ele": "3", "gnis:county_name": "Middlesex", "gnis:feature_id": "1971693", "gnis:import_uuid": "57871b70-0100-4405-bb30-88b2e001a944", "gnis:reviewed": "no", "name": "Rockwell Cage", "ref": "W33", "source": "USGS Geonames"}}, {"type": "Feature", "id": 712133781, "geometry": {"type": "Polygon", "coordinates": [[[-71.093587, 42.358763], [-71.093966, 42.35864], [-71.093783, 42.358333], [-71.093555, 42.358407], [-71.093543, 42.358388], [-71.093398, 42.358435], [-71.093472, 42.358559], [-71.093561, 42.35853], [-71.093555, 42.35852], [-71.093698, 42.358473], [-71.093753, 42.358566], [-71.093614, 42.358611], [-71.093608, 42.358601], [-71.093509, 42.358633], [-71.093587, 42.358763]]]}, "properties": {"building": "yes"}}, {"type": "Feature", "id": 25679668, "geometry": {"type": "Polygon", "coordinates": [[[-71.101506, 42.359404], [-71.101351, 42.359543], [-71.102047, 42.359918], [-71.101986, 42.359962], [-71.10251, 42.360259], [-71.103145, 42.359702], [-71.102888, 42.359537], [-71.102399, 42.359962], [-71.102072, 42.359778], [-71.102502, 42.359366], [-71.102278, 42.359226], [-71.101892, 42.359626], [-71.101506, 42.359404]]]}, "properties": {"addr:city": "Cambridge", "addr:housenumber": "70", "addr:street": "Pacific Street", "architect": "Steffian Bradley", "building": "dormitory", "building:levels": "9", "campusbuilding": "yes", "description": "Graduate residence", "name": "Sidney Pacific (NW86)", "ref": "NW86"}}, {"type": "Feature", "id": 29681512, "geometry": {"type": "Polygon", "coordinates": [[[-71.100775, 42.361127], [-71.101133, 42.361325], [-71.100701, 42.361755], [-71.100343, 42.361557], [-71.100775, 42.361127]]]}, "properties": {"addr:housenumber": "38", "addr:street": "Sidney Street", "building": "yes", "name": "Partners"}}, {"type": "Feature", "id": 29795717, "geometry": {"type": "Polygon", "coordinates": [[[-71.100522, 42.362721], [-71.100677, 42.362816], [-71.100508, 42.362968], [-71.100664, 42.363063], [-71.100602, 42.363119], [-71.100717, 42.363189], [-71.100559, 42.363331], [-71.100449, 42.363264], [-71.100503, 42.363216], [-71.100348, 42.363121], [-71.100317, 42.363149], [-71.100251, 42.36311], [-71.10045, 42.362931], [-71.100355, 42.362872], [-71.100522, 42.362721]]]}, "properties": {"addr:housenumber": "400;402;408;410", "addr:street": "Massachusetts Avenue", "building": "yes", "name": "Salvation Army"}}, {"type": "Feature", "id": 29820671, "geometry": {"type": "Polygon", "coordinates": [[[-71.10169, 42.363334], [-71.101846, 42.363423], [-71.101526, 42.363732], [-71.101555, 42.363748], [-71.101469, 42.363832], [-71.101436, 42.363864], [-71.101018, 42.363626], [-71.101131, 42.363516], [-71.101174, 42.363476], [-71.101236, 42.363416], [-71.101376, 42.363494], [-71.101454, 42.363419], [-71.101503, 42.363447], [-71.101371, 42.363574], [-71.101415, 42.363599], [-71.10169, 42.363334]]]}, "properties": {"addr:housenumber": "350", "addr:street": "Massachusetts Avenue", "building": "yes"}}, {"type": "Feature", "id": 29822938, "geometry": {"type": "Polygon", "coordinates": [[[-71.100791, 42.363203], [-71.100883, 42.363258], [-71.100788, 42.363343], [-71.100695, 42.363424], [-71.100608, 42.363369], [-71.100791, 42.363203]]]}, "properties": {"addr:housenumber": "424", "addr:street": "Massachusetts Avenue", "building": "retail"}}, {"type": "Feature", "id": 29825330, "geometry": {"type": "Polygon", "coordinates": [[[-71.100974, 42.360332], [-71.101182, 42.360456], [-71.101178, 42.360459], [-71.101174, 42.360463], [-71.10117, 42.360466], [-71.101166, 42.36047], [-71.101163, 42.360474], [-71.101159, 42.360479], [-71.101157, 42.360483], [-71.101154, 42.360487], [-71.101152, 42.360492], [-71.10115, 42.360497], [-71.101148, 42.360501], [-71.101147, 42.360506], [-71.101146, 42.360511], [-71.101145, 42.360515], [-71.101145, 42.36052], [-71.101145, 42.360525], [-71.101146, 42.36053], [-71.101146, 42.360535], [-71.101147, 42.36054], [-71.101149, 42.360544], [-71.101151, 42.360549], [-71.101153, 42.360554], [-71.101155, 42.360558], [-71.101158, 42.360562], [-71.101161, 42.360567], [-71.101164, 42.360571], [-71.101168, 42.360575], [-71.101172, 42.360579], [-71.101176, 42.360582], [-71.10118, 42.360586], [-71.101185, 42.360589], [-71.10119, 42.360593], [-71.100889, 42.360869], [-71.100866, 42.360855], [-71.100798, 42.360917], [-71.100315, 42.360628], [-71.100974, 42.360332]]]}, "properties": {"addr:housenumber": "65", "addr:street": "Landsdowne Street", "building": "yes", "name": "Partners HealthCare"}}, {"type": "Feature", "id": 29828756, "geometry": {"type": "Polygon", "coordinates": [[[-71.100924, 42.363222], [-71.101019, 42.36328], [-71.100913, 42.363375], [-71.100948, 42.363397], [-71.101051, 42.363304], [-71.101146, 42.363362], [-71.101039, 42.363462], [-71.100919, 42.363563], [-71.100695, 42.363424], [-71.100788, 42.363343], [-71.100883, 42.363258], [-71.100924, 42.363222]]]}, "properties": {"addr:housenumber": "428;434;438;440", "addr:street": "Massachusetts Avenue", "building": "apartments"}}, {"type": "Feature", "id": 29888833, "geometry": {"type": "Polygon", "coordinates": [[[-71.10121, 42.362221], [-71.10151, 42.362392], [-71.101279, 42.362616], [-71.101374, 42.36267], [-71.101345, 42.362698], [-71.101498, 42.362785], [-71.101747, 42.362544], [-71.102047, 42.362715], [-71.101796, 42.362957], [-71.102113, 42.363138], [-71.101939, 42.363306], [-71.101664, 42.363149], [-71.10165, 42.363163], [-71.101585, 42.363126], [-71.101602, 42.363111], [-71.101317, 42.362949], [-71.101302, 42.362964], [-71.10076, 42.362655], [-71.10121, 42.362221]]]}, "properties": {"addr:city": "Cambridge", "addr:housenumber": "129", "addr:postcode": "02139", "addr:state": "MA", "addr:street": "Franklin Street", "building": "apartments", "building:levels": "4", "name": "Kennedy Biscuit Lofts", "roof:levels": "0", "website": "https://www.kblliving.com/", "wikidata": "Q5423804"}}, {"type": "Feature", "id": 29903351, "geometry": {"type": "Polygon", "coordinates": [[[-71.102286, 42.361166], [-71.102687, 42.361394], [-71.102242, 42.361824], [-71.102008, 42.361691], [-71.101921, 42.361775], [-71.102153, 42.361908], [-71.101688, 42.362356], [-71.101279, 42.362123], [-71.101421, 42.361986], [-71.101416, 42.361983], [-71.101411, 42.36198], [-71.101407, 42.361976], [-71.101403, 42.361973], [-71.101399, 42.361969], [-71.101397, 42.361965], [-71.101394, 42.36196], [-71.101392, 42.361956], [-71.101391, 42.361951], [-71.10139, 42.361947], [-71.101389, 42.361942], [-71.10139, 42.361937], [-71.10139, 42.361933], [-71.101392, 42.361928], [-71.101394, 42.361924], [-71.101396, 42.361919], [-71.101399, 42.361915], [-71.101402, 42.361911], [-71.101406, 42.361907], [-71.10141, 42.361904], [-71.101415, 42.361901], [-71.10142, 42.361898], [-71.101425, 42.361895], [-71.101431, 42.361893], [-71.101437, 42.361891], [-71.101443, 42.36189], [-71.101449, 42.361889], [-71.101455, 42.361888], [-71.101461, 42.361888], [-71.101467, 42.361888], [-71.101474, 42.361888], [-71.10148, 42.361889], [-71.101486, 42.361891], [-71.101492, 42.361893], [-71.101497, 42.361895], [-71.101503, 42.361897], [-71.101508, 42.3619], [-71.101513, 42.361904], [-71.101746, 42.361675], [-71.101881, 42.361752], [-71.101968, 42.361668], [-71.101842, 42.361596], [-71.102074, 42.361371], [-71.102071, 42.361368], [-71.102068, 42.361364], [-71.102066, 42.36136], [-71.102064, 42.361356], [-71.102063, 42.361352], [-71.102062, 42.361348], [-71.102061, 42.361343], [-71.102062, 42.361339], [-71.102062, 42.361335], [-71.102063, 42.36133], [-71.102065, 42.361326], [-71.102067, 42.361322], [-71.10207, 42.361318], [-71.102073, 42.361315], [-71.102076, 42.361311], [-71.10208, 42.361308], [-71.102084, 42.361305], [-71.102089, 42.361302], [-71.102094, 42.3613], [-71.102099, 42.361298], [-71.102104, 42.361296], [-71.10211, 42.361295], [-71.102115, 42.361294], [-71.102121, 42.361293], [-71.102133, 42.361293], [-71.102138, 42.361293], [-71.102144, 42.361294], [-71.102151, 42.361296], [-71.102286, 42.361166]]]}, "properties": {"addr:housenumber": "45;75", "addr:street": "Sidney Street", "building": "office", "building:levels": "5"}}, {"type": "Feature", "id": 29922206, "geometry": {"type": "Polygon", "coordinates": [[[-71.101612, 42.360059], [-71.102175, 42.360406], [-71.101855, 42.360692], [-71.101175, 42.360274], [-71.101612, 42.360059]]]}, "properties": {"addr:housenumber": "88", "addr:street": "Sidney Street", "building": "office", "name": "Alkermes biopharmaceuticals"}}, {"type": "Feature", "id": 29935648, "geometry": {"type": "Polygon", "coordinates": [[[-71.101513, 42.360664], [-71.101744, 42.360802], [-71.101266, 42.361241], [-71.100902, 42.361023], [-71.101291, 42.360666], [-71.101513, 42.360664]]]}, "properties": {"addr:housenumber": "64", "addr:street": "Sidney Street", "building": "office", "name": "The Richards Building / biotech"}}, {"type": "Feature", "id": 29938232, "geometry": {"type": "Polygon", "coordinates": [[[-71.101261, 42.363085], [-71.101372, 42.363148], [-71.10136, 42.363157], [-71.101201, 42.36331], [-71.101092, 42.363248], [-71.101261, 42.363085]]]}, "properties": {"building": "yes"}}, {"type": "Feature", "id": 45763362, "geometry": {"type": "Polygon", "coordinates": [[[-71.10104, 42.362195], [-71.100678, 42.362508], [-71.100417, 42.362359], [-71.100774, 42.362034], [-71.10104, 42.362195]]]}, "properties": {"addr:city": "Cambridge", "addr:housenumber": "23", "addr:postcode": "02139", "addr:state": "MA", "addr:street": "Sidney Street", "building": "apartments", "building:levels": "4", "name": "loft23", "website": "https://www.loft23living.com/"}}, {"type": "Feature", "id": 264253041, "geometry": {"type": "Polygon", "coordinates": [[[-71.100749, 42.360091], [-71.101193, 42.359922], [-71.101356, 42.359779], [-71.101142, 42.359662], [-71.10112, 42.359686], [-71.101075, 42.359658], [-71.100954, 42.359714], [-71.100868, 42.359613], [-71.100588, 42.359741], [-71.100655, 42.359823], [-71.100564, 42.359864], [-71.100749, 42.360091]]]}, "properties": {"addr:city": "Cambridge", "addr:housenumber": "100", "addr:postcode": "02139", "addr:street": "Landsdowne Street", "building": "apartments", "building:levels": "18", "height": "62", "name": "100 Landsdowne", "website": "https://www.100living.com/"}}, {"type": "Feature", "id": 264694971, "geometry": {"type": "Polygon", "coordinates": [[[-71.10159, 42.363289], [-71.10136, 42.363157], [-71.101201, 42.36331], [-71.101146, 42.363362], [-71.101039, 42.363462], [-71.101131, 42.363516], [-71.101174, 42.363476], [-71.101236, 42.363416], [-71.101376, 42.363494], [-71.101454, 42.363419], [-71.10159, 42.363289]]]}, "properties": {"addr:city": "Cambridge", "addr:housenumber": "450", "addr:postcode": "02139", "addr:state": "MA", "addr:street": "Massachusetts Avenue", "building": "commercial", "building:levels": "2", "email": "nuvu@nuvustudio.org", "name": "Nuvu Studio", "phone": "(617) 945-7716", "smoking": "no"}}, {"type": "Feature", "id": 29127393, "geometry": {"type": "Polygon", "coordinates": [[[-71.094691, 42.359607], [-71.095499, 42.359332], [-71.095686, 42.35962], [-71.094845, 42.359937], [-71.094742, 42.359817], [-71.094656, 42.359836], [-71.094639, 42.359804], [-71.094716, 42.359772], [-71.094639, 42.359626], [-71.094691, 42.359607]]]}, "properties": {"addr:housenumber": "120", "building": "university", "building:levels": "2", "campusbuilding": "yes", "name": "du Pont Athletic Gymnasium", "ref": "W31", "roof:levels": "2"}}, {"type": "Feature", "id": 29513564, "geometry": {"type": "Polygon", "coordinates": [[[-71.099311, 42.363492], [-71.099712, 42.363524], [-71.09965, 42.36366], [-71.09929, 42.363631], [-71.099311, 42.363492]]]}, "properties": {"addr:housenumber": "897;899;901;905;907", "addr:street": "Main Street", "building": "construction"}}, {"type": "Feature", "id": 29556300, "geometry": {"type": "Polygon", "coordinates": [[[-71.096194, 42.363278], [-71.096319, 42.363419], [-71.096406, 42.363377], [-71.096473, 42.363453], [-71.096382, 42.363498], [-71.096522, 42.363658], [-71.096333, 42.363749], [-71.096384, 42.363807], [-71.096296, 42.363849], [-71.096242, 42.363787], [-71.096188, 42.363813], [-71.096132, 42.363749], [-71.096374, 42.363633], [-71.096164, 42.363388], [-71.095879, 42.363524], [-71.095826, 42.363465], [-71.095889, 42.363434], [-71.095837, 42.363375], [-71.095927, 42.363332], [-71.095973, 42.363384], [-71.096194, 42.363278]]]}, "properties": {"addr:housenumber": "1;3;5;7;9", "addr:street": "Newtowne Court", "building": "apartments"}}, {"type": "Feature", "id": 29559726, "geometry": {"type": "Polygon", "coordinates": [[[-71.093943, 42.361015], [-71.094113, 42.361205], [-71.094195, 42.361297], [-71.093947, 42.361418], [-71.093695, 42.361136], [-71.093943, 42.361015]]]}, "properties": {"building": "university", "campusbuilding": "yes", "name": "N16 Cooling Tower", "ref": "N16"}}, {"type": "Feature", "id": 29566343, "geometry": {"type": "Polygon", "coordinates": [[[-71.098734, 42.360173], [-71.09862, 42.360113], [-71.098301, 42.359912], [-71.098369, 42.359877], [-71.09853, 42.359794], [-71.0987, 42.359886], [-71.09873, 42.359911], [-71.099148, 42.360159], [-71.098903, 42.360278], [-71.098734, 42.360173]]]}, "properties": {"addr:housenumber": "167", "addr:street": "Albany Street", "building": "university", "campusbuilding": "yes", "name": "Plasma Fusion & Science Ctr", "ref": "NW16"}}, {"type": "Feature", "id": 29566805, "geometry": {"type": "Polygon", "coordinates": [[[-71.094517, 42.360465], [-71.094636, 42.360601], [-71.094455, 42.360688], [-71.094336, 42.360551], [-71.094517, 42.360465]]]}, "properties": {"building": "yes", "created_by": "Potlatch 0.10f"}}, {"type": "Feature", "id": 29569108, "geometry": {"type": "Polygon", "coordinates": [[[-71.093913, 42.360748], [-71.094219, 42.360602], [-71.09439, 42.36079], [-71.094087, 42.360942], [-71.093913, 42.360748]]]}, "properties": {"building": "university", "ref": "41"}}, {"type": "Feature", "id": 29574513, "geometry": {"type": "Polygon", "coordinates": [[[-71.098323, 42.362705], [-71.098725, 42.36273], [-71.098658, 42.363243], [-71.098331, 42.363219], [-71.098365, 42.362938], [-71.098301, 42.362936], [-71.098323, 42.362705]]]}, "properties": {"addr:city": "Cambridge", "addr:housenumber": "844", "addr:postcode": "02139", "addr:state": "MA", "addr:street": "Main Street", "amenity": "car_rental", "brand": "U-Haul", "brand:wikidata": "Q7862902", "brand:wikipedia": "en:U-Haul", "building": "yes", "name": "U-Haul", "opening_hours": "Mo-Th 07:00-19:00; Fr 07:00-20:00; Sa 07:00-19:00; Su 09:00-17:00", "opening_hours:storage": "Mo-Su 05:00-22:00", "phone": "+1 617 354 0500"}}, {"type": "Feature", "id": 29575195, "geometry": {"type": "Polygon", "coordinates": [[[-71.098071, 42.360107], [-71.09804, 42.36009], [-71.097952, 42.360136], [-71.097976, 42.360152], [-71.098071, 42.360107]]]}, "properties": {"building": "yes"}}, {"type": "Feature", "id": 29609874, "geometry": {"type": "Polygon", "coordinates": [[[-71.09701, 42.361589], [-71.097487, 42.361867], [-71.096976, 42.36183], [-71.09701, 42.361589]]]}, "properties": {"addr:housenumber": "233;239;243;245;259", "addr:street": "Massachusetts Avenue", "building": "yes"}}, {"type": "Feature", "id": 29621406, "geometry": {"type": "Polygon", "coordinates": [[[-71.095986, 42.36255], [-71.096127, 42.36256], [-71.096698, 42.362599], [-71.096636, 42.363099], [-71.095783, 42.363041], [-71.095812, 42.362808], [-71.095953, 42.362818], [-71.095986, 42.36255]]]}, "properties": {"addr:city": "Cambridge", "addr:housenumber": "750", "addr:postcode": "02139", "addr:state": "MA- MASSACHUSETTS", "addr:street": "Main Street", "building": "commercial", "building:levels": "5", "name": "750 Main St", "note": "Owner: MIT. Potential: lab/office space. Condition: poor. Former Polaroid offices."}}, {"type": "Feature", "id": 29621528, "geometry": {"type": "Polygon", "coordinates": [[[-71.094689, 42.363176], [-71.094932, 42.363452], [-71.095067, 42.363387], [-71.095019, 42.363332], [-71.095117, 42.363284], [-71.09517, 42.363344], [-71.095393, 42.363236], [-71.095521, 42.363382], [-71.095606, 42.363341], [-71.095664, 42.363406], [-71.095579, 42.363448], [-71.09566, 42.36354], [-71.095709, 42.363517], [-71.095773, 42.363588], [-71.095524, 42.363709], [-71.095541, 42.363728], [-71.095463, 42.363765], [-71.095354, 42.363642], [-71.095439, 42.3636], [-71.095473, 42.363639], [-71.095578, 42.363588], [-71.095363, 42.363342], [-71.094777, 42.363602], [-71.0948, 42.363629], [-71.094706, 42.363674], [-71.094602, 42.363555], [-71.094712, 42.363502], [-71.094749, 42.363545], [-71.094856, 42.363493], [-71.094674, 42.363285], [-71.09418, 42.363501], [-71.094126, 42.363445], [-71.094178, 42.36342], [-71.094129, 42.363363], [-71.094228, 42.363315], [-71.094284, 42.36338], [-71.094396, 42.363325], [-71.09434, 42.363262], [-71.094428, 42.363219], [-71.094479, 42.363277], [-71.094689, 42.363176]]]}, "properties": {"building": "apartments"}}, {"type": "Feature", "id": 29623218, "geometry": {"type": "Polygon", "coordinates": [[[-71.097312, 42.363139], [-71.096795, 42.363106], [-71.096806, 42.363015], [-71.09684, 42.363017], [-71.096842, 42.363002], [-71.096873, 42.363004], [-71.096875, 42.362987], [-71.09692, 42.36299], [-71.096916, 42.36302], [-71.097013, 42.363026], [-71.097018, 42.36299], [-71.097075, 42.362994], [-71.097071, 42.363036], [-71.097178, 42.363042], [-71.097183, 42.363004], [-71.097233, 42.363007], [-71.097228, 42.363048], [-71.097322, 42.363054], [-71.097312, 42.363139]]]}, "properties": {"addr:housenumber": "782;784;790;792;796;798", "addr:street": "Main Street", "building": "yes"}}, {"type": "Feature", "id": 29627682, "geometry": {"type": "Polygon", "coordinates": [[[-71.095373, 42.362829], [-71.095431, 42.362831], [-71.095431, 42.362855], [-71.09578, 42.362862], [-71.095776, 42.362949], [-71.095747, 42.362949], [-71.095746, 42.362969], [-71.095715, 42.362968], [-71.095713, 42.363026], [-71.095366, 42.36302], [-71.095373, 42.362829]]]}, "properties": {"addr:city": "Cambridge", "addr:housenumber": "730", "addr:postcode": "02139", "addr:state": "MA- MASSACHUSETTS", "addr:street": "Main Street", "building": "commercial", "building:levels": "5", "name": "730 Main St.: vacant.", "note": "Owner: MIT.  Former Polaroid offices. Potential lab/office space."}}, {"type": "Feature", "id": 29650640, "geometry": {"type": "Polygon", "coordinates": [[[-71.098941, 42.362755], [-71.09899, 42.362757], [-71.099402, 42.363019], [-71.099363, 42.363051], [-71.099343, 42.363036], [-71.09932, 42.36306], [-71.099335, 42.363068], [-71.099249, 42.363135], [-71.099167, 42.363082], [-71.099254, 42.363016], [-71.099234, 42.363001], [-71.099211, 42.363019], [-71.099082, 42.36294], [-71.099098, 42.362926], [-71.099051, 42.362899], [-71.099051, 42.362946], [-71.098972, 42.363035], [-71.098914, 42.363015], [-71.098941, 42.362755]]]}, "properties": {"addr:housenumber": "351;353;355", "addr:street": "Massachusetts Avenue", "building": "yes", "building:levels": "5"}}, {"type": "Feature", "id": 29650656, "geometry": {"type": "Polygon", "coordinates": [[[-71.098717, 42.360546], [-71.098868, 42.360635], [-71.098619, 42.360736], [-71.098656, 42.360764], [-71.098716, 42.360726], [-71.098771, 42.360778], [-71.098725, 42.360805], [-71.098904, 42.360918], [-71.099171, 42.360807], [-71.099322, 42.360926], [-71.09887, 42.36113], [-71.098256, 42.360759], [-71.098717, 42.360546]]]}, "properties": {"addr:housenumber": "26", "addr:street": "Landsdowne Street", "building": "yes"}}, {"type": "Feature", "id": 29650658, "geometry": {"type": "Polygon", "coordinates": [[[-71.095496, 42.360742], [-71.095616, 42.360875], [-71.095457, 42.360953], [-71.095478, 42.360977], [-71.095414, 42.361008], [-71.095273, 42.360852], [-71.095496, 42.360742]]]}, "properties": {"addr:city": "Cambridge", "addr:housenumber": "155", "addr:postcode": "02139", "addr:state": "MA", "addr:street": "Massachusetts Avenue", "architect": "Carleton Richmond Jr.", "building": "university", "campusbuilding": "yes", "name": "High Voltage Research Lab (N10)", "ref": "N10"}}, {"type": "Feature", "id": 29650661, "geometry": {"type": "Polygon", "coordinates": [[[-71.096773, 42.360572], [-71.097267, 42.360356], [-71.097473, 42.360481], [-71.097232, 42.360594], [-71.097243, 42.360637], [-71.097232, 42.360667], [-71.097202, 42.360689], [-71.096864, 42.360841], [-71.09683, 42.360851], [-71.096797, 42.360841], [-71.096516, 42.360683], [-71.096773, 42.360572]]]}, "properties": {"amenity": "parking", "building": "yes", "levels": "3", "parking": "multi-storey"}}, {"type": "Feature", "id": 29714576, "geometry": {"type": "Polygon", "coordinates": [[[-71.094351, 42.361089], [-71.094578, 42.361343], [-71.094451, 42.361405], [-71.094306, 42.361243], [-71.094195, 42.361297], [-71.094113, 42.361205], [-71.094351, 42.361089]]]}, "properties": {"addr:housenumber": "60", "addr:street": "Albany Street", "building": "university", "campusbuilding": "yes", "ref": "N16A"}}, {"type": "Feature", "id": 29739496, "geometry": {"type": "Polygon", "coordinates": [[[-71.095206, 42.36081], [-71.095367, 42.360995], [-71.095159, 42.361095], [-71.095043, 42.36096], [-71.0951, 42.360933], [-71.095056, 42.360882], [-71.095206, 42.36081]]]}, "properties": {"addr:city": "Cambridge", "addr:housenumber": "68", "addr:postcode": "02139", "addr:state": "MA", "addr:street": "Albany Street", "building": "university", "campusbuilding": "yes", "name": "Superconducting  Test Facility (N9)", "ref": "N9"}}, {"type": "Feature", "id": 29740910, "geometry": {"type": "Polygon", "coordinates": [[[-71.097312, 42.363139], [-71.097322, 42.363054], [-71.097346, 42.362851], [-71.097364, 42.362642], [-71.098016, 42.362682], [-71.098002, 42.362802], [-71.09781, 42.362789], [-71.097782, 42.363037], [-71.097807, 42.363039], [-71.09779, 42.363186], [-71.09731, 42.363156], [-71.097312, 42.363139]]]}, "properties": {"addr:city": "Cambridge", "addr:housenumber": "810", "addr:postcode": "02139", "addr:state": "MA", "addr:street": "Main Street", "building": "commercial", "name": "Cambridge Brands", "note": "Manufacturer of Junior Mints", "source": "MassGIS Buildings (http://www.mass.gov/mgis/lidarbuildingfp2d.htm)"}}, {"type": "Feature", "id": 29802646, "geometry": {"type": "Polygon", "coordinates": [[[-71.099205, 42.363147], [-71.099298, 42.363148], [-71.099298, 42.363177], [-71.099285, 42.363176], [-71.099285, 42.363205], [-71.099299, 42.363205], [-71.099299, 42.363253], [-71.099282, 42.363253], [-71.099281, 42.363293], [-71.099203, 42.363293], [-71.099205, 42.363147]]]}, "properties": {"addr:housenumber": "884", "addr:street": "Main Street", "building": "yes"}}, {"type": "Feature", "id": 29802787, "geometry": {"type": "Polygon", "coordinates": [[[-71.096808, 42.363323], [-71.09692, 42.36333], [-71.096919, 42.363343], [-71.096935, 42.363344], [-71.09693, 42.363386], [-71.096911, 42.363385], [-71.096898, 42.363489], [-71.096835, 42.363485], [-71.096833, 42.363503], [-71.096797, 42.3635], [-71.096799, 42.363484], [-71.096766, 42.363481], [-71.096772, 42.363434], [-71.096795, 42.363436], [-71.096808, 42.363323]]]}, "properties": {"addr:housenumber": "781;783", "addr:street": "Main Street", "building": "yes"}}, {"type": "Feature", "id": 29803141, "geometry": {"type": "Polygon", "coordinates": [[[-71.096516, 42.360683], [-71.09668, 42.360796], [-71.096496, 42.360967], [-71.096253, 42.360798], [-71.096516, 42.360683]]]}, "properties": {"addr:city": "Cambridge", "addr:housenumber": "180", "addr:state": "Massachusetts", "addr:street": "Massachusetts Avenue", "amenity": "bar", "building": "yes", "gay": "yes", "lgbtq": "primary", "name": "Paradise", "phone": "617 868-3000", "postal_code": "02238", "website": "http://paradisecambridge.com/"}}, {"type": "Feature", "id": 29803324, "geometry": {"type": "Polygon", "coordinates": [[[-71.096922, 42.363412], [-71.097041, 42.363419], [-71.097022, 42.363581], [-71.096903, 42.363574], [-71.096922, 42.363412]]]}, "properties": {"addr:city": "Cambridge", "addr:housenumber": "789", "addr:postcode": "02139", "addr:state": "MA", "addr:street": "Main Street", "amenity": "place_of_worship", "building": "church", "name": "Christian Mission Holiness Church", "phone": "+1 617 547 3272", "religion": "christian", "website": "http://www.christianmissionholiness.org/"}}, {"type": "Feature", "id": 29803955, "geometry": {"type": "Polygon", "coordinates": [[[-71.096761, 42.359314], [-71.09696, 42.359543], [-71.096275, 42.35987], [-71.096238, 42.359828], [-71.096007, 42.359938], [-71.096047, 42.359985], [-71.095405, 42.360309], [-71.095127, 42.360143], [-71.096761, 42.359314]]]}, "properties": {"building": "warehouse", "building:levels": "5", "description": "Fire proof! Now owned by M.I.T., potential new location for School of Architecture and Planning", "name": "Metropolitan Storage Warehouse", "roof:levels": "0"}}, {"type": "Feature", "id": 29804035, "geometry": {"type": "Polygon", "coordinates": [[[-71.098917, 42.363472], [-71.099097, 42.363478], [-71.099085, 42.36367], [-71.099131, 42.363671], [-71.099127, 42.363737], [-71.09909, 42.363736], [-71.099085, 42.363826], [-71.0989, 42.363736], [-71.098917, 42.363472]]]}, "properties": {"addr:housenumber": "877", "addr:street": "Main Street", "building": "yes"}}, {"type": "Feature", "id": 29804347, "geometry": {"type": "Polygon", "coordinates": [[[-71.09668, 42.360796], [-71.097096, 42.36103], [-71.097144, 42.361063], [-71.097202, 42.361128], [-71.0971, 42.361215], [-71.097019, 42.361281], [-71.096897, 42.361208], [-71.096496, 42.360967], [-71.09668, 42.360796]]]}, "properties": {"building": "office", "name": "Novartis"}}, {"type": "Feature", "id": 29804458, "geometry": {"type": "Polygon", "coordinates": [[[-71.095171, 42.36203], [-71.095191, 42.361885], [-71.095353, 42.361897], [-71.095207, 42.362983], [-71.094797, 42.362952], [-71.094899, 42.362192], [-71.095147, 42.362211], [-71.095171, 42.36203]]]}, "properties": {"building": "yes", "created_by": "Potlatch 0.10f"}}, {"type": "Feature", "id": 29808210, "geometry": {"type": "Polygon", "coordinates": [[[-71.096267, 42.360177], [-71.096301, 42.360222], [-71.096323, 42.360213], [-71.096344, 42.360241], [-71.09632, 42.360251], [-71.096306, 42.360234], [-71.09628, 42.360245], [-71.0963, 42.360271], [-71.096251, 42.360291], [-71.096237, 42.360272], [-71.096216, 42.36028], [-71.096169, 42.360219], [-71.096267, 42.360177]]]}, "properties": {"building": "service"}}, {"type": "Feature", "id": 29809099, "geometry": {"type": "Polygon", "coordinates": [[[-71.09847, 42.361885], [-71.098313, 42.362022], [-71.09804, 42.361851], [-71.098142, 42.36176], [-71.098223, 42.361687], [-71.098242, 42.36167], [-71.098519, 42.361839], [-71.09847, 42.361885]]]}, "properties": {"addr:housenumber": "282", "addr:street": "Massachusetts Avenue", "building": "dormitory", "building:levels": "4", "description": "Undergraduate residence", "ele": "3", "gnis:county_name": "Middlesex", "gnis:feature_id": "1971679", "gnis:import_uuid": "57871b70-0100-4405-bb30-88b2e001a944", "gnis:reviewed": "yes", "name": "Random Hall (NW61)", "operator": "Massachusetts Institute of Technology", "ref": "NW61", "source": "USGS Geonames"}}, {"type": "Feature", "id": 29860611, "geometry": {"type": "Polygon", "coordinates": [[[-71.098672, 42.361563], [-71.098927, 42.36172], [-71.098811, 42.361822], [-71.098557, 42.361666], [-71.098672, 42.361563]]]}, "properties": {"addr:housenumber": "13", "addr:street": "Green Street", "building": "yes"}}, {"type": "Feature", "id": 29860824, "geometry": {"type": "Polygon", "coordinates": [[[-71.096593, 42.361366], [-71.096842, 42.361522], [-71.096799, 42.361869], [-71.096736, 42.361866], [-71.096728, 42.36192], [-71.096535, 42.361906], [-71.096593, 42.361366]]]}, "properties": {"addr:housenumber": "209;211", "addr:street": "Massachusetts Avenue", "building": "university", "ref": "N42"}}, {"type": "Feature", "id": 29862486, "geometry": {"type": "Polygon", "coordinates": [[[-71.093856, 42.363199], [-71.093908, 42.363258], [-71.093673, 42.363372], [-71.093784, 42.363499], [-71.093678, 42.36355], [-71.093546, 42.363399], [-71.093649, 42.363349], [-71.093618, 42.363314], [-71.093856, 42.363199]]]}, "properties": {"addr:housenumber": "33;35", "addr:street": "Newtowne Court", "building": "apartments"}}, {"type": "Feature", "id": 29863763, "geometry": {"type": "Polygon", "coordinates": [[[-71.097653, 42.360585], [-71.098654, 42.361179], [-71.098322, 42.36133], [-71.098175, 42.361241], [-71.097837, 42.361541], [-71.097636, 42.36164], [-71.097127, 42.361334], [-71.0973, 42.361177], [-71.097347, 42.361206], [-71.097385, 42.361171], [-71.097471, 42.361223], [-71.097509, 42.361188], [-71.097543, 42.361209], [-71.097769, 42.361002], [-71.097424, 42.360795], [-71.097653, 42.360585]]]}, "properties": {"addr:housenumber": "250", "addr:street": "Massachusetts Avenue", "building": "yes", "building:levels": "6", "name": "Novartis Amenities Building"}}, {"type": "Feature", "id": 29864450, "geometry": {"type": "Polygon", "coordinates": [[[-71.098435, 42.363446], [-71.098739, 42.363456], [-71.09873, 42.363599], [-71.09872, 42.363599], [-71.098719, 42.363624], [-71.098435, 42.363446]]]}, "properties": {"building": "yes"}}, {"type": "Feature", "id": 29865047, "geometry": {"type": "Polygon", "coordinates": [[[-71.097079, 42.363336], [-71.09743, 42.363358], [-71.097427, 42.363383], [-71.097441, 42.363384], [-71.097429, 42.363487], [-71.09714, 42.363469], [-71.097132, 42.363546], [-71.09717, 42.363548], [-71.097166, 42.363585], [-71.09704, 42.363577], [-71.097058, 42.363418], [-71.097069, 42.363419], [-71.097079, 42.363336]]]}, "properties": {"addr:housenumber": "795;799;805", "addr:street": "Main Street", "building": "yes"}}, {"type": "Feature", "id": 29867404, "geometry": {"type": "Polygon", "coordinates": [[[-71.097871, 42.363402], [-71.097867, 42.363429], [-71.097881, 42.36343], [-71.097863, 42.363572], [-71.097555, 42.363551], [-71.097575, 42.363384], [-71.097871, 42.363402]]]}, "properties": {"addr:housenumber": "821;823;825", "addr:street": "Main Street", "building": "apartments"}}, {"type": "Feature", "id": 29868723, "geometry": {"type": "Polygon", "coordinates": [[[-71.098672, 42.361563], [-71.098557, 42.361666], [-71.098481, 42.361734], [-71.098195, 42.361557], [-71.098469, 42.361438], [-71.098672, 42.361563]]]}, "properties": {"building": "yes"}}, {"type": "Feature", "id": 29869087, "geometry": {"type": "Polygon", "coordinates": [[[-71.098935, 42.363091], [-71.09907, 42.363097], [-71.099058, 42.363261], [-71.098923, 42.363255], [-71.098935, 42.363091]]]}, "properties": {"addr:city": "Cambridge", "addr:housenumber": "874", "addr:postcode": "02139", "addr:state": "MA", "addr:street": "Main Street", "amenity": "place_of_worship", "building": "church", "building:levels": "4", "denomination": "baptist", "name": "Union Baptist Church", "phone": "+16178646885", "religion": "christian", "website": "http://www.ubccambridge.org/"}}, {"type": "Feature", "id": 29870503, "geometry": {"type": "Polygon", "coordinates": [[[-71.098941, 42.362755], [-71.098914, 42.363015], [-71.098888, 42.363256], [-71.098706, 42.363245], [-71.098759, 42.362745], [-71.098941, 42.362755]]]}, "properties": {"building": "university", "ref": "N57"}}, {"type": "Feature", "id": 29872304, "geometry": {"type": "Polygon", "coordinates": [[[-71.097484, 42.361987], [-71.097121, 42.361948], [-71.097106, 42.362088], [-71.097409, 42.362106], [-71.0974, 42.362178], [-71.09693, 42.362145], [-71.096886, 42.362482], [-71.097412, 42.362524], [-71.097484, 42.361987]]]}, "properties": {"building": "university", "name": "MIT Museum", "ref": "N52"}}, {"type": "Feature", "id": 29945523, "geometry": {"type": "Polygon", "coordinates": [[[-71.09816, 42.362254], [-71.098664, 42.362568], [-71.098662, 42.36261], [-71.098406, 42.3626], [-71.098236, 42.362498], [-71.098188, 42.362546], [-71.098138, 42.362539], [-71.098136, 42.362554], [-71.098057, 42.362545], [-71.098055, 42.362571], [-71.097909, 42.362563], [-71.097934, 42.362315], [-71.098091, 42.362322], [-71.09816, 42.362254]]]}, "properties": {"addr:housenumber": "297", "addr:street": "Massachusetts Avenue", "building": "yes"}}, {"type": "Feature", "id": 29946359, "geometry": {"type": "Polygon", "coordinates": [[[-71.095191, 42.361885], [-71.095171, 42.36203], [-71.095101, 42.362033], [-71.095011, 42.362025], [-71.094914, 42.361991], [-71.094876, 42.36197], [-71.094944, 42.36191], [-71.095017, 42.361414], [-71.095174, 42.361427], [-71.09517, 42.361474], [-71.095257, 42.361478], [-71.095289, 42.361227], [-71.095452, 42.361164], [-71.095353, 42.361897], [-71.095191, 42.361885]]]}, "properties": {"addr:housenumber": "700;710", "addr:street": "Main Street", "building": "yes"}}, {"type": "Feature", "id": 29946495, "geometry": {"type": "Polygon", "coordinates": [[[-71.097458, 42.360934], [-71.09731, 42.361077], [-71.097024, 42.360883], [-71.097148, 42.360749], [-71.097246, 42.360785], [-71.097326, 42.360826], [-71.097381, 42.360864], [-71.097458, 42.360934]]]}, "properties": {"addr:housenumber": "254", "addr:street": "Massachusetts Avenue", "building": "yes"}}, {"type": "Feature", "id": 32526782, "geometry": {"type": "Polygon", "coordinates": [[[-71.093707, 42.359923], [-71.093773, 42.359897], [-71.094004, 42.360311], [-71.093815, 42.360413], [-71.093798, 42.360375], [-71.093625, 42.360433], [-71.093518, 42.360254], [-71.093661, 42.360211], [-71.093703, 42.360211], [-71.093556, 42.359976], [-71.093607, 42.359955], [-71.093707, 42.359923]]]}, "properties": {"addr:housename": "Guggenheim Laboratory", "addr:housenumber": "125", "addr:state": "MA", "addr:street": "Massachusetts Avenue", "alt_name": "Building 33", "building": "university", "building:levels": "5", "ele": "3", "gnis:county_name": "Middlesex", "gnis:feature_id": "1971306", "gnis:import_uuid": "57871b70-0100-4405-bb30-88b2e001a944", "gnis:reviewed": "no", "name": "33 Guggenheim Aeronautical Laboratory", "ref": "33", "source": "Massachusetts Institute of Technology - Facility Information Systems;USGS Geonames"}}, {"type": "Feature", "id": 32526807, "geometry": {"type": "Polygon", "coordinates": [[[-71.094004, 42.360311], [-71.094347, 42.360134], [-71.094459, 42.360267], [-71.093695, 42.360635], [-71.093646, 42.360563], [-71.0936, 42.360495], [-71.093815, 42.360413], [-71.094004, 42.360311]]]}, "properties": {"addr:housenumber": "127", "addr:state": "MA", "addr:street": "Massachusetts Avenue", "alt_name": "Sloan Laboratory", "building": "university", "building:levels": "5", "campusbuilding": "yes", "ele": "3", "gnis:county_name": "Middlesex", "gnis:feature_id": "1971761", "gnis:import_uuid": "57871b70-0100-4405-bb30-88b2e001a944", "gnis:reviewed": "no", "name": "Sloan Laboratory (35)", "ref": "35", "source": "Massachusetts Institute of Technology - Facility Information Systems;USGS Geonames"}}, {"type": "Feature", "id": 132600539, "geometry": {"type": "Polygon", "coordinates": [[[-71.097729, 42.361995], [-71.097907, 42.362099], [-71.097896, 42.36218], [-71.097656, 42.362163], [-71.097631, 42.36236], [-71.097838, 42.362375], [-71.097815, 42.362552], [-71.097417, 42.36253], [-71.097487, 42.361983], [-71.097729, 42.361995]]]}, "properties": {"building": "university", "ref": "N51"}}, {"type": "Feature", "id": 132600540, "geometry": {"type": "Polygon", "coordinates": [[[-71.097952, 42.360136], [-71.097976, 42.360152], [-71.097993, 42.360165], [-71.097714, 42.360307], [-71.098112, 42.360529], [-71.098487, 42.360363], [-71.098071, 42.360107], [-71.09804, 42.36009], [-71.097996, 42.360055], [-71.098164, 42.359966], [-71.098525, 42.360178], [-71.098629, 42.360244], [-71.098775, 42.360329], [-71.098565, 42.360422], [-71.098594, 42.360444], [-71.098102, 42.360653], [-71.097505, 42.360298], [-71.097887, 42.360093], [-71.097952, 42.360136]]]}, "properties": {"addr:city": "Cambridge", "addr:housenumber": "143", "addr:postcode": "02139", "addr:state": "MA", "addr:street": "Albany Street", "building": "dormitory", "building:levels": "4", "campusbuilding": "yes", "description": "Graduate residence", "material": "brick", "name": "Edgerton House", "ref": "NW10"}}, {"type": "Feature", "id": 132600541, "geometry": {"type": "Polygon", "coordinates": [[[-71.096995, 42.359784], [-71.097317, 42.360173], [-71.097103, 42.360266], [-71.096892, 42.360356], [-71.096783, 42.360216], [-71.096747, 42.360234], [-71.096661, 42.360231], [-71.096658, 42.360236], [-71.096654, 42.36024], [-71.09665, 42.360244], [-71.096646, 42.360248], [-71.096642, 42.360252], [-71.096637, 42.360256], [-71.096632, 42.360259], [-71.096627, 42.360263], [-71.096621, 42.360266], [-71.096616, 42.360269], [-71.09661, 42.360272], [-71.096604, 42.360274], [-71.096598, 42.360276], [-71.096591, 42.360278], [-71.096585, 42.36028], [-71.096578, 42.360281], [-71.096572, 42.360283], [-71.096565, 42.360284], [-71.096558, 42.360284], [-71.096551, 42.360285], [-71.096544, 42.360285], [-71.096538, 42.360285], [-71.096531, 42.360285], [-71.096524, 42.360284], [-71.096517, 42.360283], [-71.09651, 42.360282], [-71.096504, 42.360281], [-71.096497, 42.360279], [-71.096491, 42.360277], [-71.096485, 42.360275], [-71.096479, 42.360273], [-71.096473, 42.36027], [-71.096467, 42.360267], [-71.096462, 42.360264], [-71.096456, 42.360261], [-71.096451, 42.360258], [-71.096446, 42.360254], [-71.096442, 42.36025], [-71.096438, 42.360246], [-71.096434, 42.360242], [-71.09643, 42.360238], [-71.096427, 42.360233], [-71.096423, 42.360228], [-71.096421, 42.360224], [-71.096418, 42.360219], [-71.096416, 42.360214], [-71.096415, 42.360209], [-71.096413, 42.360204], [-71.096412, 42.360199], [-71.096412, 42.360194], [-71.096411, 42.360189], [-71.096412, 42.360184], [-71.096412, 42.360179], [-71.096413, 42.360174], [-71.096414, 42.360169], [-71.096416, 42.360164], [-71.096418, 42.360159], [-71.09642, 42.360154], [-71.096422, 42.360149], [-71.096425, 42.360144], [-71.096428, 42.36014], [-71.096432, 42.360136], [-71.096436, 42.360131], [-71.09644, 42.360127], [-71.096444, 42.360123], [-71.096449, 42.36012], [-71.096454, 42.360116], [-71.096459, 42.360113], [-71.096465, 42.36011], [-71.09647, 42.360107], [-71.096476, 42.360104], [-71.096482, 42.360102], [-71.096488, 42.360099], [-71.096495, 42.360097], [-71.096501, 42.360096], [-71.096508, 42.360094], [-71.096514, 42.360093], [-71.096521, 42.360092], [-71.096528, 42.360091], [-71.096535, 42.360091], [-71.096542, 42.360091], [-71.096548, 42.360091], [-71.096555, 42.360091], [-71.096562, 42.360092], [-71.096569, 42.360093], [-71.096576, 42.360094], [-71.096582, 42.360095], [-71.096589, 42.360097], [-71.096595, 42.360098], [-71.096601, 42.360101], [-71.096608, 42.360103], [-71.096613, 42.360106], [-71.096623, 42.36011], [-71.096679, 42.360083], [-71.096599, 42.359981], [-71.096995, 42.359784]]]}, "properties": {"building": "university", "campusbuilding": "yes", "ref": "NW12"}}, {"type": "Feature", "id": 132600542, "geometry": {"type": "Polygon", "coordinates": [[[-71.097385, 42.35959], [-71.097741, 42.35999], [-71.097317, 42.360173], [-71.096995, 42.359784], [-71.097385, 42.35959]]]}, "properties": {"addr:housenumber": "144", "building": "university", "campusbuilding": "yes", "name": "Nuclear Reactor Lab", "ref": "NW13"}}, {"type": "Feature", "id": 132600543, "geometry": {"type": "Polygon", "coordinates": [[[-71.098034, 42.359278], [-71.09826, 42.359531], [-71.098326, 42.359604], [-71.098351, 42.359593], [-71.098429, 42.359692], [-71.098274, 42.359759], [-71.097741, 42.35999], [-71.097385, 42.35959], [-71.097511, 42.359527], [-71.097647, 42.359464], [-71.097614, 42.359423], [-71.097827, 42.359316], [-71.097858, 42.359356], [-71.098034, 42.359278]]]}, "properties": {"addr:housenumber": "150", "addr:state": "MA", "building": "university", "campusbuilding": "yes", "ele": "3", "gnis:county_name": "Middlesex", "gnis:feature_id": "1970996", "gnis:import_uuid": "57871b70-0100-4405-bb30-88b2e001a944", "gnis:reviewed": "no", "name": "Francus Bitter Magnet Lab", "ref": "NW14", "source": "USGS Geonames"}}, {"type": "Feature", "id": 132600544, "geometry": {"type": "Polygon", "coordinates": [[[-71.098861, 42.359822], [-71.098822, 42.359801], [-71.098761, 42.359769], [-71.098696, 42.35981], [-71.098642, 42.359765], [-71.098951, 42.359619], [-71.099562, 42.359983], [-71.099316, 42.360099], [-71.098861, 42.359822]]]}, "properties": {"addr:housenumber": "175", "addr:street": "Albany Street", "building": "university", "building:levels": "3", "ref": "NW17"}}, {"type": "Feature", "id": 132600548, "geometry": {"type": "Polygon", "coordinates": [[[-71.098629, 42.360244], [-71.098525, 42.360178], [-71.09862, 42.360113], [-71.098734, 42.360173], [-71.098629, 42.360244]]]}, "properties": {"building": "yes"}}, {"type": "Feature", "id": 207075847, "geometry": {"type": "Polygon", "coordinates": [[[-71.093947, 42.361418], [-71.094056, 42.36154], [-71.094304, 42.361419], [-71.094195, 42.361297], [-71.093947, 42.361418]]]}, "properties": {"building": "yes"}}, {"type": "Feature", "id": 212292326, "geometry": {"type": "Polygon", "coordinates": [[[-71.096963, 42.360884], [-71.096917, 42.3609], [-71.09687, 42.360873], [-71.096935, 42.360847], [-71.096963, 42.360884]]]}, "properties": {"building": "yes"}}, {"type": "Feature", "id": 212292442, "geometry": {"type": "Polygon", "coordinates": [[[-71.094916, 42.360367], [-71.094861, 42.360396], [-71.094833, 42.360366], [-71.094888, 42.360338], [-71.094916, 42.360367]]]}, "properties": {"addr:housenumber": "135;139", "addr:street": "Massachusetts Avenue", "amenity": "atm", "building": "kiosk", "operator": "Bank of America"}}, {"type": "Feature", "id": 212292448, "geometry": {"type": "Polygon", "coordinates": [[[-71.097947, 42.361742], [-71.098003, 42.36169], [-71.098081, 42.361736], [-71.098022, 42.361791], [-71.098042, 42.361803], [-71.097994, 42.361847], [-71.097863, 42.36177], [-71.097914, 42.361722], [-71.097947, 42.361742]]]}, "properties": {"addr:city": "Cambridge", "addr:housenumber": "266", "addr:state": "MA", "addr:street": "Massachusetts Avenue", "amenity": "fuel", "brand": "Sunoco", "brand:wikidata": "Q1423218", "brand:wikipedia": "en:Sunoco", "building": "yes", "name": "Sunoco", "note": "Sunoco gas station closed for renovation / construction (as of late 2017). APlus convenience store attached to gas station remains open."}}, {"type": "Feature", "id": 212292695, "geometry": {"type": "Polygon", "coordinates": [[[-71.097444, 42.360697], [-71.097357, 42.360734], [-71.097322, 42.360689], [-71.097409, 42.360652], [-71.097444, 42.360697]]]}, "properties": {"building": "yes"}}, {"type": "Feature", "id": 240684081, "geometry": {"type": "Polygon", "coordinates": [[[-71.096609, 42.360045], [-71.096607, 42.360037], [-71.096604, 42.360032], [-71.096599, 42.360029], [-71.09659, 42.360026], [-71.096576, 42.360026], [-71.096569, 42.360029], [-71.096564, 42.360032], [-71.096559, 42.360038], [-71.096558, 42.360043], [-71.096559, 42.360048], [-71.096561, 42.360053], [-71.096566, 42.360058], [-71.09657, 42.36006], [-71.096576, 42.360062], [-71.096583, 42.360063], [-71.096589, 42.360063], [-71.096594, 42.360062], [-71.0966, 42.360059], [-71.096603, 42.360057], [-71.096606, 42.360053], [-71.096608, 42.36005], [-71.096609, 42.360045]]]}, "properties": {"building": "yes", "building:material": "brick", "fixme": "height estimated", "height": "45", "man_made": "chimney"}}, {"type": "Feature", "id": 264253042, "geometry": {"type": "Polygon", "coordinates": [[[-71.099433, 42.360861], [-71.099865, 42.360663], [-71.099841, 42.36061], [-71.099841, 42.36056], [-71.099878, 42.360512], [-71.099935, 42.360477], [-71.099841, 42.360362], [-71.099723, 42.360417], [-71.099546, 42.360191], [-71.09902, 42.360423], [-71.099101, 42.360522], [-71.099192, 42.360485], [-71.099396, 42.360738], [-71.099347, 42.360758], [-71.099433, 42.360861]]]}, "properties": {"addr:housenumber": "40", "addr:street": "Landsdowne Street", "building": "yes", "building:levels": "10", "name": "Takeda Pharmaceuticals"}}, {"type": "Feature", "id": 328476194, "geometry": {"type": "Polygon", "coordinates": [[[-71.099516, 42.361887], [-71.098729, 42.361419], [-71.098916, 42.361247], [-71.099264, 42.361087], [-71.099948, 42.361484], [-71.099663, 42.361753], [-71.099516, 42.361887]]]}, "properties": {"addr:city": "Cambridge", "addr:housenumber": "55", "addr:postcode": "02139", "addr:state": "MA", "addr:street": "Franklin Street", "amenity": "parking", "building": "yes", "parking": "multi-storey"}}, {"type": "Feature", "id": 328487248, "geometry": {"type": "Polygon", "coordinates": [[[-71.096636, 42.363099], [-71.095783, 42.363041], [-71.095812, 42.362808], [-71.095953, 42.362818], [-71.095986, 42.36255], [-71.096127, 42.36256], [-71.096698, 42.362599], [-71.096636, 42.363099]]]}, "properties": {"addr:housenumber": "750", "building": "commercial", "name": "750 Main St", "note": "Former Polaroid offices. Owner: MIT. \"730-750 Main Street. This block is an optimal size for an academic or commercial science building. Future re-development of this site would allow for the continuation of the emerging retail corridor along Main St.\"", "source": "http://www.cambridgema.gov/~/media/Files/CDD/Planning/TownGown/tg2011/tg_2011_mit.ashx"}}, {"type": "Feature", "id": 409936847, "geometry": {"type": "Polygon", "coordinates": [[[-71.094715, 42.362097], [-71.094772, 42.361672], [-71.094721, 42.361608], [-71.094767, 42.361586], [-71.094703, 42.361509], [-71.094187, 42.36174], [-71.094217, 42.361777], [-71.094096, 42.361831], [-71.09409, 42.361894], [-71.094039, 42.361893], [-71.094025, 42.362045], [-71.094715, 42.362097]]]}, "properties": {"addr:housenumber": "1", "addr:postcode": "02139", "addr:street": "Portland Street", "building": "commercial", "building:levels": "7", "name": "Pfizer"}}, {"type": "Feature", "id": 409936848, "geometry": {"type": "Polygon", "coordinates": [[[-71.094318, 42.362551], [-71.094362, 42.362188], [-71.093857, 42.362154], [-71.093791, 42.362685], [-71.094297, 42.362719], [-71.094318, 42.362551]]]}, "properties": {"building": "yes", "building:part": "yes"}}, {"type": "Feature", "id": 409936849, "geometry": {"type": "Polygon", "coordinates": [[[-71.094601, 42.362945], [-71.094648, 42.362573], [-71.094318, 42.362551], [-71.094362, 42.362188], [-71.093857, 42.362154], [-71.093791, 42.362685], [-71.093766, 42.362889], [-71.094601, 42.362945]]]}, "properties": {"addr:housenumber": "610", "addr:street": "Main Street", "building": "commercial"}}, {"type": "Feature", "id": 409937903, "geometry": {"type": "Polygon", "coordinates": [[[-71.096478, 42.361267], [-71.095995, 42.360983], [-71.095961, 42.360972], [-71.095927, 42.360968], [-71.095894, 42.360972], [-71.095651, 42.361076], [-71.095631, 42.36109], [-71.095619, 42.36111], [-71.095516, 42.361886], [-71.095631, 42.361894], [-71.095904, 42.361915], [-71.095921, 42.361911], [-71.095937, 42.361902], [-71.096012, 42.361375], [-71.096457, 42.361406], [-71.096478, 42.361267]]]}, "properties": {"addr:housenumber": "177;181", "addr:street": "Massachusetts Avenue", "building": "commercial", "name": "Novartis"}}, {"type": "Feature", "id": 409937904, "geometry": {"type": "Polygon", "coordinates": [[[-71.096012, 42.361375], [-71.096027, 42.361251], [-71.095745, 42.361233], [-71.095727, 42.361238], [-71.095716, 42.361253], [-71.095631, 42.361894], [-71.095904, 42.361915], [-71.095921, 42.361911], [-71.095937, 42.361902], [-71.096012, 42.361375]]]}, "properties": {"building": "yes", "building:levels": "9", "building:part": "yes"}}, {"type": "Feature", "id": 485224103, "geometry": {"type": "Polygon", "coordinates": [[[-71.099445, 42.362143], [-71.099191, 42.362384], [-71.099075, 42.362426], [-71.099003, 42.362429], [-71.09835, 42.362029], [-71.098522, 42.361868], [-71.098724, 42.361988], [-71.098985, 42.361772], [-71.099196, 42.361893], [-71.099153, 42.361931], [-71.099445, 42.362143]]]}, "properties": {"addr:housenumber": "324", "addr:street": "Massachusetts Avenue", "building": "office"}}, {"type": "Feature", "id": 595628597, "geometry": {"type": "Polygon", "coordinates": [[[-71.098142, 42.36176], [-71.098077, 42.361723], [-71.09807, 42.361678], [-71.098125, 42.361628], [-71.098223, 42.361687], [-71.098142, 42.36176]]]}, "properties": {"addr:city": "Cambridge", "addr:housenumber": "266", "addr:state": "MA", "addr:street": "Massachusetts Avenue", "building": "yes", "name": "APlus", "shop": "convenience"}}, {"type": "Feature", "id": 595628598, "geometry": {"type": "Polygon", "coordinates": [[[-71.098125, 42.361628], [-71.098082, 42.361602], [-71.098139, 42.361578], [-71.098263, 42.361652], [-71.098242, 42.36167], [-71.098223, 42.361687], [-71.098125, 42.361628]]]}, "properties": {"addr:housenumber": "7", "addr:street": "Landsdowne Street", "building": "commercial"}}, {"type": "Feature", "id": 32517447, "geometry": {"type": "Polygon", "coordinates": [[[-71.092208, 42.358376], [-71.092516, 42.358275], [-71.092285, 42.357894], [-71.09192, 42.358015], [-71.091929, 42.358029], [-71.091751, 42.358088], [-71.091725, 42.358047], [-71.091712, 42.358051], [-71.091677, 42.357993], [-71.09169, 42.357989], [-71.091668, 42.357953], [-71.091848, 42.357893], [-71.091854, 42.357903], [-71.092432, 42.357712], [-71.09279, 42.358302], [-71.092747, 42.358316], [-71.09277, 42.358354], [-71.092604, 42.358409], [-71.092613, 42.358424], [-71.0923, 42.358527], [-71.092208, 42.358376]]]}, "properties": {"addr:housename": "Pierce Laboratory", "addr:housenumber": "33", "addr:state": "MA", "addr:street": "Massachusetts Avenue", "alt_name": "Building 1", "building": "university", "building:levels": "4", "campusbuilding": "yes", "ele": "4", "gnis:county_name": "Middlesex", "gnis:feature_id": "1971655", "gnis:import_uuid": "57871b70-0100-4405-bb30-88b2e001a944", "gnis:reviewed": "no", "name": "1 Pierce Engineering Laboratory", "operator": "Massachusetts Institute of Technology", "ref": "1", "source": "USGS Geonames"}}, {"type": "Feature", "id": 32517556, "geometry": {"type": "Polygon", "coordinates": [[[-71.093231, 42.359012], [-71.092824, 42.358339], [-71.09277, 42.358354], [-71.092604, 42.358409], [-71.092613, 42.358424], [-71.093013, 42.359084], [-71.093231, 42.359012]]]}, "properties": {"addr:housename": "Pratt School", "addr:housenumber": "55", "addr:state": "MA", "addr:street": "Massachusetts Avenue", "alt_name": "Building 5", "building": "university", "building:levels": "4", "campusbuilding": "yes", "ele": "3", "gnis:county_name": "Middlesex", "gnis:feature_id": "1971665", "gnis:import_uuid": "57871b70-0100-4405-bb30-88b2e001a944", "gnis:reviewed": "no", "name": "5 Pratt School of Naval Architecture and Marine Engineering", "operator": "Massachusetts Institute of Technology", "ref": "5", "source": "USGS Geonames"}}, {"type": "Feature", "id": 32534638, "geometry": {"type": "Polygon", "coordinates": [[[-71.087991, 42.358388], [-71.087441, 42.35857], [-71.087481, 42.358637], [-71.088031, 42.358455], [-71.087991, 42.358388]]]}, "properties": {"access": "private", "addr:housenumber": "134", "addr:street": "Memorial Drive", "building": "university", "name": "Wood Sailing Pavilion", "operator": "Massachusetts Institute of Technology", "ref": "51", "waterway": "boatyard"}}, {"type": "Feature", "id": 24494050, "geometry": {"type": "Polygon", "coordinates": [[[-71.088626, 42.359528], [-71.088348, 42.359083], [-71.087936, 42.359216], [-71.088206, 42.359667], [-71.088626, 42.359528]]]}, "properties": {"addr:city": "Cambridge", "addr:housename": "Walker Memorial", "addr:housenumber": "142", "addr:state": "MA", "addr:street": "Memorial Drive", "alt_name": "Building 50", "architect": "William Welles Bosworth", "building": "university", "campusbuilding": "yes", "ele": "3", "gnis:county_name": "Middlesex", "gnis:feature_id": "1971841", "gnis:import_uuid": "57871b70-0100-4405-bb30-88b2e001a944", "name": "Walker Memorial (50)", "ref": "50", "source": "Massachusetts Institute of Technology - Facility Information Systems", "wheelchair": "limited"}}, {"type": "Feature", "id": 24494052, "geometry": {"type": "Polygon", "coordinates": [[[-71.087176, 42.359585], [-71.087081, 42.359464], [-71.086719, 42.359597], [-71.086781, 42.35972], [-71.087176, 42.359585]]]}, "properties": {"addr:housenumber": "111", "addr:street": "Memorial Drive", "alt_name": "Gray House", "building": "university", "campusbuilding": "yes", "name": "E1 Gray House", "ref": "E1", "source": "Massachusetts Institute of Technology - Facility Information Systems"}}, {"type": "Feature", "id": 24494055, "geometry": {"type": "Polygon", "coordinates": [[[-71.086541, 42.359673], [-71.086412, 42.359712], [-71.086695, 42.360168], [-71.087425, 42.35994], [-71.087373, 42.359851], [-71.086755, 42.360035], [-71.086541, 42.359673]]]}, "properties": {"addr:housename": "Senior House", "alt_name": "Building E2", "building": "university", "campusbuilding": "yes", "name": "E2", "ref": "E2", "source": "Massachusetts Institute of Technology - Facility Information Systems"}}, {"type": "Feature", "id": 29949437, "geometry": {"type": "Polygon", "coordinates": [[[-71.086291, 42.362615], [-71.086347, 42.362619], [-71.086353, 42.362578], [-71.086979, 42.362625], [-71.086938, 42.36293], [-71.08625, 42.362878], [-71.086253, 42.362862], [-71.086291, 42.362615]]]}, "properties": {"addr:housenumber": "325", "addr:postcode": "02142", "addr:street": "Main Street", "building": "yes", "building:levels": "4"}}, {"type": "Feature", "id": 32517406, "geometry": {"type": "Polygon", "coordinates": [[[-71.092821, 42.359397], [-71.092602, 42.359468], [-71.092288, 42.359569], [-71.09226, 42.359522], [-71.092193, 42.35941], [-71.092508, 42.359307], [-71.092063, 42.358565], [-71.092051, 42.358569], [-71.092011, 42.358503], [-71.09197, 42.358434], [-71.092146, 42.358376], [-71.092154, 42.35839], [-71.092208, 42.358376], [-71.0923, 42.358527], [-71.092727, 42.359242], [-71.092821, 42.359397]]]}, "properties": {"addr:housename": "Maclaurin Buildings (3)", "alt_name": "Building 3", "building": "university", "building:levels": "6", "campusbuilding": "yes", "name": "3", "ref": "3", "source": "Massachusetts Institute of Technology - Facility Information Systems"}}, {"type": "Feature", "id": 32517654, "geometry": {"type": "Polygon", "coordinates": [[[-71.091694, 42.35971], [-71.091726, 42.359762], [-71.091196, 42.359939], [-71.091105, 42.359788], [-71.090899, 42.359453], [-71.090662, 42.35907], [-71.090572, 42.358921], [-71.090624, 42.358904], [-71.090618, 42.358894], [-71.090789, 42.358837], [-71.090824, 42.358893], [-71.090867, 42.358965], [-71.090859, 42.358967], [-71.091308, 42.359712], [-71.091632, 42.359606], [-71.091694, 42.35971]]]}, "properties": {"addr:housename": "Building 4", "alt_name": "Maclaurin Buildings (4)", "building": "university", "name": "4", "ref": "4", "source": "Massachusetts Institute of Technology - Facility Information Systems"}}, {"type": "Feature", "id": 32517707, "geometry": {"type": "Polygon", "coordinates": [[[-71.090599, 42.358493], [-71.090396, 42.358559], [-71.090389, 42.358546], [-71.090038, 42.358659], [-71.090254, 42.359024], [-71.090572, 42.358921], [-71.090662, 42.35907], [-71.090333, 42.359178], [-71.090166, 42.359232], [-71.090141, 42.359193], [-71.090106, 42.359206], [-71.090072, 42.35916], [-71.090041, 42.359112], [-71.089774, 42.358685], [-71.089717, 42.358596], [-71.090309, 42.358402], [-71.090301, 42.358389], [-71.090496, 42.358325], [-71.090514, 42.358355], [-71.090543, 42.358346], [-71.090595, 42.358432], [-71.090567, 42.358441], [-71.090599, 42.358493]]]}, "properties": {"addr:housename": "Building 2", "alt_name": "Building 2", "building": "university", "building:levels": "6", "campusbuilding": "yes", "name": "2", "ref": "2", "source": "Massachusetts Institute of Technology - Facility Information Systems"}}, {"type": "Feature", "id": 32517817, "geometry": {"type": "Polygon", "coordinates": [[[-71.090166, 42.359232], [-71.090333, 42.359178], [-71.090501, 42.359458], [-71.090575, 42.359434], [-71.090638, 42.359539], [-71.090641, 42.359544], [-71.090565, 42.359569], [-71.090736, 42.35985], [-71.0907, 42.359862], [-71.090731, 42.359913], [-71.09061, 42.359954], [-71.090581, 42.359906], [-71.09054, 42.35992], [-71.090129, 42.359245], [-71.090166, 42.359232]]]}, "properties": {"addr:housename": "Eastman Laboratories", "addr:state": "MA", "alt_name": "building 6", "building": "university", "campusbuilding": "yes", "ele": "3", "gnis:county_name": "Middlesex", "gnis:feature_id": "1971198", "gnis:import_uuid": "57871b70-0100-4405-bb30-88b2e001a944", "gnis:reviewed": "no", "name": "6 Eastman Research Laboratory", "ref": "6", "source": "Massachusetts Institute of Technology - Facility Information Systems;USGS Geonames"}}, {"type": "Feature", "id": 132600546, "geometry": {"type": "Polygon", "coordinates": [[[-71.085604, 42.36286], [-71.085657, 42.362863], [-71.085846, 42.362875], [-71.085853, 42.362832], [-71.085882, 42.362834], [-71.085912, 42.362835], [-71.085907, 42.362879], [-71.086047, 42.362889], [-71.086052, 42.362846], [-71.08611, 42.36285], [-71.086104, 42.362893], [-71.086246, 42.362903], [-71.086312, 42.362908], [-71.086305, 42.362965], [-71.086901, 42.363], [-71.086907, 42.362948], [-71.08694, 42.36295], [-71.087015, 42.362954], [-71.087014, 42.363017], [-71.087171, 42.363029], [-71.087185, 42.362944], [-71.087391, 42.362956], [-71.087375, 42.363038], [-71.087326, 42.363359], [-71.087414, 42.363371], [-71.087376, 42.363724], [-71.087128, 42.36371], [-71.087133, 42.363664], [-71.087019, 42.363658], [-71.087021, 42.363634], [-71.086906, 42.363627], [-71.086911, 42.363579], [-71.086827, 42.363574], [-71.086833, 42.363522], [-71.086719, 42.363515], [-71.086729, 42.363422], [-71.086504, 42.363409], [-71.086509, 42.363363], [-71.086394, 42.363356], [-71.086399, 42.363309], [-71.086281, 42.363302], [-71.086285, 42.363263], [-71.086288, 42.363228], [-71.085949, 42.363208], [-71.085737, 42.363109], [-71.085575, 42.363037], [-71.085604, 42.36286]]]}, "properties": {"addr:housenumber": "90", "addr:street": "Broadway", "building": "yes", "building:levels_1": "26", "name": "Boston Marriott Cambridge", "operator": "Marriott", "tourism": "hotel"}}, {"type": "Feature", "id": 177921759, "geometry": {"type": "Polygon", "coordinates": [[[-71.087346, 42.361821], [-71.087348, 42.361801], [-71.086393, 42.361726], [-71.08642, 42.361523], [-71.086427, 42.361483], [-71.086718, 42.361383], [-71.086754, 42.361371], [-71.086748, 42.361415], [-71.086746, 42.361451], [-71.08671, 42.361464], [-71.086696, 42.361551], [-71.08745, 42.361611], [-71.087447, 42.36163], [-71.087433, 42.361734], [-71.087423, 42.361807], [-71.087411, 42.361893], [-71.087445, 42.361896], [-71.087437, 42.361944], [-71.087449, 42.361956], [-71.087437, 42.362006], [-71.087207, 42.361989], [-71.087214, 42.361929], [-71.087338, 42.361885], [-71.087346, 42.361821]]]}, "properties": {"addr:housenumber": "25;45", "addr:state": "MA", "addr:street": "Carleton Street", "alt_name": "Whitaker College of Health Sciences Technology and Management", "building": "university", "building:levels": "6", "campusbuilding": "yes", "ele": "3", "gnis:county_name": "Middlesex", "gnis:feature_id": "1971863", "gnis:import_uuid": "57871b70-0100-4405-bb30-88b2e001a944", "gnis:reviewed": "no", "name": "E25 Whitaker College", "source": "USGS Geonames"}}, {"type": "Feature", "id": 177921761, "geometry": {"type": "Polygon", "coordinates": [[[-71.087567, 42.360164], [-71.087782, 42.360515], [-71.087722, 42.360534], [-71.087739, 42.360562], [-71.08725, 42.360725], [-71.087234, 42.360699], [-71.087112, 42.36074], [-71.087092, 42.360707], [-71.087059, 42.360718], [-71.086965, 42.360564], [-71.086984, 42.360558], [-71.086923, 42.360458], [-71.086883, 42.360393], [-71.087567, 42.360164]]]}, "properties": {"addr:city": "Cambridge", "addr:housename": "Media Lab", "addr:housenumber": "75", "addr:postcode": "02139", "addr:street": "Amherst Street", "alt_name": "Building E14", "building": "university", "campusbuilding": "yes", "name": "E14 - Media Lab", "ref": "E14"}}, {"type": "Feature", "id": 212292107, "geometry": {"type": "Polygon", "coordinates": [[[-71.086913, 42.359859], [-71.086864, 42.359876], [-71.086822, 42.359808], [-71.086871, 42.359791], [-71.086913, 42.359859]]]}, "properties": {"building": "yes"}}, {"type": "Feature", "id": 712133782, "geometry": {"type": "Polygon", "coordinates": [[[-71.08671, 42.362136], [-71.087076, 42.362162], [-71.087068, 42.362226], [-71.087048, 42.362385], [-71.086682, 42.362359], [-71.08671, 42.362136]]]}, "properties": {"building": "yes"}}, {"type": "Feature", "id": 17660188, "geometry": {"type": "Polygon", "coordinates": [[[-71.091834, 42.362683], [-71.090694, 42.362593], [-71.091173, 42.362376], [-71.091088, 42.3623], [-71.091482, 42.362128], [-71.091397, 42.362033], [-71.0918, 42.361837], [-71.092358, 42.362446], [-71.091834, 42.362683]]]}, "properties": {"addr:city": "Cambridge", "addr:housename": "Brain & Cognitive Science Complex", "addr:housenumber": "43", "addr:postcode": "02139", "addr:state": "MA", "addr:street": "Vassar Street", "alt_name": "Building 46", "building": "university", "campusbuilding": "yes", "name": "Brain and Cognitive Sciences (46)", "ref": "46"}}, {"type": "Feature", "id": 24493980, "geometry": {"type": "Polygon", "coordinates": [[[-71.090139, 42.36038], [-71.089796, 42.359811], [-71.089751, 42.359739], [-71.089715, 42.35968], [-71.089599, 42.359719], [-71.089483, 42.359757], [-71.089576, 42.359911], [-71.089907, 42.360458], [-71.090075, 42.360403], [-71.090142, 42.360513], [-71.090171, 42.360504], [-71.090104, 42.360392], [-71.090139, 42.36038]]]}, "properties": {"addr:housename": "Dreyfus Building", "alt_name": "Building 18", "architect": "I. M. Pei & Associates", "building": "university", "building:levels": "7", "building:material": "cream_city_brick", "campusbuilding": "yes", "ele": "0", "name": "18 Camille Edouard Dreyfus Building", "ref": "18", "roof:shape": "flat", "source": "Massachusetts Institute of Technology - Facility Information Systems"}}, {"type": "Feature", "id": 24493983, "geometry": {"type": "Polygon", "coordinates": [[[-71.089563, 42.360315], [-71.089493, 42.360197], [-71.089455, 42.36021], [-71.089451, 42.360202], [-71.08933, 42.360241], [-71.089149, 42.3603], [-71.089156, 42.360311], [-71.089118, 42.360324], [-71.089185, 42.360437], [-71.089228, 42.360424], [-71.089235, 42.360435], [-71.089527, 42.36034], [-71.089521, 42.360329], [-71.089563, 42.360315]]]}, "properties": {"addr:housename": "Green Building", "alt_name": "Building 54", "architect": "I. M. Pei & Associates", "building": "university", "building:levels": "21", "campusbuilding": "yes", "ele": "4", "height": "90", "name": "54 Green Building", "ref": "54", "source": "Massachusetts Institute of Technology - Facility Information Systems", "wheelchair": "yes", "wikidata": "Q5602382", "wikipedia": "en:Green Building (MIT)"}}, {"type": "Feature", "id": 24808074, "geometry": {"type": "Polygon", "coordinates": [[[-71.088016, 42.360064], [-71.087977, 42.36], [-71.087833, 42.360048], [-71.088303, 42.36082], [-71.088444, 42.360773], [-71.088393, 42.360691], [-71.088329, 42.360584], [-71.08824, 42.360438], [-71.088177, 42.360334], [-71.088087, 42.360182], [-71.088016, 42.360064]]]}, "properties": {"addr:housename": "East Campus (Fred)", "addr:housenumber": "3", "addr:street": "Ames Street", "alt_name": "Building 64", "building": "dormitory", "campusbuilding": "yes", "description": "East Campus east parallel", "name": "64", "ref": "64", "source": "Massachusetts Institute of Technology - Facility Information Systems"}}, {"type": "Feature", "id": 24808162, "geometry": {"type": "Polygon", "coordinates": [[[-71.089484, 42.36083], [-71.089467, 42.360802], [-71.089448, 42.360807], [-71.089288, 42.360858], [-71.089237, 42.360773], [-71.089245, 42.360723], [-71.089233, 42.360705], [-71.089096, 42.360751], [-71.088374, 42.360995], [-71.088619, 42.361011], [-71.089337, 42.361065], [-71.089395, 42.361047], [-71.089409, 42.361069], [-71.089458, 42.361072], [-71.089341, 42.360876], [-71.089484, 42.36083]]]}, "properties": {"addr:housename": "Ralph Landau Building", "addr:housenumber": "25", "addr:state": "MA", "addr:street": "Ames Street", "alt_name": "Building 66", "building": "university", "building:levels": "5", "campusbuilding": "yes", "ele": "3", "gnis:county_name": "Middlesex", "gnis:feature_id": "1971678", "gnis:import_uuid": "57871b70-0100-4405-bb30-88b2e001a944", "gnis:reviewed": "no", "name": "Ralph Landau Building", "ref": "66", "source": "Massachusetts Institute of Technology - Facility Information Systems;USGS Geonames", "wheelchair": "yes"}}, {"type": "Feature", "id": 24808163, "geometry": {"type": "Polygon", "coordinates": [[[-71.08862, 42.361146], [-71.088847, 42.361211], [-71.088726, 42.362081], [-71.088616, 42.362095], [-71.088616, 42.362133], [-71.088485, 42.362127], [-71.088488, 42.362084], [-71.088398, 42.362071], [-71.08853, 42.361217], [-71.088607, 42.361212], [-71.08862, 42.361146]]]}, "properties": {"addr:housename": "Koch Biology Building", "addr:housenumber": "31", "addr:street": "Ames Street", "alt_name": "Building 68", "building": "university", "building:levels": "6", "campusbuilding": "yes", "name": "68 Department of Biology", "ref": "68", "source": "Massachusetts Institute of Technology - Facility Information Systems"}}, {"type": "Feature", "id": 27078002, "geometry": {"type": "Polygon", "coordinates": [[[-71.090725, 42.361916], [-71.090701, 42.362025], [-71.090619, 42.362017], [-71.090665, 42.36205], [-71.090615, 42.362064], [-71.090614, 42.362094], [-71.090567, 42.36209], [-71.090546, 42.362117], [-71.090491, 42.362125], [-71.090452, 42.362085], [-71.090383, 42.362128], [-71.090317, 42.362057], [-71.09027, 42.362102], [-71.090088, 42.361989], [-71.090082, 42.361995], [-71.090109, 42.362011], [-71.090125, 42.36203], [-71.090077, 42.362067], [-71.090069, 42.362065], [-71.090069, 42.362072], [-71.090031, 42.362095], [-71.089983, 42.362086], [-71.089978, 42.362071], [-71.089964, 42.362085], [-71.089933, 42.362087], [-71.089906, 42.362061], [-71.089952, 42.362016], [-71.089903, 42.361986], [-71.089919, 42.361969], [-71.089901, 42.361958], [-71.089949, 42.36191], [-71.089839, 42.361723], [-71.089886, 42.361721], [-71.08989, 42.361657], [-71.08987, 42.361656], [-71.08988, 42.361539], [-71.089895, 42.361544], [-71.089916, 42.361547], [-71.08994, 42.361545], [-71.089955, 42.361539], [-71.08997, 42.361525], [-71.089973, 42.36151], [-71.089973, 42.361494], [-71.089968, 42.361487], [-71.089964, 42.361481], [-71.089948, 42.36147], [-71.089929, 42.361463], [-71.089904, 42.361465], [-71.089886, 42.361471], [-71.089895, 42.361358], [-71.089935, 42.361357], [-71.089929, 42.361355], [-71.090413, 42.361198], [-71.090397, 42.361171], [-71.090499, 42.361138], [-71.090486, 42.361189], [-71.090534, 42.361194], [-71.090528, 42.361222], [-71.090554, 42.361224], [-71.09057, 42.361226], [-71.090562, 42.361148], [-71.090627, 42.361144], [-71.090611, 42.361006], [-71.090774, 42.360953], [-71.090785, 42.360972], [-71.090799, 42.360995], [-71.090676, 42.361036], [-71.090689, 42.361178], [-71.09073, 42.361175], [-71.090826, 42.361171], [-71.090829, 42.361232], [-71.091086, 42.361244], [-71.091136, 42.361248], [-71.09112, 42.361379], [-71.091175, 42.361384], [-71.091174, 42.361392], [-71.091211, 42.361395], [-71.091198, 42.361488], [-71.091206, 42.36149], [-71.091204, 42.361504], [-71.091245, 42.361492], [-71.091254, 42.361505], [-71.091352, 42.361473], [-71.091438, 42.361611], [-71.091503, 42.361651], [-71.091475, 42.36168], [-71.091477, 42.361719], [-71.091457, 42.361715], [-71.091431, 42.361704], [-71.091424, 42.361706], [-71.091444, 42.361733], [-71.091368, 42.361771], [-71.091335, 42.361732], [-71.091333, 42.361739], [-71.091353, 42.361787], [-71.09127, 42.361797], [-71.091252, 42.361757], [-71.091084, 42.361844], [-71.091069, 42.361829], [-71.091049, 42.361841], [-71.091045, 42.361873], [-71.091034, 42.361893], [-71.091019, 42.361909], [-71.090991, 42.361918], [-71.090964, 42.361919], [-71.09094, 42.361915], [-71.090915, 42.361902], [-71.090896, 42.361889], [-71.090888, 42.361912], [-71.090869, 42.361935], [-71.090841, 42.361956], [-71.090816, 42.36197], [-71.090782, 42.36198], [-71.090744, 42.361987], [-71.090737, 42.361943], [-71.090725, 42.361916]]]}, "properties": {"addr:housename": "Ray and Maria Stata Center", "addr:housenumber": "32", "addr:street": "Vassar Street", "alt_name": "Building 32", "architect": "Frank O. Gehry", "building": "university", "building:levels": "9", "campusbuilding": "yes", "name": "Ray & Maria Stata Center", "ref": "32", "source": "Massachusetts Institute of Technology - Facility Information Systems", "wikidata": "Q3312712", "wikipedia": "en:Ray and Maria Stata Center"}}, {"type": "Feature", "id": 29127425, "geometry": {"type": "Polygon", "coordinates": [[[-71.091908, 42.361477], [-71.091924, 42.361507], [-71.091503, 42.361651], [-71.091438, 42.361611], [-71.091352, 42.361473], [-71.091323, 42.361422], [-71.091879, 42.361234], [-71.091908, 42.361275], [-71.091962, 42.361367], [-71.091908, 42.361477]]]}, "properties": {"addr:housename": "Fairchild Building (36)", "alt_name": "Building 36", "building": "university", "building:levels": "9", "campusbuilding": "yes", "name": "36", "ref": "36"}}, {"type": "Feature", "id": 29127459, "geometry": {"type": "Polygon", "coordinates": [[[-71.092468, 42.360647], [-71.092313, 42.360387], [-71.091631, 42.360622], [-71.091538, 42.360654], [-71.091761, 42.361028], [-71.091812, 42.361015], [-71.091842, 42.361049], [-71.091889, 42.361041], [-71.091867, 42.360996], [-71.091958, 42.360977], [-71.091889, 42.36085], [-71.092468, 42.360647]]]}, "properties": {"alt_name": "Building 24", "building": "university", "building:levels": "7", "campusbuilding": "yes", "name": "24", "ref": "24", "source": "Massachusetts Institute of Technology - Facility Information Systems"}}, {"type": "Feature", "id": 29609886, "geometry": {"type": "Polygon", "coordinates": [[[-71.092378, 42.36307], [-71.092365, 42.362992], [-71.09251, 42.363032], [-71.092681, 42.36305], [-71.092797, 42.363056], [-71.092784, 42.363175], [-71.092716, 42.363774], [-71.092406, 42.36375], [-71.09246, 42.363315], [-71.092352, 42.363308], [-71.092378, 42.36307]]]}, "properties": {"addr:city": "Cambridge", "addr:housenumber": "500", "addr:postcode": "02139", "addr:state": "MA", "addr:street": "Technology Square", "alt_name": "Building NE47", "building": "commercial", "building:levels": "1", "campusbuilding": "yes", "operator": "MIT", "ref": "NE47", "wheelchair": "yes"}}, {"type": "Feature", "id": 29618959, "geometry": {"type": "Polygon", "coordinates": [[[-71.093031, 42.361693], [-71.093289, 42.361976], [-71.092528, 42.362358], [-71.092519, 42.362361], [-71.092513, 42.362361], [-71.092508, 42.362361], [-71.092503, 42.362359], [-71.092498, 42.362357], [-71.092495, 42.362353], [-71.092492, 42.36235], [-71.092491, 42.362346], [-71.09249, 42.362342], [-71.092491, 42.362338], [-71.092494, 42.362334], [-71.092497, 42.362331], [-71.092501, 42.362328], [-71.092557, 42.3623], [-71.09254, 42.362282], [-71.092555, 42.362274], [-71.092547, 42.362266], [-71.092533, 42.362273], [-71.092525, 42.362276], [-71.092519, 42.362279], [-71.092513, 42.362281], [-71.092506, 42.362283], [-71.0925, 42.362285], [-71.092493, 42.362287], [-71.092487, 42.362288], [-71.09248, 42.362289], [-71.092473, 42.36229], [-71.092466, 42.36229], [-71.092459, 42.36229], [-71.092452, 42.36229], [-71.092445, 42.36229], [-71.092438, 42.362289], [-71.092432, 42.362288], [-71.092425, 42.362287], [-71.092418, 42.362286], [-71.092411, 42.362284], [-71.092405, 42.362282], [-71.092399, 42.36228], [-71.092393, 42.362278], [-71.092387, 42.362275], [-71.092381, 42.362272], [-71.092375, 42.362269], [-71.09237, 42.362266], [-71.092365, 42.362262], [-71.09236, 42.362259], [-71.092356, 42.362255], [-71.092351, 42.362251], [-71.092347, 42.362246], [-71.092343, 42.362242], [-71.09234, 42.362237], [-71.092337, 42.362233], [-71.092334, 42.362228], [-71.092332, 42.362223], [-71.09233, 42.362218], [-71.092328, 42.362213], [-71.092327, 42.362208], [-71.092326, 42.362203], [-71.092325, 42.362198], [-71.092325, 42.362193], [-71.092325, 42.362188], [-71.092326, 42.362183], [-71.092326, 42.362178], [-71.092328, 42.362173], [-71.092329, 42.362167], [-71.092331, 42.362163], [-71.092333, 42.362158], [-71.092336, 42.362153], [-71.092339, 42.362148], [-71.092342, 42.362144], [-71.092345, 42.362139], [-71.092349, 42.362135], [-71.092354, 42.362131], [-71.092358, 42.362127], [-71.092363, 42.362123], [-71.092368, 42.36212], [-71.092373, 42.362116], [-71.092378, 42.362113], [-71.092384, 42.36211], [-71.092397, 42.362104], [-71.092388, 42.362094], [-71.092375, 42.3621], [-71.09235, 42.362073], [-71.092296, 42.3621], [-71.092287, 42.362103], [-71.092282, 42.362103], [-71.092277, 42.362102], [-71.092272, 42.3621], [-71.092268, 42.362097], [-71.092265, 42.362094], [-71.092263, 42.362091], [-71.092263, 42.362087], [-71.092263, 42.362083], [-71.092265, 42.362079], [-71.092268, 42.362076], [-71.092272, 42.362074], [-71.093031, 42.361693]]]}, "properties": {"addr:city": "Cambridge", "addr:housename": "Albany Street Parking Garage", "addr:housenumber": "32", "addr:street": "Albany Street", "amenity": "parking", "building": "university", "campusbuilding": "yes", "name": "Albany Garage (N4)", "name:tr": "Albany Garaj\u0131", "ref": "N4"}}, {"type": "Feature", "id": 29620676, "geometry": {"type": "Polygon", "coordinates": [[[-71.08709, 42.362059], [-71.087449, 42.362084], [-71.087427, 42.362254], [-71.087359, 42.362249], [-71.087338, 42.362408], [-71.087201, 42.362398], [-71.087222, 42.362237], [-71.087068, 42.362226], [-71.087076, 42.362162], [-71.08709, 42.362059]]]}, "properties": {"addr:housenumber": "350", "addr:postcode": "02139", "addr:street": "Main Street", "building": "yes", "building:levels": "7", "name": "The Kendall Hotel", "tourism": "hotel"}}, {"type": "Feature", "id": 29650632, "geometry": {"type": "Polygon", "coordinates": [[[-71.089225, 42.363014], [-71.089296, 42.363017], [-71.089312, 42.363003], [-71.089339, 42.362995], [-71.089377, 42.362994], [-71.089399, 42.362999], [-71.089419, 42.363005], [-71.089432, 42.363014], [-71.089468, 42.363024], [-71.089637, 42.363037], [-71.089694, 42.363042], [-71.089444, 42.363903], [-71.089439, 42.363902], [-71.089114, 42.363868], [-71.089114, 42.363775], [-71.089225, 42.363014]]]}, "properties": {"addr:housename": "Whitehead Institute", "addr:housenumber": "455", "addr:state": "MA", "addr:street": "Main Street", "building": "yes", "building:levels": "7", "ele": "3", "gnis:county_name": "Middlesex", "gnis:feature_id": "1971865", "gnis:import_uuid": "57871b70-0100-4405-bb30-88b2e001a944", "name": "Whitehead Institute", "source": "USGS Geonames", "wikipedia": "en:Whitehead Institute"}}, {"type": "Feature", "id": 29650662, "geometry": {"type": "Polygon", "coordinates": [[[-71.088516, 42.359813], [-71.088965, 42.360572], [-71.088978, 42.360595], [-71.088836, 42.360641], [-71.088794, 42.360565], [-71.088733, 42.360462], [-71.088639, 42.360305], [-71.088585, 42.360213], [-71.088495, 42.360063], [-71.088419, 42.359936], [-71.088374, 42.359859], [-71.088516, 42.359813]]]}, "properties": {"addr:housename": "East Campus (Fred)", "addr:housenumber": "3R", "addr:street": "Ames Street", "alt_name": "Building 62", "building": "dormitory", "campusbuilding": "yes", "description": "East Campus west parallel", "name": "62", "ref": "62", "source": "Massachusetts Institute of Technology - Facility Information Systems"}}, {"type": "Feature", "id": 29743556, "geometry": {"type": "Polygon", "coordinates": [[[-71.087084, 42.362632], [-71.08791, 42.362681], [-71.087878, 42.362984], [-71.087677, 42.362973], [-71.087391, 42.362956], [-71.087185, 42.362944], [-71.087051, 42.362936], [-71.087084, 42.362632]]]}, "properties": {"addr:city": "Cambridge", "addr:housenumber": "355", "addr:street": "Main Street", "alt_name": "Building NE25", "building": "yes", "building:levels": "13", "landuse": "commercial", "ref": "NE25"}}, {"type": "Feature", "id": 29803755, "geometry": {"type": "Polygon", "coordinates": [[[-71.090937, 42.362201], [-71.091007, 42.362278], [-71.090943, 42.36231], [-71.090989, 42.36236], [-71.090466, 42.362623], [-71.090438, 42.362593], [-71.090394, 42.362615], [-71.090306, 42.362519], [-71.090937, 42.362201]]]}, "properties": {"addr:city": "Cambridge", "addr:housenumber": "15", "addr:postcode": "02139", "addr:state": "MA", "addr:street": "Vassar Street", "building": "university", "building:levels": "4", "campusbuilding": "yes", "name": "Parsons Lab (48)", "ref": "48"}}, {"type": "Feature", "id": 29842810, "geometry": {"type": "Polygon", "coordinates": [[[-71.091504, 42.362983], [-71.091616, 42.362993], [-71.091688, 42.36307], [-71.091843, 42.363084], [-71.091747, 42.363703], [-71.09136, 42.36368], [-71.091426, 42.363062], [-71.091491, 42.363068], [-71.091504, 42.362983]]]}, "properties": {"addr:city": "Cambridge", "addr:housenumber": "300", "addr:postcode": "02139", "addr:state": "MA", "addr:street": "Technology Square", "building": "yes", "name": "300 Technology Square"}}, {"type": "Feature", "id": 29945170, "geometry": {"type": "Polygon", "coordinates": [[[-71.092672, 42.361416], [-71.092778, 42.361531], [-71.09264, 42.361601], [-71.092648, 42.36161], [-71.09228, 42.361796], [-71.092165, 42.361671], [-71.092672, 42.361416]]]}, "properties": {"addr:city": "Cambridge", "addr:housename": "Cyclotron", "addr:housenumber": "51", "addr:postcode": "02139", "addr:state": "MA", "addr:street": "Vassar Street", "architect": "Mccreery &Theriault", "building": "university", "campusbuilding": "yes", "name": "Cyclotron", "ref": "44"}}, {"type": "Feature", "id": 32517105, "geometry": {"type": "Polygon", "coordinates": [[[-71.091976, 42.359978], [-71.092343, 42.359856], [-71.092356, 42.359876], [-71.092954, 42.359677], [-71.093124, 42.359621], [-71.09321, 42.359765], [-71.093265, 42.359855], [-71.091992, 42.360279], [-71.091852, 42.360049], [-71.091991, 42.360003], [-71.091976, 42.359978]]]}, "properties": {"addr:housename": "Bush Building", "addr:state": "MA", "alt_name": "Building 13", "building": "university", "building:levels": "6", "campusbuilding": "yes", "ele": "3", "gnis:county_name": "Middlesex", "gnis:feature_id": "1971061", "gnis:import_uuid": "57871b70-0100-4405-bb30-88b2e001a944", "gnis:reviewed": "no", "name": "Bush Building (13)", "ref": "13", "source": "Massachusetts Institute of Technology - Facility Information Systems;USGS Geonames"}}, {"type": "Feature", "id": 32517290, "geometry": {"type": "Polygon", "coordinates": [[[-71.092821, 42.359397], [-71.092602, 42.359468], [-71.092721, 42.359664], [-71.092941, 42.35959], [-71.092821, 42.359397]]]}, "properties": {"addr:state": "MA", "alt_name": "Homberg Building", "building": "university", "building:levels": "5", "ele": "3", "gnis:county_name": "Middlesex", "gnis:feature_id": "1971371", "gnis:import_uuid": "57871b70-0100-4405-bb30-88b2e001a944", "gnis:reviewed": "no", "name": "11 Homberg Building", "operator": "Massachusetts Institute of Technology", "ref": "11", "source": "Massachusetts Institute of Technology - Facility Information Systems;USGS Geonames"}}, {"type": "Feature", "id": 32517642, "geometry": {"type": "Polygon", "coordinates": [[[-71.091762, 42.359688], [-71.091694, 42.35971], [-71.091632, 42.359606], [-71.09162, 42.359587], [-71.091658, 42.359574], [-71.091647, 42.359556], [-71.092131, 42.359393], [-71.092142, 42.359411], [-71.092184, 42.359397], [-71.092193, 42.35941], [-71.09226, 42.359522], [-71.09219, 42.359545], [-71.092374, 42.359848], [-71.092343, 42.359856], [-71.091976, 42.359978], [-71.091943, 42.359989], [-71.091762, 42.359688]]]}, "properties": {"addr:housename": "Maclaurin Buildings (10)", "addr:housenumber": "222", "addr:street": "Memorial Drive", "alt_name": "Building 10", "building": "university", "building:levels": "7", "campusbuilding": "yes", "ele": "3", "name": "10", "ref": "10", "source": "Massachusetts Institute of Technology - Facility Information Systems"}}, {"type": "Feature", "id": 32517839, "geometry": {"type": "Polygon", "coordinates": [[[-71.09061, 42.359954], [-71.090731, 42.359913], [-71.091105, 42.359788], [-71.091196, 42.359939], [-71.090883, 42.360042], [-71.090957, 42.360166], [-71.090876, 42.360192], [-71.090736, 42.360239], [-71.090614, 42.360042], [-71.090567, 42.359967], [-71.09061, 42.359954]]]}, "properties": {"addr:housename": "Building 8", "alt_name": "Building 8", "building": "university", "campusbuilding": "yes", "name": "8", "ref": "8"}}, {"type": "Feature", "id": 32524914, "geometry": {"type": "Polygon", "coordinates": [[[-71.090638, 42.359539], [-71.090709, 42.359515], [-71.090705, 42.359509], [-71.090736, 42.359499], [-71.090726, 42.359482], [-71.09082, 42.359451], [-71.090834, 42.359474], [-71.090899, 42.359453], [-71.091105, 42.359788], [-71.090731, 42.359913], [-71.0907, 42.359862], [-71.090736, 42.35985], [-71.090565, 42.359569], [-71.090641, 42.359544], [-71.090638, 42.359539]]]}, "properties": {"addr:housename": "PDSI (Physics, DMSE, Spectroscopy, Infrastructure)", "addr:state": "MA", "alt_name": "Building 6C", "building": "university", "campusbuilding": "yes", "ele": "3", "gnis:county_name": "Middlesex", "gnis:feature_id": "1971780", "gnis:import_uuid": "57871b70-0100-4405-bb30-88b2e001a944", "gnis:reviewed": "no", "name": "6C PDSI", "ref": "6C", "source": "Massachusetts Institute of Technology - Facility Information Systems"}}, {"type": "Feature", "id": 32524923, "geometry": {"type": "Polygon", "coordinates": [[[-71.090575, 42.359375], [-71.090694, 42.359336], [-71.090771, 42.359463], [-71.090652, 42.359502], [-71.090575, 42.359375]]]}, "properties": {"alt_name": "Building 6B", "building": "university", "name": "6B", "ref": "6B", "source": "Massachusetts Institute of Technology - Facility Information Systems"}}, {"type": "Feature", "id": 32525350, "geometry": {"type": "Polygon", "coordinates": [[[-71.092983, 42.360933], [-71.092593, 42.361066], [-71.092576, 42.361041], [-71.092499, 42.360907], [-71.092447, 42.360812], [-71.092834, 42.360692], [-71.092851, 42.360711], [-71.092957, 42.360888], [-71.092983, 42.360933]]]}, "properties": {"addr:housename": "Brown Building", "addr:state": "MA", "alt_name": "Building 39", "building": "university", "building:levels": "7", "campusbuilding": "yes", "ele": "3", "gnis:county_name": "Middlesex", "gnis:feature_id": "1971044", "gnis:import_uuid": "57871b70-0100-4405-bb30-88b2e001a944", "gnis:reviewed": "no", "name": "39 Brown Building", "ref": "39", "source": "Massachusetts Institute of Technology - Facility Information Systems;USGS Geonames"}}, {"type": "Feature", "id": 32525380, "geometry": {"type": "Polygon", "coordinates": [[[-71.092499, 42.360907], [-71.092576, 42.361041], [-71.092502, 42.36106], [-71.092562, 42.361148], [-71.092138, 42.361294], [-71.092087, 42.361199], [-71.09207, 42.361174], [-71.09219, 42.361066], [-71.092164, 42.361009], [-71.092499, 42.360907]]]}, "properties": {"addr:housename": "Fairchild Building (38)", "alt_name": "Building 38", "building": "university", "building:levels": "7", "campusbuilding": "yes", "name": "38", "ref": "38", "source": "Massachusetts Institute of Technology - Facility Information Systems"}}, {"type": "Feature", "id": 32525583, "geometry": {"type": "Polygon", "coordinates": [[[-71.092087, 42.361066], [-71.092044, 42.361136], [-71.09207, 42.361174], [-71.092087, 42.361199], [-71.092027, 42.361294], [-71.091913, 42.361272], [-71.091908, 42.361275], [-71.091879, 42.361234], [-71.091892, 42.36123], [-71.091872, 42.361199], [-71.091747, 42.361161], [-71.09179, 42.361066], [-71.091842, 42.361049], [-71.091889, 42.361041], [-71.09197, 42.361009], [-71.092087, 42.361066]]]}, "properties": {"addr:housename": "EG&G Education Center", "addr:state": "MA", "alt_name": "Building 34", "building": "university", "building:levels": "5", "ele": "3", "gnis:county_name": "Middlesex", "gnis:feature_id": "1971199", "gnis:import_uuid": "57871b70-0100-4405-bb30-88b2e001a944", "gnis:reviewed": "no", "name": "34", "ref": "34", "source": "Massachusetts Institute of Technology - Facility Information Systems"}}, {"type": "Feature", "id": 32525936, "geometry": {"type": "Polygon", "coordinates": [[[-71.091405, 42.361021], [-71.091178, 42.360645], [-71.091215, 42.360633], [-71.091109, 42.360456], [-71.09098, 42.360499], [-71.090938, 42.360427], [-71.090908, 42.360436], [-71.09095, 42.360511], [-71.09055, 42.360643], [-71.090658, 42.360821], [-71.090993, 42.36071], [-71.091391, 42.361369], [-71.091581, 42.361306], [-71.091497, 42.361168], [-71.091625, 42.361125], [-71.091536, 42.360978], [-71.091405, 42.361021]]]}, "properties": {"addr:housename": "Compton Laboratories", "alt_name": "Building 26", "building": "university", "building:levels": "18", "campusbuilding": "yes", "ele": "3", "name": "26", "ref": "26"}}, {"type": "Feature", "id": 32526070, "geometry": {"type": "Polygon", "coordinates": [[[-71.090938, 42.360427], [-71.090908, 42.360436], [-71.090572, 42.360547], [-71.090593, 42.360582], [-71.090529, 42.360603], [-71.090506, 42.360566], [-71.090267, 42.360645], [-71.090179, 42.3605], [-71.090776, 42.360303], [-71.090736, 42.360239], [-71.090876, 42.360192], [-71.090909, 42.360247], [-71.090855, 42.360264], [-71.09095, 42.360422], [-71.090938, 42.360427]]]}, "properties": {"addr:housename": "Dorrance Building", "alt_name": "Building 16", "building": "university", "campusbuilding": "yes", "ele": "3", "name": "16", "ref": "16", "source": "Massachusetts Institute of Technology - Facility Information Systems"}}, {"type": "Feature", "id": 32526121, "geometry": {"type": "Polygon", "coordinates": [[[-71.090179, 42.3605], [-71.090267, 42.360645], [-71.090279, 42.360662], [-71.090255, 42.36067], [-71.089532, 42.360909], [-71.089484, 42.36083], [-71.089467, 42.360802], [-71.089435, 42.36075], [-71.090142, 42.360513], [-71.090171, 42.360504], [-71.090179, 42.3605]]]}, "properties": {"addr:housename": "Whitaker Building", "addr:state": "MA", "alt_name": "Building 56", "building": "university", "campusbuilding": "yes", "ele": "3", "gnis:county_name": "Middlesex", "gnis:feature_id": "1971862", "gnis:import_uuid": "57871b70-0100-4405-bb30-88b2e001a944", "gnis:reviewed": "no", "name": "56", "ref": "56", "source": "Massachusetts Institute of Technology - Facility Information System; USGS Geonames"}}, {"type": "Feature", "id": 32526333, "geometry": {"type": "Polygon", "coordinates": [[[-71.090413, 42.361198], [-71.090397, 42.361171], [-71.090499, 42.361138], [-71.090467, 42.361085], [-71.090425, 42.361099], [-71.090381, 42.361024], [-71.090314, 42.361046], [-71.09027, 42.360973], [-71.08982, 42.361119], [-71.089885, 42.361228], [-71.089859, 42.361236], [-71.089929, 42.361355], [-71.090413, 42.361198]]]}, "properties": {"addr:housenumber": "6", "addr:street": "Vassar Street", "alt_name": "Alumni Pool", "building": "university", "campusbuilding": "yes", "leisure": "swimming_pool", "name": "Alumni Pool", "ref": "57", "source": "Massachusetts Institute of Technology - Facility Information Systems"}}, {"type": "Feature", "id": 37095599, "geometry": {"type": "Polygon", "coordinates": [[[-71.08832, 42.363059], [-71.088307, 42.36317], [-71.088362, 42.36319], [-71.088551, 42.363267], [-71.088559, 42.363253], [-71.088699, 42.363315], [-71.08898, 42.363438], [-71.088992, 42.36331], [-71.088997, 42.363249], [-71.089101, 42.363254], [-71.089168, 42.362788], [-71.088363, 42.362741], [-71.08832, 42.363059]]]}, "properties": {"addr:city": "Cambridge", "addr:housename": "NE30", "addr:housenumber": "415", "addr:street": "Main Street", "alt_name": "Building NE30", "building": "yes", "building:levels": "7", "name": "Broad Institute", "wikipedia": "en:Broad Institute"}}, {"type": "Feature", "id": 46846324, "geometry": {"type": "Polygon", "coordinates": [[[-71.088697, 42.362304], [-71.088923, 42.362065], [-71.089806, 42.362124], [-71.089769, 42.362539], [-71.088665, 42.362456], [-71.088588, 42.362299], [-71.088697, 42.362304]]]}, "properties": {"addr:housename": "David H. Koch Institute for Integrative Cancer Research", "addr:housenumber": "500", "addr:street": "Main Street", "alt_name": "Building 76", "building": "university", "building:levels": "7", "campusbuilding": "yes", "description": "The David H Koch Institute for Integrative Cancer Research", "name": "David H. Koch Institute for Integrative Cancer Research", "ref": "76", "source": "Massachusetts Institute of Technology - Facility Information Systems", "wikipedia": "en:David H. Koch Institute for Integrative Cancer Research"}}, {"type": "Feature", "id": 58336511, "geometry": {"type": "Polygon", "coordinates": [[[-71.088739, 42.363898], [-71.088234, 42.363682], [-71.08857, 42.36328], [-71.088975, 42.363446], [-71.088965, 42.363516], [-71.088953, 42.363607], [-71.088915, 42.363659], [-71.088977, 42.363684], [-71.088835, 42.363876], [-71.088778, 42.363845], [-71.088739, 42.363898]]]}, "properties": {"access": "public", "addr:housenumber": "73;75;77", "addr:street": "Ames Street", "amenity": "parking", "building": "parking", "building:levels": "15", "fee": "yes", "name": "Cambridge Center Garage", "opening_hours": "24/7", "parking": "multi-storey"}}, {"type": "Feature", "id": 106989237, "geometry": {"type": "Polygon", "coordinates": [[[-71.088222, 42.363671], [-71.088101, 42.363631], [-71.087982, 42.363584], [-71.087966, 42.363565], [-71.087963, 42.363527], [-71.088218, 42.363205], [-71.088239, 42.363207], [-71.088505, 42.363317], [-71.088513, 42.363326], [-71.088222, 42.363671]]]}, "properties": {"addr2:housenumber": "73", "addr:city": "Cambridge", "addr:housenumber": "75", "addr:postcode": "02142", "addr:state": "MA", "addr:street": "Ames Street", "building": "yes", "building:levels": "15", "landuse": "commercial", "name": "Broad Institute Stanley Building"}}, {"type": "Feature", "id": 132601298, "geometry": {"type": "Polygon", "coordinates": [[[-71.093117, 42.361261], [-71.093035, 42.361171], [-71.093293, 42.361041], [-71.093375, 42.361132], [-71.093117, 42.361261]]]}, "properties": {"building": "university", "ref": "43"}}, {"type": "Feature", "id": 177921762, "geometry": {"type": "Polygon", "coordinates": [[[-71.088033, 42.360958], [-71.087834, 42.361023], [-71.087551, 42.361117], [-71.087475, 42.361142], [-71.087381, 42.360983], [-71.087233, 42.36073], [-71.08725, 42.360725], [-71.087739, 42.360562], [-71.087785, 42.360547], [-71.088033, 42.360958]]]}, "properties": {"addr:housename": "Wiesner Arts and Media Technology Building", "addr:state": "MA", "alt_name": "Building E15", "building": "university", "campusbuilding": "yes", "ele": "3", "gnis:county_name": "Middlesex", "gnis:feature_id": "1971956", "gnis:import_uuid": "57871b70-0100-4405-bb30-88b2e001a944", "gnis:reviewed": "no", "name": "E15", "source": "USGS Geonames", "wikidata": "Q7999383"}}, {"type": "Feature", "id": 177921857, "geometry": {"type": "Polygon", "coordinates": [[[-71.087565, 42.361745], [-71.087519, 42.361741], [-71.087433, 42.361734], [-71.087432, 42.361766], [-71.08756, 42.361775], [-71.087565, 42.361745]]]}, "properties": {"building": "university"}}, {"type": "Feature", "id": 220076812, "geometry": {"type": "Polygon", "coordinates": [[[-71.087587, 42.361595], [-71.088058, 42.361631], [-71.088186, 42.36164], [-71.088163, 42.361812], [-71.088018, 42.361801], [-71.088011, 42.361855], [-71.087861, 42.361845], [-71.087783, 42.36184], [-71.087767, 42.36196], [-71.087839, 42.361965], [-71.087834, 42.362004], [-71.087674, 42.361992], [-71.08767, 42.362029], [-71.087622, 42.362025], [-71.087627, 42.361986], [-71.087501, 42.361975], [-71.087488, 42.362011], [-71.087463, 42.362008], [-71.087437, 42.362006], [-71.087449, 42.361956], [-71.087437, 42.361944], [-71.087445, 42.361896], [-71.087538, 42.361903], [-71.087553, 42.361824], [-71.08756, 42.361775], [-71.087565, 42.361745], [-71.087587, 42.361595]]]}, "properties": {"addr:housename": "Ford Building", "alt_name": "Building E18", "building": "university", "building:levels": "6", "name": "E18", "ref": "E18"}}, {"type": "Feature", "id": 220076879, "geometry": {"type": "Polygon", "coordinates": [[[-71.088149, 42.361893], [-71.088153, 42.361865], [-71.088011, 42.361855], [-71.087861, 42.361845], [-71.087783, 42.36184], [-71.087767, 42.36196], [-71.087839, 42.361965], [-71.087834, 42.362004], [-71.087828, 42.362046], [-71.087777, 42.362445], [-71.087776, 42.362455], [-71.088069, 42.362477], [-71.088149, 42.361893]]]}, "properties": {"addr:housename": "Ford Building", "addr:housenumber": "400", "addr:state": "MA", "addr:street": "Main Street", "alt_name": "Building E19", "building": "university", "building:levels": "7", "campusbuilding": "yes", "ele": "3", "gnis:county_name": "Middlesex", "gnis:feature_id": "1971254", "gnis:import_uuid": "57871b70-0100-4405-bb30-88b2e001a944", "gnis:reviewed": "no", "name": "E19", "ref": "E19", "source": "USGS Geonames"}}, {"type": "Feature", "id": 220082897, "geometry": {"type": "Polygon", "coordinates": [[[-71.088116, 42.361578], [-71.088063, 42.361574], [-71.088058, 42.361631], [-71.087587, 42.361595], [-71.087621, 42.361364], [-71.088217, 42.361411], [-71.088193, 42.361584], [-71.088116, 42.361578]]]}, "properties": {"addr:housename": "Mudd Building", "addr:housenumber": "40", "addr:state": "MA", "addr:street": "Ames Street", "alt_name": "Building E17", "building": "university", "building:levels": "6", "campusbuilding": "yes", "ele": "3", "gnis:county_name": "Middlesex", "gnis:feature_id": "1971559", "gnis:import_uuid": "57871b70-0100-4405-bb30-88b2e001a944", "gnis:reviewed": "no", "name": "E17 Seely G. Mudd Building", "ref": "E17", "source": "USGS Geonames"}}, {"type": "Feature", "id": 328256023, "geometry": {"type": "Polygon", "coordinates": [[[-71.091057, 42.363656], [-71.09078, 42.363636], [-71.090869, 42.362958], [-71.090874, 42.362918], [-71.091223, 42.362943], [-71.091181, 42.363262], [-71.091109, 42.363256], [-71.091057, 42.363656]]]}, "properties": {"addr:housenumber": "200", "addr:street": "Technology Square", "building": "commercial", "name": "200 Technology Square"}}, {"type": "Feature", "id": 328256024, "geometry": {"type": "Polygon", "coordinates": [[[-71.090084, 42.363752], [-71.090167, 42.363576], [-71.090131, 42.363565], [-71.090204, 42.363449], [-71.090261, 42.363367], [-71.090322, 42.363286], [-71.090387, 42.363208], [-71.090455, 42.363131], [-71.090526, 42.363057], [-71.090615, 42.362972], [-71.090736, 42.362981], [-71.090741, 42.362949], [-71.090869, 42.362958], [-71.09078, 42.363636], [-71.090776, 42.363669], [-71.090825, 42.363672], [-71.090811, 42.363802], [-71.090084, 42.363752]]]}, "properties": {"addr:city": "Cambridge", "addr:housenumber": "100", "addr:postcode": "02139", "addr:state": "MA", "addr:street": "Technology Square", "building": "industrial", "building:levels": "9", "name": "100 Technology Square", "note": "8-story building. Lab space. Novartis. Built 2002. Rentable Sq Ft. 255,441 MIT/ Alexandria Real Estate"}}, {"type": "Feature", "id": 349283256, "geometry": {"type": "Polygon", "coordinates": [[[-71.08987, 42.361656], [-71.08989, 42.361657], [-71.089932, 42.361657], [-71.08999, 42.361647], [-71.090034, 42.361632], [-71.090076, 42.361601], [-71.090111, 42.361559], [-71.090124, 42.3615], [-71.090108, 42.361442], [-71.090079, 42.361409], [-71.09005, 42.361389], [-71.089991, 42.361365], [-71.089935, 42.361357], [-71.089895, 42.361358], [-71.089886, 42.361471], [-71.08988, 42.361539], [-71.08987, 42.361656]]]}, "properties": {"amenity": "theatre", "building": "yes", "capacity": "350", "covered": "no", "name": "Dertouzos Amphitheater"}}, {"type": "Feature", "id": 435078056, "geometry": {"type": "Polygon", "coordinates": [[[-71.093322, 42.359626], [-71.093312, 42.35963], [-71.093318, 42.35964], [-71.093231, 42.359668], [-71.093056, 42.359378], [-71.093153, 42.359346], [-71.093322, 42.359626]]]}, "properties": {"building": "university", "building:levels": "6", "campusbuilding": "yes", "name": "7A"}}, {"type": "Feature", "id": 479313188, "geometry": {"type": "Polygon", "coordinates": [[[-71.092333, 42.359836], [-71.091965, 42.359953], [-71.091809, 42.359686], [-71.092177, 42.359569], [-71.092333, 42.359836]]]}, "properties": {"building": "college", "building:levels": "8", "building:roof:shape": "dome"}}, {"type": "Feature", "id": 485224102, "geometry": {"type": "Polygon", "coordinates": [[[-71.089235, 42.360435], [-71.089228, 42.360424], [-71.089185, 42.360437], [-71.089118, 42.360324], [-71.089156, 42.360311], [-71.089149, 42.3603], [-71.08933, 42.360241], [-71.089451, 42.360202], [-71.089455, 42.36021], [-71.089493, 42.360197], [-71.089563, 42.360315], [-71.089521, 42.360329], [-71.089527, 42.36034], [-71.089235, 42.360435]]]}, "properties": {"building": "yes", "building:levels": "21", "height": "90", "name": "Green Building", "wikidata": "Q5602382"}}, {"type": "Feature", "id": 652551627, "geometry": {"type": "Polygon", "coordinates": [[[-71.087385, 42.363273], [-71.087439, 42.363277], [-71.087437, 42.363311], [-71.087673, 42.363323], [-71.08789, 42.363045], [-71.087622, 42.363027], [-71.08757, 42.363099], [-71.087405, 42.363094], [-71.087385, 42.363273]]]}, "properties": {"addr:city": "Cambridge", "addr:housenumber": "88", "addr:postcode": "02142", "addr:state": "MA", "addr:street": "Ames Street", "building": "apartments", "building:levels": "22", "name": "Proto", "website": "https://protokendallsq.com/"}}, {"type": "Feature", "id": 656372673, "geometry": {"type": "Polygon", "coordinates": [[[-71.091965, 42.360399], [-71.091656, 42.359872], [-71.091117, 42.360044], [-71.091439, 42.360579], [-71.091965, 42.360399]]]}, "properties": {"addr:city": "Cambridge", "addr:housenumber": "77", "addr:postcode": "02139", "addr:state": "MA", "addr:street": "Massachusetts Avenue", "addr:unit": "Building 12", "building": "industrial", "name": "MIT.nano", "office": "research", "phone": "617-253-3282", "website": "http://mitnano.mit.edu/"}}, {"type": "Feature", "id": 24494079, "geometry": {"type": "Polygon", "coordinates": [[[-71.086545, 42.36018], [-71.086472, 42.360086], [-71.086068, 42.360155], [-71.08606, 42.360118], [-71.08612, 42.360086], [-71.08606, 42.359889], [-71.086026, 42.359883], [-71.086, 42.359781], [-71.085828, 42.3598], [-71.085845, 42.359908], [-71.08582, 42.359915], [-71.085897, 42.360124], [-71.085983, 42.36013], [-71.085991, 42.360175], [-71.08527, 42.360289], [-71.085133, 42.360067], [-71.084936, 42.36013], [-71.085142, 42.360441], [-71.086545, 42.36018]]]}, "properties": {"addr:housenumber": "100", "addr:street": "Memorial Drive", "building": "university"}}, {"type": "Feature", "id": 29617037, "geometry": {"type": "Polygon", "coordinates": [[[-71.085175, 42.363391], [-71.085703, 42.363616], [-71.085572, 42.363784], [-71.085558, 42.363801], [-71.085607, 42.363822], [-71.085569, 42.363871], [-71.084992, 42.363625], [-71.085175, 42.363391]]]}, "properties": {"addr:housenumber": "33", "addr:street": "Broadway", "building": "yes"}}, {"type": "Feature", "id": 29742243, "geometry": {"type": "Polygon", "coordinates": [[[-71.085668, 42.362005], [-71.085637, 42.362246], [-71.085254, 42.362217], [-71.085289, 42.361955], [-71.085671, 42.361983], [-71.085668, 42.362005]]]}, "properties": {"addr:housename": "Building E39", "building": "university", "building:levels": "3", "campusbuilding": "yes", "name": "E39", "ref": "E39"}}, {"type": "Feature", "id": 29944552, "geometry": {"type": "Polygon", "coordinates": [[[-71.085575, 42.363037], [-71.085604, 42.36286], [-71.085642, 42.362571], [-71.085695, 42.362575], [-71.085701, 42.362527], [-71.084798, 42.36246], [-71.084792, 42.362501], [-71.084712, 42.362494], [-71.084699, 42.362589], [-71.08478, 42.362594], [-71.084767, 42.362686], [-71.084836, 42.362691], [-71.085575, 42.363037]]]}, "properties": {"addr:housenumber": "255", "addr:street": "Main Street", "alt_name": "Building NE18", "building": "university", "building:levels": "13", "campusbuilding": "yes", "name": "NE18", "ref": "NE18"}}, {"type": "Feature", "id": 132601295, "geometry": {"type": "Polygon", "coordinates": [[[-71.085637, 42.362246], [-71.085668, 42.362005], [-71.08608, 42.362036], [-71.086069, 42.362123], [-71.086048, 42.362276], [-71.085637, 42.362246]]]}, "properties": {"addr:housename": "Suffolk Building", "addr:housenumber": "292", "addr:state": "MA", "addr:street": "Main Street", "alt_name": "Building E38", "building": "university", "building:levels": "6", "campusbuilding": "yes", "ele": "3", "gnis:county_name": "Middlesex", "gnis:feature_id": "1971793", "gnis:import_uuid": "57871b70-0100-4405-bb30-88b2e001a944", "gnis:reviewed": "no", "name": "E38", "ref": "E38", "source": "USGS Geonames; MassGIS Buildings (http://www.mass.gov/mgis/lidarbuildingfp2d.htm)"}}, {"type": "Feature", "id": 155437850, "geometry": {"type": "Polygon", "coordinates": [[[-71.084868, 42.362246], [-71.086085, 42.362337], [-71.086098, 42.362243], [-71.086234, 42.362253], [-71.08623, 42.36228], [-71.086167, 42.362743], [-71.086126, 42.36274], [-71.086128, 42.362727], [-71.086146, 42.362594], [-71.086047, 42.362586], [-71.086056, 42.362522], [-71.084843, 42.362431], [-71.084868, 42.362246]]]}, "properties": {"building": "train_station", "layer": "-1", "location": "underground", "name": "Kendall/MIT Station"}}, {"type": "Feature", "id": 177921760, "geometry": {"type": "Polygon", "coordinates": [[[-71.086805, 42.360574], [-71.086775, 42.360801], [-71.086783, 42.360802], [-71.086795, 42.360803], [-71.086744, 42.361135], [-71.08674, 42.361171], [-71.086785, 42.361175], [-71.086781, 42.361218], [-71.086741, 42.361215], [-71.086718, 42.361383], [-71.086427, 42.361483], [-71.086554, 42.360652], [-71.086771, 42.360585], [-71.086805, 42.360574]]]}, "properties": {"addr:city": "Cambridge", "addr:housename": "Health Services", "addr:housenumber": "25", "addr:postcode": "02142", "addr:state": "MA", "addr:street": "Carleton Street", "alt_name": "Building E23", "building": "university", "building:levels": "6", "campusbuilding": "yes", "name": "MIT Medical", "wheelchair": "yes"}}, {"type": "Feature", "id": 212292958, "geometry": {"type": "Polygon", "coordinates": [[[-71.086823, 42.359749], [-71.086803, 42.359755], [-71.086821, 42.35979], [-71.086743, 42.359812], [-71.086713, 42.359753], [-71.086768, 42.359738], [-71.086764, 42.359729], [-71.086807, 42.359717], [-71.086823, 42.359749]]]}, "properties": {"building": "yes"}}, {"type": "Feature", "id": 220087810, "geometry": {"type": "Polygon", "coordinates": [[[-71.086258, 42.362155], [-71.086186, 42.36215], [-71.086181, 42.362182], [-71.08615, 42.362179], [-71.086137, 42.362273], [-71.08623, 42.36228], [-71.086234, 42.362253], [-71.086244, 42.362254], [-71.086258, 42.362155]]]}, "properties": {"building": "train_station"}}, {"type": "Feature", "id": 652081719, "geometry": {"type": "Polygon", "coordinates": [[[-71.085765, 42.361522], [-71.085785, 42.361354], [-71.085872, 42.36136], [-71.085868, 42.361396], [-71.086162, 42.361415], [-71.086146, 42.361547], [-71.085765, 42.361522]]]}, "properties": {"addr:housenumber": "42;44", "addr:street": "Carleton Street", "building": "yes"}}, {"type": "Feature", "id": 702152174, "geometry": {"type": "Polygon", "coordinates": [[[-71.086253, 42.362862], [-71.086157, 42.362854], [-71.086172, 42.362746], [-71.086193, 42.362606], [-71.086198, 42.362566], [-71.08631, 42.362575], [-71.086353, 42.362578], [-71.086347, 42.362619], [-71.086291, 42.362615], [-71.086253, 42.362862]]]}, "properties": {"building": "roof"}}, {"type": "Feature", "id": 712133787, "geometry": {"type": "Polygon", "coordinates": [[[-71.085795, 42.361212], [-71.086187, 42.361241], [-71.086169, 42.361378], [-71.085777, 42.361348], [-71.085795, 42.361212]]]}, "properties": {"building": "yes"}}]}